{"type":"FeatureCollection","features":[{"type":"Feature","properties":{"type":"forbidden","source":"village core outside the study area; OSM buildings (+1 m); commercial/religious compounds"},"geometry":{"type":"MultiPolygon","coordinates":[[[[28.7066551,47.1259162],[28.7066561,47.1259167],[28.7066572,47.1259172],[28.7066583,47.1259176],[28.7066595,47.1259179],[28.7066607,47.1259182],[28.7066835,47.1259219],[28.7066838,47.1259221],[28.7066847,47.1259228],[28.7066857,47.1259234],[28.7066867,47.1259239],[28.7066878,47.1259244],[28.706689,47.1259247],[28.7066903,47.125925],[28.7066915,47.1259252],[28.7068155,47.1259414],[28.7068168,47.1259416],[28.7068181,47.1259416],[28.7068193,47.1259416],[28.7068206,47.1259414],[28.7068218,47.1259412],[28.706823,47.1259409],[28.7068242,47.1259405],[28.7068253,47.1259401],[28.7068263,47.1259396],[28.7068273,47.125939],[28.7068281,47.1259384],[28.7068289,47.1259377],[28.7068296,47.1259369],[28.7068301,47.1259361],[28.7068306,47.1259353],[28.7068309,47.1259345],[28.7068712,47.1258046],[28.7068714,47.1258037],[28.7068715,47.1258028],[28.7068714,47.1258018],[28.7068712,47.1258009],[28.7068709,47.1258001],[28.7068704,47.1257992],[28.7068699,47.1257984],[28.7068692,47.1257976],[28.7068683,47.1257969],[28.7068679,47.1257965],[28.7068692,47.1257906],[28.7068694,47.1257897],[28.7068694,47.1257888],[28.7068692,47.1257879],[28.706869,47.125787],[28.7068686,47.1257862],[28.7068681,47.1257853],[28.7068675,47.1257846],[28.7068668,47.1257838],[28.7068659,47.1257831],[28.706865,47.1257825],[28.706864,47.1257819],[28.7068629,47.1257814],[28.7068617,47.125781],[28.7068605,47.1257807],[28.7068592,47.1257804],[28.7068065,47.125772],[28.7068052,47.1257719],[28.706804,47.1257718],[28.7068027,47.1257718],[28.7068014,47.1257719],[28.7068001,47.1257721],[28.7067989,47.1257724],[28.7067977,47.1257727],[28.7067966,47.1257731],[28.7067955,47.1257736],[28.7067945,47.1257742],[28.7067936,47.1257748],[28.7067928,47.1257755],[28.7067921,47.1257762],[28.7067915,47.125777],[28.7067911,47.1257778],[28.7067907,47.1257787],[28.7067895,47.1257822],[28.7067069,47.1257714],[28.7067056,47.1257712],[28.7067043,47.1257712],[28.7067031,47.1257712],[28.7067018,47.1257714],[28.7067006,47.1257716],[28.7066994,47.1257719],[28.7066982,47.1257723],[28.7066971,47.1257727],[28.7066961,47.1257732],[28.7066951,47.1257738],[28.7066943,47.1257744],[28.7066935,47.1257751],[28.7066928,47.1257759],[28.7066923,47.1257767],[28.7066918,47.1257775],[28.7066915,47.1257783],[28.7066509,47.1259075],[28.7066507,47.1259084],[28.7066506,47.1259092],[28.7066507,47.1259101],[28.7066508,47.125911],[28.7066511,47.1259118],[28.7066515,47.1259126],[28.706652,47.1259134],[28.7066527,47.1259142],[28.7066534,47.1259149],[28.7066542,47.1259156],[28.7066551,47.1259162]]],[[[28.706654,47.1259355],[28.7066532,47.1259362],[28.7066525,47.125937],[28.7066519,47.1259378],[28.7066515,47.1259386],[28.7066511,47.1259394],[28.7066137,47.1260541],[28.7066135,47.126055],[28.7066134,47.1260559],[28.7066135,47.1260568],[28.7066136,47.1260576],[28.7066139,47.1260585],[28.7066143,47.1260593],[28.7066148,47.1260601],[28.7066155,47.1260609],[28.7066162,47.1260616],[28.706617,47.1260623],[28.706618,47.1260629],[28.706619,47.1260634],[28.7066201,47.1260639],[28.7066212,47.1260643],[28.7066224,47.1260646],[28.7066237,47.1260649],[28.7067846,47.1260898],[28.7067859,47.1260899],[28.7067872,47.12609],[28.7067885,47.12609],[28.7067898,47.1260899],[28.706791,47.1260897],[28.7067923,47.1260894],[28.7067935,47.126089],[28.7067946,47.1260886],[28.7067957,47.1260881],[28.7067966,47.1260875],[28.7067975,47.1260868],[28.7067983,47.1260861],[28.706799,47.1260854],[28.7067996,47.1260846],[28.7068001,47.1260837],[28.7068004,47.1260829],[28.7068368,47.125967],[28.706837,47.1259661],[28.7068371,47.1259652],[28.706837,47.1259644],[28.7068369,47.1259635],[28.7068366,47.1259626],[28.7068362,47.1259618],[28.7068356,47.125961],[28.706835,47.1259602],[28.7068342,47.1259595],[28.7068334,47.1259588],[28.7068324,47.1259582],[28.7068314,47.1259577],[28.7068303,47.1259572],[28.7068292,47.1259568],[28.7068279,47.1259565],[28.7068267,47.1259563],[28.7066668,47.1259326],[28.7066655,47.1259325],[28.7066642,47.1259324],[28.706663,47.1259324],[28.7066617,47.1259325],[28.7066604,47.1259327],[28.7066592,47.125933],[28.706658,47.1259334],[28.7066569,47.1259338],[28.7066558,47.1259343],[28.7066549,47.1259349],[28.706654,47.1259355]]],[[[28.7067529,47.126493],[28.7067542,47.126493],[28.7067555,47.1264929],[28.7067568,47.1264928],[28.7067581,47.1264926],[28.7067593,47.1264922],[28.7067604,47.1264918],[28.7067616,47.1264914],[28.7067626,47.1264908],[28.7067635,47.1264902],[28.7067644,47.1264895],[28.7067651,47.1264888],[28.7067658,47.126488],[28.7067663,47.1264872],[28.7067667,47.1264864],[28.706767,47.1264855],[28.7067947,47.1263736],[28.7067948,47.1263727],[28.7067949,47.1263719],[28.7067948,47.126371],[28.7067946,47.1263702],[28.7067942,47.1263693],[28.7067938,47.1263685],[28.7067932,47.1263677],[28.7067925,47.126367],[28.7067918,47.1263663],[28.7067909,47.1263657],[28.70679,47.1263651],[28.7067889,47.1263646],[28.7067878,47.1263641],[28.7067867,47.1263638],[28.7067855,47.1263635],[28.7067843,47.1263633],[28.706752,47.1263589],[28.7067539,47.1263497],[28.706754,47.1263488],[28.706754,47.1263479],[28.7067538,47.126347],[28.7067535,47.1263462],[28.7067531,47.1263453],[28.7067526,47.1263445],[28.7067519,47.1263437],[28.7067512,47.126343],[28.7067503,47.1263423],[28.7067493,47.1263417],[28.7067483,47.1263411],[28.7067472,47.1263406],[28.706746,47.1263402],[28.7067447,47.1263399],[28.7067435,47.1263397],[28.7066272,47.1263233],[28.7066259,47.1263232],[28.7066246,47.1263231],[28.7066233,47.1263231],[28.706622,47.1263233],[28.7066208,47.1263235],[28.7066196,47.1263238],[28.7066184,47.1263241],[28.7066173,47.1263246],[28.7066163,47.1263251],[28.7066153,47.1263257],[28.7066144,47.1263263],[28.7066136,47.126327],[28.706613,47.1263278],[28.7066124,47.1263285],[28.7066119,47.1263294],[28.7066116,47.1263302],[28.7065715,47.1264579],[28.7065713,47.1264588],[28.7065712,47.1264597],[28.7065713,47.1264606],[28.7065715,47.1264615],[28.7065718,47.1264624],[28.7065722,47.1264632],[28.7065728,47.126464],[28.7065734,47.1264648],[28.7065742,47.1264655],[28.7065751,47.1264662],[28.7065761,47.1264668],[28.7065771,47.1264673],[28.7065783,47.1264678],[28.7065795,47.1264681],[28.7065807,47.1264684],[28.706582,47.1264686],[28.7065955,47.1264704],[28.7065956,47.1264704],[28.7065964,47.1264712],[28.7065972,47.1264718],[28.7065982,47.1264724],[28.7065993,47.1264729],[28.7066004,47.1264734],[28.7066016,47.1264738],[28.7066028,47.126474],[28.7066041,47.1264742],[28.7067516,47.1264928],[28.7067529,47.126493]]],[[[28.7066719,47.1266382],[28.7066706,47.1266382],[28.7066693,47.1266384],[28.7066681,47.1266386],[28.7066668,47.1266389],[28.7066657,47.1266393],[28.7066646,47.1266397],[28.7066635,47.1266402],[28.7066626,47.1266408],[28.7066617,47.1266415],[28.7066609,47.1266422],[28.7066603,47.1266429],[28.7066597,47.1266437],[28.7066593,47.1266446],[28.706659,47.1266454],[28.7066369,47.1267201],[28.7061365,47.1267275],[28.7054617,47.1267376],[28.7054764,47.1271981],[28.7054912,47.1276586],[28.7051437,47.1276638],[28.7051453,47.1276609],[28.7051457,47.12766],[28.7051459,47.1276592],[28.7051461,47.1276583],[28.7051461,47.1276574],[28.7051459,47.1276565],[28.7051457,47.1276557],[28.7051453,47.1276548],[28.7051448,47.127654],[28.7051442,47.1276532],[28.7051435,47.1276525],[28.7051427,47.1276518],[28.7051418,47.1276512],[28.7051408,47.1276506],[28.7051397,47.1276501],[28.7051386,47.1276497],[28.7051374,47.1276493],[28.7050185,47.1276198],[28.7050173,47.1276196],[28.705016,47.1276194],[28.7050147,47.1276193],[28.7050134,47.1276193],[28.7050121,47.1276194],[28.7050109,47.1276196],[28.7050096,47.1276198],[28.7050084,47.1276201],[28.7050073,47.1276206],[28.7050062,47.127621],[28.7050052,47.1276216],[28.7050043,47.1276222],[28.7050034,47.1276229],[28.7050027,47.1276236],[28.7050021,47.1276244],[28.7050016,47.1276252],[28.7049798,47.1276663],[28.7048164,47.1276687],[28.7048279,47.1280275],[28.7048278,47.1280275],[28.7048269,47.1280281],[28.704826,47.1280288],[28.7048253,47.1280295],[28.7048247,47.1280303],[28.7048242,47.1280311],[28.7048185,47.1280419],[28.7048006,47.1280379],[28.7047994,47.1280377],[28.7047981,47.1280376],[28.7047969,47.1280375],[28.7047956,47.1280375],[28.7047943,47.1280376],[28.7047931,47.1280378],[28.7047918,47.1280381],[28.7047907,47.1280385],[28.7047896,47.1280389],[28.7047885,47.1280394],[28.7047875,47.12804],[28.7047866,47.1280406],[28.7047859,47.1280413],[28.7047852,47.128042],[28.7047846,47.1280428],[28.7047841,47.1280436],[28.7047823,47.1280473],[28.7047638,47.128043],[28.7047625,47.1280427],[28.7047612,47.1280426],[28.7047599,47.1280425],[28.7047586,47.1280425],[28.7047573,47.1280426],[28.704756,47.1280428],[28.7047547,47.1280431],[28.7047535,47.1280435],[28.7047524,47.1280439],[28.7047513,47.1280445],[28.7047503,47.1280451],[28.7047494,47.1280457],[28.7047486,47.1280464],[28.7047479,47.1280472],[28.7047473,47.128048],[28.7047469,47.1280489],[28.7047466,47.1280495],[28.7047459,47.1280493],[28.7047447,47.1280492],[28.7047434,47.1280491],[28.7047421,47.1280491],[28.7047408,47.1280492],[28.7047396,47.1280494],[28.7047383,47.1280497],[28.7047372,47.12805],[28.704736,47.1280505],[28.704735,47.128051],[28.704734,47.1280515],[28.7047331,47.1280521],[28.7047323,47.1280528],[28.7047316,47.1280536],[28.704731,47.1280543],[28.7047305,47.1280552],[28.704703,47.1281095],[28.7047027,47.1281103],[28.7047024,47.1281112],[28.7047023,47.128112],[28.7047023,47.1281129],[28.7047025,47.1281138],[28.7047027,47.1281146],[28.7047031,47.1281155],[28.7047036,47.1281163],[28.7047042,47.1281171],[28.7047049,47.1281178],[28.7047058,47.1281185],[28.7047067,47.1281191],[28.7047077,47.1281196],[28.7047087,47.1281201],[28.7047099,47.1281205],[28.7047111,47.1281209],[28.7047502,47.1281304],[28.7041563,47.1281393],[28.7041711,47.1285998],[28.7041858,47.1290603],[28.7042005,47.1295208],[28.7042152,47.1299813],[28.7042639,47.1299806],[28.7044656,47.1299776],[28.704743,47.1299735],[28.70489,47.1299713],[28.7049728,47.1299701],[28.7052107,47.1299665],[28.7053984,47.1299637],[28.7055648,47.1299612],[28.7055655,47.1299823],[28.7055677,47.1300509],[28.7055764,47.1303254],[28.7055783,47.1303851],[28.7055795,47.1304218],[28.7058745,47.1304174],[28.7061043,47.130414],[28.7062543,47.1304117],[28.7062552,47.1304384],[28.706259,47.1305593],[28.7062691,47.1308722],[28.7069439,47.1308622],[28.7069586,47.1313227],[28.7076334,47.1313126],[28.7083082,47.1313026],[28.7085291,47.1312993],[28.7086801,47.131297],[28.7087083,47.1312966],[28.7087997,47.1312952],[28.708983,47.1312925],[28.7089683,47.130832],[28.7096431,47.1308219],[28.7096283,47.1303614],[28.7099554,47.1303565],[28.7100698,47.1303548],[28.7103031,47.1303513],[28.7102894,47.1299221],[28.7102884,47.1298908],[28.7103322,47.1298901],[28.7105676,47.1298866],[28.7107241,47.1298843],[28.7109632,47.1298807],[28.7109625,47.1298612],[28.7109594,47.1297629],[28.7109484,47.1294202],[28.7109482,47.1294152],[28.7109476,47.129396],[28.7109433,47.1292614],[28.7109422,47.1292273],[28.7109347,47.1289947],[28.7109336,47.1289597],[28.7109722,47.1289591],[28.7116084,47.1289496],[28.7115936,47.1284891],[28.7122684,47.128479],[28.7122536,47.1280185],[28.7126662,47.1280123],[28.7128338,47.1280098],[28.7129284,47.1280084],[28.7129136,47.1275479],[28.7131892,47.1275437],[28.7134263,47.1275402],[28.7135884,47.1275378],[28.7135851,47.1274369],[28.7135818,47.1273346],[28.7135736,47.1270772],[28.7135599,47.1266526],[28.7135588,47.1266167],[28.7136265,47.1266157],[28.7142335,47.1266066],[28.7142187,47.1261461],[28.7142452,47.1261457],[28.7143094,47.1261447],[28.714332,47.1261444],[28.714478,47.1261422],[28.7148935,47.126136],[28.7148877,47.1259567],[28.7148843,47.1258505],[28.7148787,47.1256755],[28.7155534,47.1256654],[28.7155386,47.1252049],[28.7162133,47.1251947],[28.7161985,47.1247342],[28.7168732,47.1247241],[28.716865,47.1244696],[28.7168604,47.1243258],[28.7168584,47.1242636],[28.7170865,47.1242602],[28.7170966,47.12426],[28.7175331,47.1242535],[28.7175299,47.124154],[28.7175274,47.124074],[28.717521,47.1238779],[28.7175203,47.1238547],[28.7175183,47.123793],[28.7181369,47.1237837],[28.718193,47.1237828],[28.7181914,47.1237326],[28.7181782,47.1233223],[28.7185414,47.1233169],[28.718576,47.1233163],[28.7188529,47.1233122],[28.7188452,47.1230724],[28.7188408,47.1229355],[28.7188385,47.1228655],[28.7188381,47.1228517],[28.7188353,47.1227671],[28.7188232,47.1223912],[28.7192242,47.1223851],[28.7193541,47.1223832],[28.7194979,47.122381],[28.7194831,47.1219205],[28.7201578,47.1219104],[28.7201445,47.1214989],[28.7201429,47.1214499],[28.7201728,47.1214494],[28.7208176,47.1214397],[28.7208027,47.1209792],[28.7214774,47.1209691],[28.7214626,47.1205085],[28.7214477,47.120048],[28.7214328,47.1195875],[28.7207582,47.1195976],[28.7200835,47.1196078],[28.7200768,47.1193991],[28.7200777,47.1193987],[28.7200787,47.1193981],[28.7200795,47.1193975],[28.7200803,47.1193967],[28.720081,47.119396],[28.7200816,47.1193952],[28.7200944,47.1193744],[28.7200948,47.1193735],[28.7200951,47.1193727],[28.7200953,47.1193718],[28.7200954,47.1193709],[28.7200953,47.11937],[28.7200951,47.1193692],[28.7200948,47.1193683],[28.7200944,47.1193675],[28.7200938,47.1193667],[28.7200786,47.1193473],[28.720078,47.1193465],[28.7200772,47.1193458],[28.7200764,47.1193452],[28.7200754,47.1193446],[28.720075,47.1193444],[28.720075,47.1193421],[28.7200888,47.1193197],[28.7200893,47.1193189],[28.7200896,47.119318],[28.7200898,47.1193171],[28.7200899,47.1193163],[28.7200898,47.1193154],[28.7200896,47.1193145],[28.7200893,47.1193137],[28.7200889,47.1193128],[28.7200884,47.119312],[28.7200877,47.1193113],[28.7200869,47.1193105],[28.7200861,47.1193099],[28.7200851,47.1193093],[28.7200841,47.1193088],[28.720083,47.1193083],[28.7200818,47.1193079],[28.7200738,47.1193056],[28.7200687,47.1191473],[28.7200538,47.1186867],[28.7193792,47.1186969],[28.7193925,47.1191088],[28.7193851,47.1191065],[28.7193839,47.1191062],[28.7193826,47.1191059],[28.7193813,47.1191058],[28.71938,47.1191057],[28.7193787,47.1191057],[28.7193774,47.1191058],[28.7193761,47.119106],[28.7193749,47.1191063],[28.7193748,47.1191063],[28.7193554,47.1191002],[28.7193542,47.1190999],[28.719353,47.1190996],[28.7193517,47.1190995],[28.7193504,47.1190994],[28.7193491,47.1190994],[28.7193478,47.1190995],[28.7193466,47.1190997],[28.7193453,47.1191],[28.7193441,47.1191003],[28.719343,47.1191007],[28.7193419,47.1191012],[28.7193409,47.1191018],[28.71934,47.1191024],[28.7193392,47.1191031],[28.7193385,47.1191039],[28.7193379,47.1191046],[28.7193236,47.1191258],[28.7193231,47.1191267],[28.7193228,47.1191275],[28.7193225,47.1191284],[28.7193224,47.1191292],[28.7193224,47.1191301],[28.7193226,47.119131],[28.7193228,47.1191319],[28.7193232,47.1191327],[28.7193237,47.1191335],[28.7193244,47.1191343],[28.7193251,47.119135],[28.7193259,47.1191357],[28.7193268,47.1191363],[28.7193278,47.1191369],[28.7193289,47.1191374],[28.7193301,47.1191378],[28.7193463,47.1191429],[28.7193359,47.1191583],[28.7187194,47.1191675],[28.7180447,47.1191776],[28.7173701,47.1191878],[28.7166954,47.1191979],[28.7160207,47.119208],[28.7160356,47.1196685],[28.7153609,47.1196786],[28.7146862,47.1196887],[28.7140116,47.1196988],[28.7140264,47.1201593],[28.7133517,47.1201694],[28.7133665,47.12063],[28.7126918,47.1206401],[28.7127066,47.1211006],[28.7127125,47.1212861],[28.7127124,47.121286],[28.7125915,47.1212158],[28.7125905,47.1212153],[28.7125894,47.1212148],[28.7125882,47.1212144],[28.712587,47.1212141],[28.7125857,47.1212139],[28.7125844,47.1212138],[28.7125831,47.1212137],[28.7125818,47.1212137],[28.7125805,47.1212139],[28.7125792,47.1212141],[28.7125779,47.1212144],[28.7125768,47.1212148],[28.7125756,47.1212152],[28.7125746,47.1212158],[28.7125736,47.1212164],[28.7125727,47.1212171],[28.712521,47.1212609],[28.7125203,47.1212616],[28.7125196,47.1212623],[28.7125191,47.1212631],[28.7125187,47.1212639],[28.7125184,47.1212648],[28.7125182,47.1212657],[28.7125181,47.1212665],[28.7125182,47.1212674],[28.7125184,47.1212683],[28.7125187,47.1212691],[28.7125191,47.12127],[28.7125197,47.1212707],[28.7125203,47.1212715],[28.7125211,47.1212722],[28.712522,47.1212729],[28.7125229,47.1212734],[28.7125469,47.1212869],[28.7125155,47.1213122],[28.712486,47.1212996],[28.7124849,47.1212992],[28.7124837,47.1212988],[28.7124826,47.1212985],[28.7124813,47.1212983],[28.7124801,47.1212982],[28.7124788,47.1212982],[28.7124776,47.1212983],[28.7124764,47.1212984],[28.7124751,47.1212986],[28.712474,47.1212989],[28.7124728,47.1212992],[28.7124718,47.1212997],[28.7124707,47.1213002],[28.7124698,47.1213008],[28.712469,47.1213014],[28.712417,47.1213432],[28.7124162,47.1213439],[28.7124155,47.1213446],[28.7124149,47.1213454],[28.7124144,47.1213463],[28.7124141,47.1213471],[28.7124139,47.121348],[28.7124138,47.1213489],[28.7124139,47.1213497],[28.712414,47.1213506],[28.7124143,47.1213515],[28.7124148,47.1213523],[28.7124153,47.1213531],[28.7124159,47.1213539],[28.7124167,47.1213546],[28.7124176,47.1213553],[28.7124185,47.1213559],[28.7125403,47.121426],[28.7125413,47.1214265],[28.7125424,47.121427],[28.7125436,47.1214274],[28.7125448,47.1214277],[28.7125461,47.1214279],[28.7125473,47.121428],[28.7125486,47.1214281],[28.7125499,47.1214281],[28.7125512,47.1214279],[28.7125525,47.1214277],[28.7125537,47.1214275],[28.7125549,47.1214271],[28.712556,47.1214266],[28.712557,47.1214261],[28.712558,47.1214255],[28.7125589,47.1214249],[28.712713,47.1212995],[28.7127214,47.1215611],[28.7120467,47.1215712],[28.7120615,47.1220317],[28.7113868,47.1220418],[28.7114015,47.1225023],[28.7107268,47.1225124],[28.7107416,47.1229729],[28.7100669,47.122983],[28.7100817,47.1234435],[28.7094069,47.1234536],[28.7094129,47.12364],[28.7093158,47.1235912],[28.7093147,47.1235907],[28.7093136,47.1235903],[28.7093124,47.1235899],[28.7093111,47.1235897],[28.7093099,47.1235895],[28.7093086,47.1235894],[28.7093073,47.1235894],[28.709306,47.1235895],[28.7093047,47.1235897],[28.7093035,47.12359],[28.7093023,47.1235903],[28.7093011,47.1235907],[28.7093001,47.1235912],[28.7092991,47.1235918],[28.7092982,47.1235924],[28.7092897,47.1235989],[28.7092608,47.1235851],[28.7092597,47.1235847],[28.7092585,47.1235843],[28.7092574,47.123584],[28.7092561,47.1235837],[28.7092549,47.1235836],[28.7092536,47.1235835],[28.7092523,47.1235835],[28.7092511,47.1235836],[28.7092498,47.1235838],[28.7092486,47.1235841],[28.7092474,47.1235844],[28.7092463,47.1235848],[28.7092452,47.1235853],[28.7092443,47.1235859],[28.7092434,47.1235865],[28.7092426,47.1235872],[28.7091609,47.1236633],[28.7091602,47.123664],[28.7091596,47.1236648],[28.7091591,47.1236656],[28.7091587,47.1236665],[28.7091585,47.1236673],[28.7091583,47.1236682],[28.7091583,47.1236691],[28.7091585,47.12367],[28.7091587,47.1236708],[28.7091591,47.1236717],[28.7091596,47.1236725],[28.7091602,47.1236732],[28.7091609,47.123674],[28.7091618,47.1236747],[28.7091627,47.1236753],[28.7091637,47.1236758],[28.7093014,47.1237453],[28.7093024,47.1237458],[28.7093036,47.1237462],[28.7093048,47.1237466],[28.709306,47.1237468],[28.7093073,47.123747],[28.7093086,47.1237471],[28.7093099,47.1237471],[28.7093111,47.123747],[28.7093124,47.1237468],[28.7093137,47.1237466],[28.7093148,47.1237462],[28.709316,47.1237458],[28.7093171,47.1237453],[28.7093181,47.1237448],[28.709319,47.1237441],[28.7093198,47.1237435],[28.7094135,47.1236571],[28.7094217,47.1239141],[28.708747,47.1239242],[28.7087617,47.1243847],[28.7087765,47.1248452],[28.7081018,47.1248553],[28.708106,47.1249866],[28.7080173,47.1249409],[28.7080163,47.1249404],[28.7080152,47.12494],[28.708014,47.1249397],[28.7080128,47.1249394],[28.7080115,47.1249392],[28.7080102,47.1249391],[28.7080089,47.1249391],[28.7080077,47.1249392],[28.7080064,47.1249393],[28.7080052,47.1249396],[28.708004,47.1249399],[28.7080028,47.1249403],[28.7080017,47.1249408],[28.7080007,47.1249413],[28.7079998,47.1249419],[28.707999,47.1249426],[28.7079123,47.1250192],[28.7079115,47.1250199],[28.7079109,47.1250207],[28.7079104,47.1250215],[28.70791,47.1250224],[28.7079097,47.1250233],[28.7079095,47.1250242],[28.7079095,47.125025],[28.7079096,47.1250259],[28.7079099,47.1250268],[28.7079103,47.1250277],[28.7079108,47.1250285],[28.7079114,47.1250293],[28.7079121,47.12503],[28.7079129,47.1250307],[28.7079139,47.1250314],[28.7079149,47.1250319],[28.7080478,47.1250989],[28.7080488,47.1250994],[28.70805,47.1250998],[28.7080511,47.1251002],[28.7080524,47.1251004],[28.7080536,47.1251006],[28.7080549,47.1251007],[28.7080562,47.1251007],[28.7080575,47.1251006],[28.7080587,47.1251004],[28.7080599,47.1251002],[28.7080611,47.1250999],[28.7080623,47.1250995],[28.7080633,47.125099],[28.7080643,47.1250984],[28.7080653,47.1250978],[28.7080661,47.1250972],[28.7081083,47.1250594],[28.7081165,47.1253158],[28.7074418,47.1253259],[28.7074565,47.1257864],[28.7074712,47.1262469],[28.7067965,47.126257],[28.7068093,47.1266564],[28.7066744,47.1266384],[28.7066732,47.1266382],[28.7066719,47.1266382]]],[[[28.7091931,47.1238035],[28.7091924,47.1238027],[28.7091916,47.1238021],[28.7091907,47.1238014],[28.7091897,47.1238009],[28.7090682,47.1237394],[28.7090671,47.1237389],[28.7090659,47.1237385],[28.7090647,47.1237381],[28.7090635,47.1237379],[28.7090622,47.1237377],[28.7090609,47.1237376],[28.7090596,47.1237376],[28.7090584,47.1237377],[28.7090571,47.1237379],[28.7090558,47.1237381],[28.7090547,47.1237385],[28.7090535,47.1237389],[28.7090524,47.1237394],[28.7090514,47.1237399],[28.7090505,47.1237406],[28.7090497,47.1237413],[28.7089575,47.1238264],[28.7089568,47.1238271],[28.7089562,47.1238279],[28.7089557,47.1238287],[28.7089553,47.1238295],[28.7089551,47.1238304],[28.7089549,47.1238313],[28.7089549,47.1238321],[28.7089551,47.123833],[28.7089553,47.1238339],[28.7089557,47.1238347],[28.7089562,47.1238355],[28.7089568,47.1238363],[28.7089575,47.1238371],[28.7089583,47.1238377],[28.7089592,47.1238384],[28.7089602,47.1238389],[28.709081,47.1239001],[28.7090821,47.1239006],[28.7090833,47.123901],[28.7090844,47.1239014],[28.7090857,47.1239016],[28.7090869,47.1239018],[28.7090882,47.1239019],[28.7090895,47.1239019],[28.7090908,47.1239018],[28.7090921,47.1239016],[28.7090933,47.1239014],[28.7090945,47.123901],[28.7090956,47.1239006],[28.7090967,47.1239001],[28.7090977,47.1238996],[28.7090986,47.123899],[28.7090995,47.1238983],[28.7091924,47.1238135],[28.7091931,47.1238128],[28.7091937,47.123812],[28.7091942,47.1238112],[28.7091946,47.1238103],[28.7091948,47.1238094],[28.709195,47.1238086],[28.709195,47.1238077],[28.7091948,47.1238068],[28.7091946,47.1238059],[28.7091942,47.1238051],[28.7091937,47.1238043],[28.7091931,47.1238035]]],[[[28.7083994,47.1243682],[28.7084,47.124369],[28.7084007,47.1243697],[28.7084015,47.1243704],[28.7084023,47.1243711],[28.7084033,47.1243717],[28.7084866,47.1244177],[28.7084877,47.1244182],[28.7084888,47.1244187],[28.70849,47.124419],[28.7084912,47.1244193],[28.7084925,47.1244195],[28.7084938,47.1244197],[28.7084951,47.1244197],[28.7084964,47.1244196],[28.7084977,47.1244195],[28.708499,47.1244193],[28.7085002,47.1244189],[28.7085014,47.1244185],[28.7085025,47.1244181],[28.7085035,47.1244175],[28.7085045,47.1244169],[28.7085053,47.1244162],[28.7085816,47.1243491],[28.7085824,47.1243484],[28.708583,47.1243476],[28.7085835,47.1243468],[28.7085839,47.124346],[28.7085842,47.1243451],[28.7085844,47.1243442],[28.7085844,47.1243433],[28.7085843,47.1243424],[28.708584,47.1243415],[28.7085837,47.1243407],[28.7085832,47.1243399],[28.7085826,47.1243391],[28.7085819,47.1243383],[28.7085811,47.1243376],[28.7085802,47.124337],[28.7085792,47.1243364],[28.708497,47.1242939],[28.7084959,47.1242934],[28.7084948,47.124293],[28.7084937,47.1242927],[28.7084925,47.1242924],[28.7084912,47.1242922],[28.70849,47.1242921],[28.7084887,47.1242921],[28.7084875,47.1242922],[28.7084863,47.1242923],[28.708485,47.1242925],[28.7084839,47.1242928],[28.7084827,47.1242932],[28.7084816,47.1242936],[28.7084806,47.1242941],[28.7084797,47.1242947],[28.7084789,47.1242954],[28.7084015,47.124359],[28.7084007,47.1243597],[28.7084,47.1243604],[28.7083994,47.1243612],[28.708399,47.1243621],[28.7083987,47.1243629],[28.7083985,47.1243638],[28.7083984,47.1243647],[28.7083985,47.1243656],[28.7083987,47.1243665],[28.708399,47.1243673],[28.7083994,47.1243682]]],[[[28.7083447,47.1245988],[28.7083459,47.1245984],[28.708347,47.1245979],[28.708348,47.1245973],[28.7083489,47.1245967],[28.7083497,47.124596],[28.7084456,47.1245091],[28.7084464,47.1245084],[28.708447,47.1245076],[28.7084475,47.1245068],[28.7084479,47.124506],[28.7084481,47.1245051],[28.7084483,47.1245042],[28.7084483,47.1245034],[28.7084482,47.1245025],[28.7084479,47.1245016],[28.7084476,47.1245008],[28.7084471,47.1245],[28.7084465,47.1244992],[28.7084458,47.1244984],[28.708445,47.1244978],[28.7084441,47.1244971],[28.7084431,47.1244966],[28.7083147,47.1244295],[28.7083136,47.124429],[28.7083125,47.1244285],[28.7083113,47.1244282],[28.7083101,47.1244279],[28.7083088,47.1244277],[28.7083075,47.1244276],[28.7083062,47.1244276],[28.7083049,47.1244277],[28.7083036,47.1244278],[28.7083024,47.1244281],[28.7083012,47.1244284],[28.7083,47.1244288],[28.708299,47.1244293],[28.7082979,47.1244299],[28.708297,47.1244305],[28.7082962,47.1244312],[28.7082002,47.1245179],[28.7081995,47.1245186],[28.7081988,47.1245194],[28.7081983,47.1245202],[28.7081979,47.124521],[28.7081977,47.1245219],[28.7081975,47.1245228],[28.7081975,47.1245236],[28.7081976,47.1245245],[28.7081979,47.1245254],[28.7081982,47.1245262],[28.7081987,47.124527],[28.7081993,47.1245278],[28.7082,47.1245286],[28.7082008,47.1245292],[28.7082017,47.1245299],[28.7082027,47.1245304],[28.7083312,47.1245977],[28.7083322,47.1245982],[28.7083334,47.1245987],[28.7083346,47.124599],[28.7083358,47.1245993],[28.7083371,47.1245995],[28.7083384,47.1245996],[28.7083397,47.1245996],[28.708341,47.1245995],[28.7083423,47.1245994],[28.7083435,47.1245991],[28.7083447,47.1245988]]],[[[28.7081509,47.1247768],[28.7081521,47.1247764],[28.7081531,47.1247759],[28.7081541,47.1247754],[28.708155,47.1247747],[28.7081558,47.1247741],[28.7082447,47.1246953],[28.7082455,47.1246946],[28.7082461,47.1246938],[28.7082466,47.124693],[28.708247,47.1246921],[28.7082473,47.1246913],[28.7082475,47.1246904],[28.7082475,47.1246895],[28.7082474,47.1246886],[28.7082471,47.1246877],[28.7082468,47.1246869],[28.7082463,47.124686],[28.7082457,47.1246853],[28.708245,47.1246845],[28.7082442,47.1246838],[28.7082432,47.1246832],[28.7082422,47.1246826],[28.7080931,47.1246058],[28.7080921,47.1246053],[28.7080909,47.1246049],[28.7080897,47.1246046],[28.7080885,47.1246043],[28.7080872,47.1246041],[28.7080859,47.124604],[28.7080846,47.124604],[28.7080833,47.1246041],[28.7080821,47.1246043],[28.7080808,47.1246045],[28.7080796,47.1246049],[28.7080785,47.1246053],[28.7080774,47.1246058],[28.7080764,47.1246063],[28.7080755,47.1246069],[28.7080746,47.1246076],[28.7079851,47.1246896],[28.7079844,47.1246904],[28.7079838,47.1246912],[28.7079833,47.124692],[28.7079829,47.1246928],[28.7079827,47.1246937],[28.7079825,47.1246946],[28.7079825,47.1246955],[28.7079827,47.1246964],[28.7079829,47.1246972],[28.7079833,47.1246981],[28.7079838,47.1246989],[28.7079845,47.1246997],[28.7079852,47.1247004],[28.707986,47.1247011],[28.707987,47.1247017],[28.707988,47.1247023],[28.7081377,47.1247759],[28.7081388,47.1247764],[28.7081399,47.1247768],[28.7081411,47.1247771],[28.7081423,47.1247773],[28.7081435,47.1247775],[28.7081448,47.1247776],[28.708146,47.1247776],[28.7081473,47.1247775],[28.7081486,47.1247773],[28.7081498,47.1247771],[28.7081509,47.1247768]]],[[[28.7114769,47.1213597],[28.7114781,47.1213593],[28.7114792,47.1213589],[28.7114803,47.1213584],[28.7114813,47.1213578],[28.7114822,47.1213572],[28.711483,47.1213565],[28.7115806,47.121266],[28.7115813,47.1212653],[28.7115819,47.1212645],[28.7115824,47.1212637],[28.7115828,47.1212628],[28.711583,47.121262],[28.7115832,47.1212611],[28.7115832,47.1212602],[28.711583,47.1212593],[28.7115828,47.1212585],[28.7115824,47.1212576],[28.7115819,47.1212568],[28.7115813,47.121256],[28.7115805,47.1212553],[28.7115797,47.1212546],[28.7115788,47.121254],[28.7115778,47.1212534],[28.7114357,47.1211824],[28.7114346,47.121182],[28.7114335,47.1211815],[28.7114323,47.1211812],[28.711431,47.121181],[28.7114298,47.1211808],[28.7114285,47.1211807],[28.7114272,47.1211807],[28.7114259,47.1211808],[28.7114246,47.121181],[28.7114234,47.1211812],[28.7114222,47.1211816],[28.7114211,47.121182],[28.71142,47.1211825],[28.711419,47.1211831],[28.7114181,47.1211837],[28.7114173,47.1211844],[28.7113197,47.1212749],[28.711319,47.1212756],[28.7113184,47.1212764],[28.7113179,47.1212772],[28.7113175,47.1212781],[28.7113173,47.1212789],[28.7113171,47.1212798],[28.7113171,47.1212807],[28.7113173,47.1212816],[28.7113175,47.1212824],[28.7113179,47.1212833],[28.7113184,47.1212841],[28.711319,47.1212849],[28.7113198,47.1212856],[28.7113206,47.1212863],[28.7113215,47.1212869],[28.7113225,47.1212875],[28.7114646,47.1213585],[28.7114657,47.1213589],[28.7114668,47.1213594],[28.711468,47.1213597],[28.7114693,47.1213599],[28.7114705,47.1213601],[28.7114718,47.1213602],[28.7114731,47.1213602],[28.7114744,47.1213601],[28.7114757,47.1213599],[28.7114769,47.1213597]]],[[[28.711304,47.1219189],[28.7113047,47.1219196],[28.7113056,47.1219203],[28.7113065,47.121921],[28.7113075,47.1219215],[28.7113086,47.121922],[28.7114532,47.1219788],[28.7114544,47.1219792],[28.7114556,47.1219795],[28.7114569,47.1219798],[28.7114582,47.1219799],[28.7114595,47.12198],[28.7114608,47.12198],[28.7114621,47.1219799],[28.7114634,47.1219797],[28.7114646,47.1219794],[28.7114658,47.121979],[28.711467,47.1219785],[28.711468,47.121978],[28.711469,47.1219774],[28.7114699,47.1219768],[28.7114707,47.121976],[28.7114714,47.1219753],[28.7115434,47.1218843],[28.711544,47.1218835],[28.7115444,47.1218826],[28.7115447,47.1218817],[28.7115449,47.1218808],[28.711545,47.1218799],[28.7115449,47.121879],[28.7115447,47.1218781],[28.7115443,47.1218772],[28.7115439,47.1218764],[28.7115433,47.1218755],[28.7115425,47.1218748],[28.7115417,47.1218741],[28.7115408,47.1218734],[28.7115397,47.1218728],[28.7115386,47.1218723],[28.7114596,47.1218396],[28.7114653,47.1218331],[28.7114659,47.1218324],[28.7114664,47.1218315],[28.7114668,47.1218307],[28.711467,47.1218298],[28.7114672,47.1218289],[28.7114672,47.1218281],[28.711467,47.1218272],[28.7114668,47.1218263],[28.7114664,47.1218255],[28.7114659,47.1218247],[28.7114653,47.1218239],[28.7114646,47.1218231],[28.7114638,47.1218225],[28.7114629,47.1218218],[28.7114619,47.1218213],[28.7114608,47.1218208],[28.7114152,47.1218021],[28.7114141,47.1218017],[28.7114129,47.1218013],[28.7114116,47.1218011],[28.7114104,47.1218009],[28.7114091,47.1218008],[28.7114078,47.1218008],[28.7114065,47.1218009],[28.7114053,47.1218011],[28.711404,47.1218013],[28.7114028,47.1218016],[28.7114017,47.1218021],[28.7114006,47.1218025],[28.7113996,47.1218031],[28.7113987,47.1218037],[28.7113979,47.1218044],[28.7113971,47.1218051],[28.7113039,47.1219095],[28.7113033,47.1219103],[28.7113028,47.1219111],[28.7113024,47.121912],[28.7113022,47.1219129],[28.711302,47.1219138],[28.711302,47.1219147],[28.7113022,47.1219156],[28.7113024,47.1219164],[28.7113028,47.1219173],[28.7113033,47.1219181],[28.711304,47.1219189]]],[[[28.7112343,47.122152],[28.7112354,47.1221516],[28.7112364,47.1221511],[28.7112374,47.1221506],[28.7112383,47.12215],[28.7112391,47.1221493],[28.7113308,47.122066],[28.7113316,47.1220653],[28.7113322,47.1220645],[28.7113327,47.1220637],[28.7113331,47.1220628],[28.7113333,47.1220619],[28.7113335,47.122061],[28.7113335,47.1220601],[28.7113333,47.1220592],[28.7113331,47.1220584],[28.7113327,47.1220575],[28.7113322,47.1220567],[28.7113315,47.1220559],[28.7113308,47.1220552],[28.71133,47.1220545],[28.711329,47.1220539],[28.711328,47.1220533],[28.7111951,47.1219881],[28.711194,47.1219876],[28.7111929,47.1219872],[28.7111917,47.1219869],[28.7111905,47.1219867],[28.7111892,47.1219865],[28.711188,47.1219864],[28.7111867,47.1219864],[28.7111854,47.1219865],[28.7111842,47.1219867],[28.7111829,47.1219869],[28.7111818,47.1219873],[28.7111806,47.1219877],[28.7111796,47.1219882],[28.7111786,47.1219887],[28.7111777,47.1219893],[28.7111769,47.12199],[28.7110849,47.1220737],[28.7110841,47.1220744],[28.7110835,47.1220752],[28.711083,47.1220761],[28.7110826,47.1220769],[28.7110824,47.1220778],[28.7110822,47.1220787],[28.7110822,47.1220796],[28.7110824,47.1220805],[28.7110826,47.1220814],[28.711083,47.1220822],[28.7110835,47.122083],[28.7110842,47.1220838],[28.7110849,47.1220846],[28.7110858,47.1220852],[28.7110867,47.1220859],[28.7110877,47.1220864],[28.7112209,47.1221512],[28.711222,47.1221517],[28.7112232,47.1221521],[28.7112243,47.1221524],[28.7112256,47.1221527],[28.7112268,47.1221528],[28.7112281,47.1221529],[28.7112294,47.1221529],[28.7112306,47.1221528],[28.7112319,47.1221526],[28.7112331,47.1221524],[28.7112343,47.122152]]],[[[28.7102915,47.1228875],[28.7102926,47.122887],[28.7102936,47.1228865],[28.7102946,47.1228859],[28.7102955,47.1228853],[28.7103877,47.1228106],[28.7103885,47.1228099],[28.7103891,47.1228091],[28.7103897,47.1228084],[28.7103902,47.1228075],[28.7103905,47.1228067],[28.7103907,47.1228058],[28.7103908,47.1228049],[28.7103907,47.122804],[28.7103906,47.1228032],[28.7103903,47.1228023],[28.7103899,47.1228015],[28.7103893,47.1228007],[28.7103887,47.1227999],[28.7103879,47.1227992],[28.7103871,47.1227985],[28.7103861,47.1227979],[28.7102178,47.1227004],[28.7102168,47.1226999],[28.7102157,47.1226994],[28.7102145,47.122699],[28.7102133,47.1226987],[28.710212,47.1226985],[28.7102107,47.1226984],[28.7102094,47.1226983],[28.7102081,47.1226983],[28.7102068,47.1226985],[28.7102055,47.1226987],[28.7102043,47.122699],[28.7102031,47.1226993],[28.710202,47.1226998],[28.710201,47.1227003],[28.7102,47.1227009],[28.7101991,47.1227016],[28.710106,47.1227791],[28.7101052,47.1227798],[28.7101046,47.1227806],[28.710104,47.1227814],[28.7101036,47.1227822],[28.7101033,47.122783],[28.7101031,47.1227839],[28.710103,47.1227848],[28.7101031,47.1227857],[28.7101033,47.1227866],[28.7101036,47.1227874],[28.710104,47.1227882],[28.7101046,47.122789],[28.7101052,47.1227898],[28.710106,47.1227905],[28.7101069,47.1227912],[28.7101078,47.1227918],[28.710277,47.1228865],[28.7102781,47.122887],[28.7102792,47.1228874],[28.7102803,47.1228878],[28.7102815,47.1228881],[28.7102828,47.1228883],[28.710284,47.1228884],[28.7102853,47.1228885],[28.7102866,47.1228885],[28.7102879,47.1228883],[28.7102891,47.1228881],[28.7102903,47.1228878],[28.7102915,47.1228875]]],[[[28.7124799,47.1208951],[28.7124811,47.1208947],[28.7124823,47.1208943],[28.7124834,47.1208938],[28.7124844,47.1208932],[28.7124853,47.1208925],[28.7125528,47.1208402],[28.7125536,47.1208396],[28.7125543,47.1208388],[28.7125549,47.120838],[28.7125554,47.1208372],[28.7125557,47.1208363],[28.712556,47.1208355],[28.7125561,47.1208346],[28.7125561,47.1208337],[28.7125559,47.1208328],[28.7125556,47.120832],[28.7125552,47.1208311],[28.7125547,47.1208303],[28.7125541,47.1208295],[28.7125533,47.1208288],[28.7125525,47.1208281],[28.7125516,47.1208275],[28.7124594,47.1207726],[28.7124583,47.1207721],[28.7124572,47.1207716],[28.7124561,47.1207712],[28.7124548,47.1207709],[28.7124536,47.1207706],[28.7124523,47.1207705],[28.712451,47.1207704],[28.7124496,47.1207704],[28.7124483,47.1207705],[28.7124471,47.1207708],[28.7124458,47.120771],[28.7124446,47.1207714],[28.7124435,47.1207719],[28.7124424,47.1207724],[28.7124415,47.120773],[28.7124406,47.1207736],[28.7123785,47.1208246],[28.7123777,47.1208254],[28.712377,47.1208261],[28.7123764,47.120827],[28.712376,47.1208278],[28.7123757,47.1208287],[28.7123755,47.1208296],[28.7123754,47.1208305],[28.7123755,47.1208314],[28.7123757,47.1208323],[28.712376,47.1208331],[28.7123765,47.120834],[28.7123771,47.1208348],[28.7123778,47.1208356],[28.7123786,47.1208363],[28.7123795,47.1208369],[28.7124663,47.1208931],[28.7124673,47.1208937],[28.7124684,47.1208942],[28.7124696,47.1208947],[28.7124708,47.120895],[28.7124721,47.1208953],[28.7124734,47.1208955],[28.7124747,47.1208956],[28.712476,47.1208956],[28.7124773,47.1208955],[28.7124786,47.1208953],[28.7124799,47.1208951]]],[[[28.7115982,47.1216484],[28.7115989,47.1216491],[28.7115996,47.1216498],[28.7116005,47.1216505],[28.7116014,47.1216511],[28.7116024,47.1216516],[28.7117426,47.1217175],[28.7117437,47.121718],[28.7117449,47.1217184],[28.7117461,47.1217187],[28.7117474,47.1217189],[28.7117487,47.121719],[28.71175,47.1217191],[28.7117513,47.1217191],[28.7117526,47.1217189],[28.7117539,47.1217187],[28.7117551,47.1217184],[28.7117563,47.121718],[28.7117574,47.1217176],[28.7117585,47.1217171],[28.7117594,47.1217165],[28.7117603,47.1217158],[28.7117611,47.1217151],[28.7117957,47.1216796],[28.7117963,47.1216788],[28.7117969,47.121678],[28.7117973,47.1216772],[28.7117976,47.1216763],[28.7117978,47.1216754],[28.7117979,47.1216746],[28.7117978,47.1216737],[28.7117976,47.1216728],[28.7117973,47.1216719],[28.7117968,47.1216711],[28.7117963,47.1216703],[28.7117956,47.1216695],[28.7117948,47.1216688],[28.7117939,47.1216682],[28.711793,47.1216676],[28.7117919,47.1216671],[28.7117795,47.1216615],[28.7118192,47.1216185],[28.7118198,47.1216177],[28.7118203,47.1216169],[28.7118207,47.1216161],[28.711821,47.1216153],[28.7118211,47.1216144],[28.7118212,47.1216135],[28.7118211,47.1216127],[28.7118209,47.1216118],[28.7118206,47.121611],[28.7118201,47.1216102],[28.7118196,47.1216094],[28.7118189,47.1216086],[28.7118181,47.1216079],[28.7118173,47.1216073],[28.7118163,47.1216067],[28.7118153,47.1216062],[28.7116989,47.1215534],[28.7116978,47.121553],[28.7116966,47.1215526],[28.7116954,47.1215523],[28.7116941,47.1215521],[28.7116929,47.1215519],[28.7116916,47.1215519],[28.7116903,47.1215519],[28.711689,47.1215521],[28.7116878,47.1215523],[28.7116866,47.1215526],[28.7116854,47.121553],[28.7116843,47.1215534],[28.7116832,47.1215539],[28.7116823,47.1215545],[28.7116814,47.1215552],[28.7116806,47.1215559],[28.7115989,47.1216392],[28.7115983,47.1216399],[28.7115977,47.1216407],[28.7115973,47.1216416],[28.711597,47.1216424],[28.7115968,47.1216433],[28.7115967,47.1216441],[28.7115968,47.121645],[28.711597,47.1216459],[28.7115973,47.1216467],[28.7115977,47.1216476],[28.7115982,47.1216484]]],[[[28.7139661,47.1194507],[28.7139668,47.1194515],[28.7139675,47.1194522],[28.7139684,47.1194529],[28.7139694,47.1194535],[28.7141105,47.1195338],[28.7141115,47.1195343],[28.7141126,47.1195348],[28.7141138,47.1195352],[28.714115,47.1195355],[28.7141163,47.1195357],[28.7141176,47.1195359],[28.7141189,47.1195359],[28.7141202,47.1195359],[28.7141215,47.1195357],[28.7141228,47.1195355],[28.714124,47.1195352],[28.7141252,47.1195348],[28.7141263,47.1195343],[28.7141273,47.1195338],[28.7141283,47.1195332],[28.7141292,47.1195325],[28.7142187,47.1194564],[28.7142194,47.1194557],[28.7142201,47.119455],[28.7142206,47.1194542],[28.714221,47.1194534],[28.7142213,47.1194526],[28.7142215,47.1194517],[28.7142216,47.1194508],[28.7142215,47.11945],[28.7142213,47.1194491],[28.7142211,47.1194483],[28.7142206,47.1194475],[28.7142201,47.1194467],[28.7142195,47.1194459],[28.7142187,47.1194452],[28.7142179,47.1194446],[28.714217,47.119444],[28.7141885,47.1194272],[28.7142034,47.119413],[28.7142041,47.1194123],[28.7142047,47.1194115],[28.7142052,47.1194106],[28.7142056,47.1194098],[28.7142058,47.1194089],[28.7142059,47.119408],[28.7142058,47.1194071],[28.7142057,47.1194062],[28.7142054,47.1194053],[28.7142049,47.1194045],[28.7142044,47.1194036],[28.7142037,47.1194029],[28.7142029,47.1194021],[28.7142021,47.1194015],[28.7142011,47.1194009],[28.7141847,47.1193917],[28.7141931,47.1193847],[28.7141938,47.119384],[28.7141945,47.1193833],[28.714195,47.1193825],[28.7141955,47.1193817],[28.7141958,47.1193809],[28.714196,47.11938],[28.7141961,47.1193792],[28.714196,47.1193783],[28.7141959,47.1193774],[28.7141956,47.1193766],[28.7141952,47.1193758],[28.7141947,47.119375],[28.7141941,47.1193743],[28.7141934,47.1193735],[28.7141926,47.1193729],[28.7141917,47.1193723],[28.7141098,47.1193224],[28.7141087,47.1193218],[28.7141076,47.1193213],[28.7141064,47.1193209],[28.7141052,47.1193206],[28.7141039,47.1193203],[28.7141026,47.1193202],[28.7141013,47.1193201],[28.7141,47.1193201],[28.7140986,47.1193202],[28.7140973,47.1193205],[28.7140961,47.1193208],[28.7140949,47.1193211],[28.7140937,47.1193216],[28.7140927,47.1193221],[28.7140917,47.1193227],[28.7140908,47.1193234],[28.7139883,47.1194094],[28.7139875,47.1194101],[28.7139869,47.1194109],[28.7139863,47.1194116],[28.7139859,47.1194124],[28.7139856,47.1194133],[28.7139854,47.1194141],[28.7139853,47.119415],[28.7139854,47.1194159],[28.7139855,47.1194167],[28.7139858,47.1194176],[28.7139862,47.1194184],[28.7139867,47.1194192],[28.7139874,47.1194199],[28.7139881,47.1194206],[28.7139882,47.1194207],[28.713967,47.1194414],[28.7139663,47.1194422],[28.7139657,47.119443],[28.7139653,47.1194438],[28.7139649,47.1194447],[28.7139647,47.1194456],[28.7139646,47.1194465],[28.7139647,47.1194473],[28.7139648,47.1194482],[28.7139651,47.1194491],[28.7139656,47.1194499],[28.7139661,47.1194507]]],[[[28.7137149,47.1194728],[28.7137155,47.1194736],[28.7137162,47.1194743],[28.713717,47.119475],[28.7137178,47.1194757],[28.7137188,47.1194763],[28.7138377,47.1195421],[28.7138387,47.1195426],[28.7138399,47.1195431],[28.713841,47.1195434],[28.7138422,47.1195437],[28.7138435,47.1195439],[28.7138448,47.1195441],[28.7138461,47.1195441],[28.7138473,47.119544],[28.7138486,47.1195439],[28.7138499,47.1195437],[28.7138511,47.1195434],[28.7138523,47.119543],[28.7138534,47.1195426],[28.7138544,47.119542],[28.7138553,47.1195414],[28.7138562,47.1195408],[28.7139069,47.1194984],[28.7139077,47.1194977],[28.7139083,47.1194969],[28.7139089,47.1194961],[28.7139093,47.1194953],[28.7139096,47.1194944],[28.7139098,47.1194935],[28.7139099,47.1194927],[28.7139098,47.1194918],[28.7139096,47.1194909],[28.7139093,47.11949],[28.7139089,47.1194892],[28.7139083,47.1194884],[28.7139076,47.1194877],[28.7139068,47.119487],[28.713906,47.1194863],[28.713905,47.1194857],[28.7138586,47.11946],[28.7139158,47.1194121],[28.7139166,47.1194114],[28.7139172,47.1194106],[28.7139178,47.1194098],[28.7139182,47.119409],[28.7139185,47.1194081],[28.7139187,47.1194072],[28.7139188,47.1194064],[28.7139187,47.1194055],[28.7139185,47.1194046],[28.7139182,47.1194037],[28.7139178,47.1194029],[28.7139172,47.1194021],[28.7139165,47.1194014],[28.7139157,47.1194007],[28.7139149,47.1194],[28.7139139,47.1193994],[28.7138518,47.119365],[28.7138508,47.1193645],[28.7138497,47.119364],[28.7138485,47.1193637],[28.7138473,47.1193634],[28.713846,47.1193632],[28.7138447,47.119363],[28.7138434,47.119363],[28.7138422,47.1193631],[28.7138409,47.1193632],[28.7138396,47.1193634],[28.7138384,47.1193637],[28.7138372,47.1193641],[28.7138361,47.1193645],[28.7138351,47.1193651],[28.7138342,47.1193657],[28.7138333,47.1193663],[28.7137169,47.1194636],[28.7137161,47.1194643],[28.7137155,47.1194651],[28.7137149,47.1194659],[28.7137145,47.1194667],[28.7137142,47.1194676],[28.713714,47.1194685],[28.7137139,47.1194693],[28.713714,47.1194702],[28.7137142,47.1194711],[28.7137145,47.119472],[28.7137149,47.1194728]]],[[[28.7135928,47.119971],[28.7135925,47.1199702],[28.713592,47.1199694],[28.7135915,47.1199686],[28.7135909,47.1199678],[28.7135901,47.1199671],[28.7135893,47.1199665],[28.7135884,47.1199659],[28.7134742,47.1198994],[28.7134731,47.1198988],[28.7134721,47.1198984],[28.7134709,47.119898],[28.7134697,47.1198977],[28.7134685,47.1198974],[28.7134672,47.1198973],[28.7134659,47.1198972],[28.7134647,47.1198972],[28.7134634,47.1198973],[28.7134621,47.1198975],[28.7134609,47.1198978],[28.7134597,47.1198981],[28.7134586,47.1198986],[28.7134576,47.1198991],[28.7134566,47.1198996],[28.7134557,47.1199003],[28.7133568,47.1199772],[28.713356,47.1199779],[28.7133553,47.1199786],[28.7133547,47.1199794],[28.7133542,47.1199802],[28.7133539,47.1199811],[28.7133536,47.119982],[28.7133535,47.1199828],[28.7133536,47.1199837],[28.7133537,47.1199846],[28.713354,47.1199855],[28.7133544,47.1199863],[28.7133549,47.1199871],[28.7133556,47.1199879],[28.7133563,47.1199886],[28.7133572,47.1199893],[28.7133581,47.1199899],[28.7134748,47.1200585],[28.7134758,47.1200591],[28.7134769,47.1200595],[28.7134781,47.1200599],[28.7134793,47.1200603],[28.7134806,47.1200605],[28.7134819,47.1200606],[28.7134832,47.1200607],[28.7134845,47.1200607],[28.7134858,47.1200605],[28.713487,47.1200603],[28.7134883,47.1200601],[28.7134895,47.1200597],[28.7134906,47.1200592],[28.7134917,47.1200587],[28.7134926,47.1200581],[28.7134935,47.1200575],[28.7135766,47.1199896],[28.7135767,47.1199895],[28.71359,47.1199784],[28.7135908,47.1199777],[28.7135914,47.1199769],[28.713592,47.1199762],[28.7135924,47.1199753],[28.7135927,47.1199745],[28.7135929,47.1199736],[28.713593,47.1199728],[28.7135929,47.1199719],[28.7135928,47.119971]]],[[[28.7149,47.1193118],[28.7149001,47.1193109],[28.7149,47.11931],[28.7148998,47.1193091],[28.7148995,47.1193083],[28.714899,47.1193075],[28.7148984,47.1193067],[28.7148085,47.1191952],[28.7148079,47.1191944],[28.7148071,47.1191937],[28.7148062,47.1191931],[28.7148052,47.1191925],[28.7148042,47.119192],[28.7148031,47.1191915],[28.7148019,47.1191912],[28.7148007,47.1191909],[28.7147994,47.1191907],[28.7147982,47.1191905],[28.7147969,47.1191905],[28.7147956,47.1191906],[28.7147943,47.1191907],[28.714793,47.1191909],[28.7147918,47.1191912],[28.7147907,47.1191916],[28.7146412,47.1192474],[28.7146401,47.1192479],[28.714639,47.1192484],[28.7146381,47.119249],[28.7146372,47.1192497],[28.7146365,47.1192504],[28.7146358,47.1192511],[28.7146353,47.1192519],[28.7146348,47.1192528],[28.7146345,47.1192536],[28.7146344,47.1192545],[28.7146343,47.1192554],[28.7146344,47.1192563],[28.7146346,47.1192572],[28.7146349,47.119258],[28.7146354,47.1192588],[28.714636,47.1192596],[28.7147259,47.1193711],[28.7147265,47.1193719],[28.7147273,47.1193726],[28.7147282,47.1193732],[28.7147292,47.1193738],[28.7147302,47.1193743],[28.7147313,47.1193748],[28.7147325,47.1193751],[28.7147337,47.1193754],[28.714735,47.1193756],[28.7147362,47.1193758],[28.7147375,47.1193758],[28.7147388,47.1193757],[28.7147401,47.1193756],[28.7147414,47.1193754],[28.7147426,47.1193751],[28.7147437,47.1193747],[28.7148932,47.1193189],[28.7148943,47.1193184],[28.7148954,47.1193179],[28.7148963,47.1193173],[28.7148972,47.1193166],[28.7148979,47.1193159],[28.7148986,47.1193152],[28.7148991,47.1193144],[28.7148996,47.1193135],[28.7148999,47.1193127],[28.7149,47.1193118]]],[[[28.7206048,47.1180345],[28.7208334,47.1181701],[28.7209774,47.1182393],[28.7211946,47.1177849],[28.7208748,47.117745],[28.7206048,47.1180345]]]]}}]}