{"type":"FeatureCollection","features":[{"type":"Feature","properties":{"type":"passage","source":"OpenStreetMap highways, buffered; plus 5 passages digitised from the orthomosaic (work/manual_passages.json)"},"geometry":{"type":"MultiPolygon","coordinates":[[[[28.7151705,47.1137563],[28.7157429,47.114202],[28.716046,47.1144626],[28.7150915,47.1150281],[28.7149232,47.1148261],[28.7149222,47.1148251],[28.714921,47.114824],[28.7149198,47.1148231],[28.7146156,47.1146216],[28.7145601,47.1146224],[28.7148902,47.1148411],[28.715061,47.1150462],[28.7141397,47.115592],[28.7130515,47.1162315],[28.7130757,47.1161807],[28.7130762,47.1161794],[28.7130765,47.1161782],[28.7130767,47.1161769],[28.7130766,47.1161756],[28.7130764,47.1161744],[28.713076,47.1161731],[28.7130755,47.1161719],[28.7130748,47.1161707],[28.7130739,47.1161696],[28.7130728,47.1161685],[28.7130717,47.1161675],[28.7130704,47.1161666],[28.7129338,47.1160799],[28.7128851,47.1160297],[28.7128384,47.1160304],[28.7129021,47.1160962],[28.7129035,47.1160974],[28.7129051,47.1160986],[28.7130342,47.1161805],[28.7129938,47.1162654],[28.7125596,47.1165206],[28.7125607,47.1165556],[28.7130238,47.1162834],[28.7141655,47.1156124],[28.7141656,47.1156124],[28.7150992,47.1150593],[28.7160863,47.1144745],[28.7170791,47.1138864],[28.7174655,47.1136574],[28.7174036,47.1136583],[28.7170687,47.1138568],[28.7168466,47.1136667],[28.7167969,47.1136674],[28.7170388,47.1138745],[28.7160759,47.1144449],[28.7157736,47.114185],[28.715773,47.1141845],[28.7151692,47.1137143],[28.7151705,47.1137563]]],[[[28.7102047,47.1226831],[28.7102067,47.122683],[28.7102086,47.1226828],[28.7102105,47.1226824],[28.7102123,47.122682],[28.710214,47.1226814],[28.7102157,47.1226807],[28.7102172,47.1226799],[28.7102186,47.122679],[28.7102199,47.122678],[28.7102211,47.1226769],[28.7102221,47.1226758],[28.7102229,47.1226746],[28.7102235,47.1226733],[28.7102239,47.1226721],[28.7102242,47.1226707],[28.7102243,47.1226694],[28.7102242,47.1226681],[28.7102239,47.1226668],[28.7102234,47.1226655],[28.7102227,47.1226643],[28.7102218,47.1226631],[28.7102208,47.122662],[28.7102197,47.1226609],[28.7102183,47.1226599],[28.7102169,47.122659],[28.7102153,47.1226583],[28.7102136,47.1226576],[28.7102119,47.122657],[28.71021,47.1226566],[28.7101299,47.1226407],[28.7102274,47.1225573],[28.7102291,47.1225558],[28.7103296,47.1224532],[28.7104379,47.1223724],[28.7104402,47.1223705],[28.7105788,47.1222416],[28.7107784,47.1220827],[28.710949,47.121968],[28.7109503,47.1219671],[28.7112614,47.1217335],[28.7112627,47.1217325],[28.7113976,47.1216177],[28.7114547,47.1216699],[28.7114566,47.1216714],[28.7114587,47.1216729],[28.711461,47.1216742],[28.711579,47.1217362],[28.7115822,47.1217377],[28.7118676,47.1218538],[28.712059,47.1219541],[28.7120571,47.1218964],[28.7119062,47.1218174],[28.711903,47.1218159],[28.7116177,47.1216998],[28.7115048,47.1216405],[28.7114397,47.121581],[28.7116495,47.1213906],[28.7116499,47.1213903],[28.7120335,47.1210271],[28.7120339,47.1210267],[28.7125622,47.120507],[28.7125626,47.1205066],[28.7128461,47.120215],[28.7131911,47.1199257],[28.7131924,47.1199245],[28.7133874,47.1197372],[28.7135958,47.1195664],[28.7135966,47.1195657],[28.7141658,47.1190594],[28.7142111,47.1190451],[28.7142535,47.1190478],[28.7145894,47.1195468],[28.71459,47.1195477],[28.7146961,47.1196886],[28.7147694,47.1196875],[28.7146489,47.1195276],[28.7143054,47.1190172],[28.7143049,47.1190166],[28.7143045,47.1190159],[28.7143042,47.1190156],[28.7143039,47.1190153],[28.7143034,47.1190146],[28.7143028,47.119014],[28.7143025,47.1190137],[28.7143022,47.1190134],[28.7143015,47.1190128],[28.7143009,47.1190123],[28.7143005,47.119012],[28.7143002,47.1190117],[28.7142994,47.1190112],[28.7142987,47.1190106],[28.7142983,47.1190104],[28.7142979,47.1190101],[28.7142971,47.1190096],[28.7142963,47.1190091],[28.7142958,47.1190089],[28.7142954,47.1190087],[28.7142945,47.1190083],[28.7142937,47.1190078],[28.7142932,47.1190077],[28.7142928,47.1190074],[28.7142918,47.1190071],[28.7142909,47.1190067],[28.7142904,47.1190066],[28.7142899,47.1190064],[28.7142889,47.1190061],[28.714288,47.1190058],[28.7142875,47.1190057],[28.7142869,47.1190055],[28.7142859,47.1190053],[28.7142849,47.119005],[28.7142844,47.119005],[28.7142839,47.1190048],[28.7142837,47.1190048],[28.7142312,47.1189182],[28.714231,47.118918],[28.7142309,47.1189178],[28.7142307,47.1189176],[28.7142305,47.1189173],[28.714056,47.1186828],[28.7140559,47.1186827],[28.7139702,47.11857],[28.7139691,47.1185687],[28.7139678,47.1185675],[28.71352,47.1182054],[28.7135192,47.1182048],[28.7134141,47.1181298],[28.7134735,47.118063],[28.7137774,47.1178231],[28.7137774,47.1178231],[28.7138406,47.1177731],[28.713841,47.1177728],[28.7139284,47.1176992],[28.7140121,47.1176304],[28.7141007,47.1175642],[28.714322,47.1174196],[28.71493,47.1170626],[28.7150639,47.1171638],[28.7150648,47.1171644],[28.7155025,47.1174545],[28.7155397,47.117625],[28.7155402,47.1176265],[28.7155409,47.117628],[28.7155419,47.1176294],[28.7155755,47.1176724],[28.7157046,47.1178374],[28.7157048,47.1178377],[28.7158894,47.1180585],[28.7160902,47.1183487],[28.7162754,47.1186946],[28.7162757,47.1186951],[28.7164662,47.1190108],[28.7164673,47.1190123],[28.7166212,47.119199],[28.716666,47.1191983],[28.7165023,47.1189998],[28.7163124,47.1186851],[28.7161271,47.1183389],[28.7161264,47.1183377],[28.7159248,47.1180465],[28.7159241,47.1180456],[28.7157393,47.1178245],[28.7156103,47.1176596],[28.7155784,47.1176187],[28.7155407,47.117446],[28.7155403,47.1174448],[28.7155398,47.1174436],[28.7155391,47.1174424],[28.7155383,47.1174413],[28.7155373,47.1174402],[28.7155361,47.1174392],[28.7155349,47.1174383],[28.7150928,47.1171453],[28.71496,47.117045],[28.7154524,47.1167559],[28.7154527,47.1167558],[28.7163363,47.1162171],[28.7164994,47.1166736],[28.7165,47.1166749],[28.7165007,47.1166761],[28.7165016,47.1166773],[28.7165027,47.1166784],[28.716533,47.1167063],[28.716533,47.1167063],[28.716533,47.1167064],[28.7165966,47.1167648],[28.7166775,47.1168389],[28.7167277,47.1170753],[28.7167283,47.1170772],[28.7168578,47.117382],[28.717046,47.1178987],[28.7170461,47.1178988],[28.7171232,47.1181026],[28.7171235,47.1181034],[28.7173658,47.1186051],[28.7171656,47.1190258],[28.7170469,47.1191926],[28.7170914,47.1191919],[28.7172018,47.1190368],[28.7172028,47.1190351],[28.7174054,47.1186093],[28.7175296,47.1183482],[28.7178448,47.1176999],[28.7180161,47.1177064],[28.718018,47.1177064],[28.7180198,47.1177063],[28.7184391,47.1176683],[28.7185642,47.1176648],[28.7188024,47.1176581],[28.7190497,47.1176811],[28.7190516,47.1176812],[28.7190534,47.1176812],[28.7192212,47.1176754],[28.7192234,47.1176752],[28.7192256,47.1176749],[28.7192277,47.1176744],[28.7196687,47.1175507],[28.7197952,47.1175444],[28.7201379,47.117588],[28.7210993,47.1177623],[28.7210994,47.1177624],[28.72127,47.1177926],[28.7208855,47.1186439],[28.7208382,47.1187327],[28.7203745,47.1196034],[28.7204594,47.1196021],[28.7209062,47.1187631],[28.7227698,47.1191838],[28.7227689,47.1191552],[28.7209197,47.1187377],[28.7209602,47.1186617],[28.7209605,47.1186611],[28.7209608,47.1186605],[28.7213457,47.1178081],[28.7214429,47.1178308],[28.7215541,47.1178567],[28.7219787,47.1179555],[28.7226096,47.1181075],[28.7231465,47.1182476],[28.7231471,47.1182477],[28.7234166,47.1183117],[28.7234157,47.1182829],[28.7231604,47.1182223],[28.7226235,47.1180822],[28.722623,47.1180821],[28.7219918,47.1179301],[28.7219916,47.11793],[28.7215669,47.1178311],[28.7214737,47.1178094],[28.7218458,47.1169566],[28.7220245,47.1170048],[28.7220235,47.1169755],[28.7218567,47.1169305],[28.7219025,47.116816],[28.7218613,47.1168166],[28.721814,47.1169349],[28.7214362,47.1178007],[28.7213566,47.1177821],[28.7217213,47.1168187],[28.7216392,47.1168199],[28.7212808,47.1177666],[28.7211094,47.1177362],[28.7201474,47.1175618],[28.7201459,47.1175615],[28.719822,47.1175203],[28.7199979,47.1171456],[28.7199979,47.1171456],[28.7201371,47.1168466],[28.7201378,47.1168448],[28.7202546,47.1163812],[28.7204925,47.1158645],[28.720493,47.1158632],[28.7204933,47.1158618],[28.7205417,47.1155289],[28.7205664,47.1154538],[28.7205257,47.1154545],[28.7205028,47.1155237],[28.7205024,47.1155254],[28.7204541,47.1158578],[28.7202164,47.116374],[28.7202158,47.1163757],[28.720099,47.1168393],[28.7199603,47.1171374],[28.7197815,47.117518],[28.7196627,47.1175239],[28.7196606,47.1175241],[28.7196586,47.1175244],[28.7196566,47.1175249],[28.7192158,47.1176485],[28.7190532,47.1176542],[28.718806,47.1176312],[28.7188042,47.1176311],[28.7188025,47.1176311],[28.7185832,47.1176372],[28.7185834,47.1173382],[28.7186573,47.1170755],[28.7189251,47.1163509],[28.7189252,47.1163507],[28.7190879,47.1158719],[28.7193266,47.115278],[28.7194394,47.11501],[28.719398,47.1150106],[28.7192886,47.1152707],[28.7192885,47.1152708],[28.7190496,47.115865],[28.7190494,47.1158656],[28.7188867,47.1163444],[28.7186188,47.1170693],[28.7186186,47.1170701],[28.7185442,47.1173344],[28.7185439,47.1173356],[28.7185438,47.1173369],[28.7185436,47.1176383],[28.7184366,47.1176413],[28.7184348,47.1176414],[28.7180164,47.1176794],[28.7178529,47.1176732],[28.7178656,47.1175991],[28.7179131,47.1173239],[28.7182734,47.116512],[28.718274,47.1165105],[28.7182742,47.1165089],[28.7182879,47.1163523],[28.7183623,47.1156473],[28.7185053,47.1151978],[28.7187706,47.114759],[28.7190372,47.1145553],[28.7189831,47.1145561],[28.7187398,47.114742],[28.7185661,47.1148423],[28.7185647,47.1148432],[28.7185634,47.1148442],[28.7182812,47.1150856],[28.7175853,47.1155966],[28.717312,47.1157382],[28.7172706,47.1157596],[28.7170365,47.1158276],[28.7170345,47.1158283],[28.7170326,47.1158291],[28.716763,47.1159625],[28.7165052,47.1160781],[28.7165041,47.1160787],[28.7165029,47.1160793],[28.7163345,47.116182],[28.7154265,47.1167356],[28.7149188,47.1170336],[28.7142958,47.1173994],[28.714295,47.1173999],[28.7140729,47.1175451],[28.714072,47.1175457],[28.7139826,47.1176124],[28.713982,47.1176129],[28.7138979,47.117682],[28.7138977,47.1176821],[28.7138104,47.1177556],[28.7137474,47.1178055],[28.7134425,47.1180462],[28.7134415,47.1180471],[28.7134406,47.118048],[28.7133836,47.1181121],[28.7130077,47.1179242],[28.7126131,47.1177149],[28.7125478,47.117668],[28.7125464,47.1176671],[28.7125449,47.1176663],[28.7125433,47.1176656],[28.7125416,47.117665],[28.712462,47.1176407],[28.7128149,47.1174207],[28.7136268,47.1169585],[28.7136269,47.1169584],[28.7143197,47.1165551],[28.7148274,47.1162825],[28.7148294,47.1162813],[28.7153598,47.1159069],[28.7158792,47.1156698],[28.7158809,47.1156689],[28.7158825,47.1156679],[28.7163253,47.1153526],[28.7168736,47.1150593],[28.7170944,47.1149988],[28.7170962,47.1149982],[28.717098,47.1149975],[28.7170997,47.1149966],[28.7171012,47.1149957],[28.7176737,47.1145912],[28.7180575,47.1143954],[28.7180593,47.1143944],[28.7185135,47.1141024],[28.7184544,47.1141033],[28.718033,47.1143742],[28.7176488,47.1145702],[28.7176475,47.1145709],[28.7176464,47.1145716],[28.7170757,47.1149748],[28.7168562,47.115035],[28.7168545,47.1150355],[28.7168529,47.1150361],[28.7168514,47.1150369],[28.7162998,47.115332],[28.7162977,47.1153333],[28.7158554,47.1156482],[28.7153361,47.1158853],[28.7153344,47.1158861],[28.7153329,47.1158871],[28.7148019,47.1162619],[28.714295,47.1165341],[28.7142944,47.1165344],[28.7136014,47.1169378],[28.7127892,47.1174001],[28.7127886,47.1174005],[28.7124155,47.1176331],[28.7122773,47.1176739],[28.7122753,47.1176746],[28.7122735,47.1176754],[28.7122718,47.1176763],[28.711997,47.1178458],[28.7119956,47.1178467],[28.7119944,47.1178478],[28.7118746,47.117959],[28.7117802,47.1179577],[28.7115694,47.117876],[28.7114354,47.1177562],[28.7112405,47.11748],[28.7112425,47.1175451],[28.7114007,47.1177692],[28.7114017,47.1177704],[28.7114028,47.1177715],[28.7115404,47.1178946],[28.7115417,47.1178956],[28.7115431,47.1178966],[28.7115447,47.1178974],[28.7115463,47.1178981],[28.711765,47.1179828],[28.7117668,47.1179834],[28.7117686,47.1179839],[28.7117705,47.1179843],[28.7117724,47.1179845],[28.7117744,47.1179846],[28.7118451,47.1179856],[28.7112865,47.1184856],[28.7110737,47.1183496],[28.7110723,47.1183488],[28.7110707,47.1183481],[28.710816,47.1182389],[28.7108146,47.1182383],[28.7105872,47.1181574],[28.7105882,47.1181882],[28.7107957,47.118262],[28.7110481,47.1183702],[28.7112624,47.1185072],[28.7104126,47.1192681],[28.7102325,47.1192091],[28.7100189,47.1190912],[28.709744,47.1189375],[28.7097422,47.1189366],[28.7097403,47.1189358],[28.7097382,47.1189352],[28.7095541,47.1188898],[28.7094776,47.1188451],[28.7094183,47.118846],[28.7095311,47.1189119],[28.7095325,47.1189127],[28.7095341,47.1189134],[28.7095356,47.1189139],[28.7095373,47.1189144],[28.7097216,47.1189598],[28.7099939,47.1191121],[28.709994,47.1191122],[28.7102095,47.1192311],[28.7102113,47.119232],[28.7102134,47.1192328],[28.7103882,47.11929],[28.7096977,47.1199081],[28.7096975,47.1199083],[28.7096285,47.1199725],[28.709567,47.1199305],[28.7095655,47.1199295],[28.7095638,47.1199287],[28.709562,47.119928],[28.7095601,47.1199274],[28.7093404,47.1198694],[28.7091052,47.1197722],[28.7090316,47.1197732],[28.7093214,47.1198931],[28.7093229,47.1198937],[28.7093245,47.1198942],[28.709542,47.1199516],[28.7096048,47.1199945],[28.7087269,47.120812],[28.7082062,47.1205299],[28.7079586,47.1203842],[28.7079598,47.1204205],[28.7081807,47.1205505],[28.7081813,47.1205509],[28.7087035,47.1208338],[28.7079308,47.1215532],[28.7079298,47.1215542],[28.7079289,47.1215553],[28.7079282,47.1215564],[28.7078273,47.121738],[28.7076441,47.1219472],[28.7074167,47.1221289],[28.7073661,47.1218671],[28.7073713,47.1215546],[28.7074374,47.1213314],[28.7074377,47.12133],[28.7074378,47.1213286],[28.707432,47.1209691],[28.707478,47.1208515],[28.7074785,47.1208499],[28.7074787,47.1208483],[28.7074827,47.1207178],[28.7074432,47.1207184],[28.7074392,47.1208461],[28.7073931,47.1209639],[28.7073927,47.1209651],[28.7073925,47.1209663],[28.7073924,47.1209675],[28.7073982,47.1213274],[28.7073322,47.1215505],[28.7073319,47.1215518],[28.7073318,47.121553],[28.7073265,47.1218677],[28.7073267,47.1218697],[28.707383,47.1221612],[28.7073347,47.122696],[28.7073346,47.1226971],[28.7073437,47.1229636],[28.7072596,47.122886],[28.7071813,47.1228137],[28.7071403,47.1225815],[28.70714,47.1225801],[28.7071395,47.1225788],[28.7071387,47.1225776],[28.7071378,47.1225764],[28.7071367,47.1225752],[28.7071355,47.1225741],[28.7069068,47.1223981],[28.7066618,47.1220459],[28.7066639,47.1221119],[28.7068722,47.1224114],[28.7068731,47.1224125],[28.7068741,47.1224136],[28.7068753,47.1224146],[28.7071018,47.1225889],[28.7071427,47.1228205],[28.707143,47.1228219],[28.7071436,47.1228232],[28.7071443,47.1228245],[28.7071453,47.1228258],[28.7071464,47.1228269],[28.7072163,47.1228914],[28.7064779,47.1232794],[28.7060862,47.12343],[28.7060838,47.1234311],[28.7054254,47.1237787],[28.7047747,47.1240779],[28.704774,47.1240782],[28.7041808,47.1243744],[28.7043027,47.1240341],[28.7043032,47.1240323],[28.7043094,47.1239903],[28.7042695,47.1239909],[28.704264,47.1240286],[28.7041295,47.1244039],[28.7041155,47.1244428],[28.7041152,47.1244436],[28.7040119,47.1248318],[28.7039391,47.124946],[28.7039383,47.1249474],[28.7039378,47.1249488],[28.7039375,47.1249503],[28.7039055,47.125222],[28.7037632,47.1257338],[28.7034538,47.1266817],[28.7034535,47.1266826],[28.7033571,47.1271277],[28.703319,47.1271478],[28.7032655,47.1271316],[28.7032625,47.1271308],[28.7032594,47.1271302],[28.7032562,47.1271298],[28.703253,47.1271296],[28.7032497,47.1271297],[28.7032465,47.1271299],[28.7032434,47.1271304],[28.7032403,47.1271311],[28.7032373,47.127132],[28.7032352,47.1271328],[28.7030875,47.1270914],[28.7030203,47.127068],[28.7026326,47.1269325],[28.7022353,47.1267897],[28.7022337,47.1267892],[28.7022321,47.1267887],[28.7019421,47.1267255],[28.7017268,47.1266201],[28.7017261,47.1266198],[28.7014029,47.1264758],[28.7014039,47.1265085],[28.7017041,47.1266422],[28.7019216,47.1267487],[28.7019233,47.1267494],[28.7019252,47.1267501],[28.7019271,47.1267506],[28.7022184,47.1268141],[28.7026143,47.1269564],[28.7026145,47.1269565],[28.7029857,47.1270862],[28.7028043,47.1273681],[28.7028037,47.1273691],[28.7025863,47.1278034],[28.7025862,47.1278037],[28.7024331,47.1281295],[28.7021903,47.1279739],[28.7021891,47.1279731],[28.7021877,47.1279725],[28.7021863,47.1279719],[28.7018562,47.127848],[28.7011772,47.127518],[28.701176,47.1275175],[28.7007554,47.1273416],[28.7007565,47.1273737],[28.7011548,47.1275403],[28.7018342,47.1278704],[28.7018362,47.1278712],[28.7021651,47.1279947],[28.7024189,47.1281575],[28.7022787,47.1283909],[28.7021231,47.1286302],[28.7021467,47.1286299],[28.7021476,47.1286591],[28.702315,47.1284017],[28.7023152,47.1284013],[28.7024517,47.1281741],[28.7025824,47.1282315],[28.7025839,47.1282321],[28.7025854,47.1282326],[28.702587,47.128233],[28.70293,47.1283086],[28.7029304,47.1283087],[28.7032727,47.128379],[28.7035742,47.12853],[28.7035757,47.1285307],[28.7035773,47.1285313],[28.703579,47.1285317],[28.7035807,47.1285321],[28.7035825,47.1285324],[28.7039499,47.1285763],[28.7041725,47.1286439],[28.7041715,47.1286141],[28.7039637,47.128551],[28.7039615,47.1285504],[28.7039591,47.12855],[28.7035939,47.1285064],[28.7032934,47.1283558],[28.7032915,47.128355],[28.7032895,47.1283543],[28.7032874,47.1283538],[28.702942,47.1282829],[28.7026016,47.1282079],[28.702467,47.1281488],[28.7024678,47.1281475],[28.7024684,47.1281462],[28.7024689,47.1281449],[28.7024692,47.1281436],[28.7024693,47.1281423],[28.7024692,47.1281412],[28.7026238,47.127812],[28.7028408,47.1273784],[28.703021,47.1270985],[28.7030702,47.1271157],[28.7030717,47.1271162],[28.7032202,47.1271578],[28.7032203,47.1271581],[28.7032213,47.1271602],[28.7032226,47.1271622],[28.7032242,47.1271641],[28.7032261,47.1271659],[28.7032282,47.1271676],[28.7032305,47.1271691],[28.7032331,47.1271705],[28.7032358,47.1271717],[28.7032387,47.1271726],[28.7032966,47.1271902],[28.7034022,47.1272224],[28.7036722,47.1273121],[28.7041577,47.1274734],[28.7043652,47.1275629],[28.7043659,47.1275632],[28.7045178,47.1276252],[28.7048025,47.1277665],[28.7047436,47.1278003],[28.7047413,47.1278018],[28.7047391,47.1278034],[28.7047372,47.1278052],[28.7047356,47.127807],[28.7047343,47.127809],[28.7046941,47.1278765],[28.7046929,47.1278789],[28.7046921,47.1278814],[28.704632,47.1281322],[28.7046991,47.1281312],[28.7047029,47.1281151],[28.7047027,47.1281146],[28.7047025,47.1281138],[28.7047023,47.1281129],[28.7047023,47.128112],[28.7047024,47.1281112],[28.7047027,47.1281103],[28.704703,47.1281095],[28.7047054,47.1281049],[28.7047054,47.1281049],[28.7047565,47.1278911],[28.7047923,47.1278311],[28.7048211,47.1278146],[28.704818,47.1277185],[28.7045791,47.1276],[28.7048607,47.1274445],[28.7051281,47.1273119],[28.7051296,47.1273111],[28.7053178,47.1271967],[28.7054739,47.1271188],[28.7054729,47.1270859],[28.7052937,47.1271753],[28.7052923,47.1271761],[28.7051041,47.1272905],[28.7048371,47.1274229],[28.7048363,47.1274233],[28.7045452,47.127584],[28.7044001,47.1275247],[28.7041914,47.1274347],[28.7041882,47.1274335],[28.703701,47.1272717],[28.7034305,47.1271818],[28.7034295,47.1271815],[28.703424,47.1271798],[28.7033967,47.1271347],[28.7034167,47.1270969],[28.7034939,47.1270456],[28.7036889,47.1269516],[28.7036896,47.1269513],[28.7061048,47.1256812],[28.7064175,47.1255367],[28.7064193,47.1255357],[28.706421,47.1255346],[28.7066202,47.1253852],[28.7066214,47.1253842],[28.7066224,47.1253832],[28.7066233,47.1253821],[28.7066241,47.1253809],[28.7067221,47.1252061],[28.7067007,47.1254107],[28.7066848,47.1255586],[28.7066501,47.1256626],[28.7062907,47.1266954],[28.7062906,47.1266959],[28.70629,47.1266977],[28.7062153,47.1267264],[28.706349,47.1267244],[28.7063549,47.1267056],[28.7067143,47.1256729],[28.7067143,47.1256727],[28.7067496,47.1255669],[28.7067501,47.1255652],[28.7067504,47.1255635],[28.7067665,47.1254139],[28.7067665,47.1254139],[28.7068003,47.1250904],[28.7068255,47.1250066],[28.706826,47.1250044],[28.7068262,47.1250022],[28.706826,47.125],[28.7068256,47.1249978],[28.7068252,47.1249968],[28.7069115,47.1249253],[28.7070279,47.1248551],[28.7071535,47.1247878],[28.7071543,47.1247874],[28.7072776,47.1247142],[28.7073674,47.124691],[28.7074252,47.1247027],[28.70747,47.1247734],[28.7075347,47.1248857],[28.7075329,47.1248884],[28.7075328,47.1248885],[28.7075327,47.1248887],[28.7075322,47.1248896],[28.7075317,47.1248904],[28.7075317,47.1248906],[28.7075316,47.1248907],[28.7075312,47.1248916],[28.7075308,47.1248925],[28.7075308,47.1248927],[28.7075307,47.1248929],[28.7075305,47.1248938],[28.7075302,47.1248947],[28.7075302,47.1248949],[28.7075302,47.124895],[28.7075301,47.124896],[28.70753,47.1248969],[28.70753,47.1248971],[28.70753,47.1248972],[28.70753,47.1248982],[28.70753,47.1248991],[28.70753,47.1248993],[28.70753,47.1248994],[28.7075302,47.1249004],[28.7075304,47.1249013],[28.7075304,47.1249015],[28.7075305,47.1249016],[28.7075308,47.1249026],[28.7075311,47.1249035],[28.7075311,47.1249036],[28.7075312,47.1249038],[28.7075316,47.1249047],[28.707532,47.1249056],[28.7075321,47.1249057],[28.7075322,47.1249059],[28.7075827,47.1249942],[28.7075836,47.1249956],[28.707664,47.1251116],[28.7076655,47.1251135],[28.7076673,47.1251153],[28.7078524,47.1252869],[28.7078529,47.1252874],[28.7078891,47.1253192],[28.7079711,47.125318],[28.7079052,47.12526],[28.7077222,47.1250904],[28.7076437,47.1249771],[28.7075987,47.1248984],[28.7076238,47.1248608],[28.7076722,47.1248066],[28.7078197,47.1246537],[28.7081708,47.1243623],[28.7081713,47.1243618],[28.7086201,47.1239674],[28.7086202,47.1239673],[28.7091188,47.1235254],[28.7092749,47.1234179],[28.7094027,47.1234763],[28.7094078,47.1234787],[28.7094069,47.1234536],[28.7094684,47.1234527],[28.70944,47.1234392],[28.7094395,47.123439],[28.7093148,47.123382],[28.7094032,47.1232803],[28.7095011,47.1231883],[28.7100652,47.1226959],[28.7101032,47.1226635],[28.710199,47.1226825],[28.7102009,47.1226828],[28.7102028,47.122683],[28.7102047,47.1226831]],[[28.7098979,47.1211573],[28.7098998,47.1211568],[28.7099015,47.1211562],[28.7099032,47.1211555],[28.7099048,47.1211547],[28.7099062,47.1211538],[28.7103751,47.1208194],[28.710934,47.1209169],[28.7109359,47.1209172],[28.7109379,47.1209173],[28.7109398,47.1209173],[28.7109417,47.1209172],[28.7109436,47.1209169],[28.7109455,47.1209166],[28.7109473,47.120916],[28.710949,47.1209154],[28.7109506,47.1209147],[28.7109521,47.1209139],[28.7109535,47.1209129],[28.7109548,47.1209119],[28.7109558,47.1209108],[28.7109568,47.1209097],[28.7109575,47.1209084],[28.7109581,47.1209072],[28.7109585,47.1209059],[28.7109587,47.1209046],[28.7109587,47.1209032],[28.7109585,47.1209019],[28.7109581,47.1209006],[28.7109576,47.1208993],[28.7109568,47.1208981],[28.7109559,47.1208969],[28.7109549,47.1208958],[28.7109536,47.1208948],[28.7109523,47.1208939],[28.7109508,47.120893],[28.7109492,47.1208923],[28.7109475,47.1208917],[28.7109457,47.1208911],[28.7109438,47.1208907],[28.7103737,47.1207913],[28.7103719,47.120791],[28.71037,47.1207909],[28.7103681,47.1207909],[28.7103662,47.120791],[28.7103643,47.1207912],[28.7103625,47.1207916],[28.7103607,47.120792],[28.710359,47.1207926],[28.7103574,47.1207933],[28.7103559,47.1207941],[28.7103546,47.120795],[28.7098852,47.1211297],[28.7093,47.1210501],[28.7092978,47.1210499],[28.7092957,47.1210498],[28.7092561,47.1210504],[28.7092554,47.1210505],[28.7092547,47.1210505],[28.7092544,47.1210505],[28.7092542,47.1210505],[28.7092535,47.1210506],[28.7092528,47.1210507],[28.7092525,47.1210507],[28.7092523,47.1210508],[28.7092516,47.1210509],[28.7092509,47.121051],[28.7092507,47.1210511],[28.7092504,47.1210511],[28.7092497,47.1210513],[28.7092491,47.1210514],[28.7092488,47.1210515],[28.7092486,47.1210516],[28.709248,47.1210518],[28.7092473,47.121052],[28.7092471,47.1210521],[28.7092469,47.1210522],[28.7092463,47.1210524],[28.7092456,47.1210527],[28.7092454,47.1210528],[28.7092452,47.1210529],[28.7092447,47.1210532],[28.7092441,47.1210535],[28.7092439,47.1210536],[28.7092437,47.1210537],[28.7092432,47.121054],[28.7092426,47.1210543],[28.7092425,47.1210545],[28.7092423,47.1210546],[28.7092418,47.121055],[28.7092413,47.1210553],[28.7092412,47.1210555],[28.709241,47.1210556],[28.7092406,47.121056],[28.7092402,47.1210564],[28.7088544,47.1214465],[28.7086942,47.1214105],[28.7086923,47.1214102],[28.7086904,47.12141],[28.7086884,47.1214099],[28.7086865,47.1214099],[28.7086846,47.1214101],[28.7086827,47.1214104],[28.7086808,47.1214108],[28.7086791,47.1214113],[28.7086774,47.121412],[28.7086758,47.1214127],[28.7086743,47.1214136],[28.708673,47.1214146],[28.7086718,47.1214156],[28.7086708,47.1214167],[28.7086699,47.1214179],[28.7086692,47.1214192],[28.7086687,47.1214204],[28.7086684,47.1214217],[28.7086682,47.1214231],[28.7086683,47.1214244],[28.7086685,47.1214257],[28.7086689,47.121427],[28.7086695,47.1214282],[28.7086703,47.1214295],[28.7086713,47.1214306],[28.7086724,47.1214317],[28.7086737,47.1214327],[28.7086751,47.1214336],[28.7086766,47.1214344],[28.7086783,47.1214351],[28.70868,47.1214357],[28.7086818,47.1214362],[28.7088314,47.1214697],[28.708077,47.1222325],[28.7080213,47.1222215],[28.7078491,47.1221792],[28.7078473,47.1221788],[28.7078454,47.1221785],[28.7078435,47.1221784],[28.7078415,47.1221784],[28.7078396,47.1221785],[28.7078377,47.1221788],[28.7078358,47.1221792],[28.707834,47.1221797],[28.7078323,47.1221803],[28.7078307,47.122181],[28.7078292,47.1221819],[28.7078278,47.1221828],[28.7078266,47.1221838],[28.7078255,47.1221849],[28.7078246,47.1221861],[28.7078238,47.1221873],[28.7078233,47.1221886],[28.7078229,47.1221899],[28.7078227,47.1221912],[28.7078227,47.1221925],[28.7078229,47.1221938],[28.7078233,47.1221951],[28.7078238,47.1221964],[28.7078246,47.1221976],[28.7078255,47.1221988],[28.7078266,47.1221999],[28.7078278,47.1222009],[28.7078291,47.1222019],[28.7078306,47.1222027],[28.7078323,47.1222035],[28.707834,47.1222041],[28.7078358,47.1222046],[28.7080085,47.122247],[28.7080097,47.1222473],[28.7080538,47.122256],[28.7073884,47.1229288],[28.7073874,47.12293],[28.7073865,47.1229313],[28.7073858,47.1229326],[28.7073854,47.122934],[28.7073826,47.1229446],[28.7073742,47.1226971],[28.7074222,47.122166],[28.7076752,47.1219639],[28.7076763,47.121963],[28.7076772,47.121962],[28.7078622,47.1217508],[28.707863,47.1217498],[28.7078637,47.1217487],[28.7079642,47.1215677],[28.7087466,47.1208393],[28.7096467,47.1200012],[28.7097292,47.1199244],[28.7104343,47.1192932],[28.7113047,47.1185139],[28.7119001,47.1179808],[28.7119002,47.1179807],[28.7119003,47.1179806],[28.712025,47.1178649],[28.7122959,47.1176978],[28.7124263,47.1176593],[28.7125219,47.1176885],[28.7125855,47.1177342],[28.7125865,47.1177349],[28.7125877,47.1177356],[28.7129837,47.1179457],[28.7129841,47.1179459],[28.7133762,47.1181419],[28.7134902,47.1182231],[28.7137324,47.118419],[28.7137285,47.1184171],[28.7137241,47.1184153],[28.7137194,47.1184138],[28.7137145,47.1184127],[28.7137094,47.1184119],[28.7137043,47.1184114],[28.7136991,47.1184113],[28.713694,47.1184115],[28.7136889,47.118412],[28.7136839,47.1184129],[28.713679,47.1184142],[28.7136744,47.1184157],[28.71367,47.1184176],[28.7136658,47.1184197],[28.7136621,47.1184221],[28.7136586,47.1184248],[28.713461,47.1185933],[28.713461,47.1185933],[28.7108691,47.1208098],[28.710866,47.1208127],[28.7108634,47.1208157],[28.7108613,47.1208189],[28.7108596,47.1208223],[28.7108584,47.1208257],[28.7108577,47.1208292],[28.7108576,47.1208327],[28.7108579,47.1208363],[28.7108587,47.1208398],[28.71086,47.1208432],[28.7108618,47.1208465],[28.7108641,47.1208497],[28.7108668,47.1208527],[28.71087,47.1208555],[28.7108735,47.120858],[28.7108774,47.1208604],[28.7108816,47.1208625],[28.7108861,47.1208642],[28.7108908,47.1208657],[28.7108957,47.1208668],[28.7109007,47.1208676],[28.7109058,47.1208681],[28.710911,47.1208682],[28.7109161,47.120868],[28.7109213,47.1208675],[28.7109263,47.1208666],[28.7109311,47.1208653],[28.7109358,47.1208638],[28.7109402,47.1208619],[28.7109443,47.1208598],[28.7109481,47.1208574],[28.7109515,47.1208547],[28.7135434,47.1186382],[28.713741,47.1184697],[28.713744,47.1184669],[28.7137466,47.1184638],[28.7137487,47.1184606],[28.7137504,47.1184573],[28.7137516,47.1184538],[28.7137523,47.1184503],[28.7137525,47.1184468],[28.7137522,47.1184433],[28.7137514,47.1184398],[28.71375,47.1184364],[28.7137482,47.1184331],[28.7137461,47.1184301],[28.7139362,47.1185838],[28.7140208,47.1186951],[28.7141928,47.1189262],[28.7141885,47.1189733],[28.7141458,47.1190161],[28.7141307,47.1190209],[28.7141279,47.1190219],[28.7141253,47.1190231],[28.7141228,47.1190244],[28.7141205,47.119026],[28.7141185,47.1190276],[28.7135448,47.119538],[28.713336,47.1197091],[28.7133344,47.1197105],[28.7131393,47.1198979],[28.7127939,47.1201875],[28.712792,47.1201893],[28.7125078,47.1204816],[28.7119799,47.1210009],[28.7115967,47.1213638],[28.7113725,47.1215672],[28.7112119,47.1217038],[28.7110783,47.1218041],[28.711078,47.121803],[28.7110774,47.1218017],[28.7110766,47.1218005],[28.7110757,47.1217994],[28.7110746,47.1217983],[28.7110734,47.1217973],[28.711072,47.1217963],[28.7110705,47.1217955],[28.7110688,47.1217948],[28.7110671,47.1217942],[28.7110653,47.1217937],[28.7110635,47.1217933],[28.7110383,47.1217892],[28.711038,47.1217891],[28.708919,47.121461],[28.7088934,47.1214552],[28.7092672,47.1210773],[28.7092943,47.1210769],[28.7098881,47.1211577],[28.70989,47.1211579],[28.709892,47.1211579],[28.709894,47.1211579],[28.709896,47.1211576],[28.7098979,47.1211573]],[[28.707391,47.1230384],[28.7073927,47.1230377],[28.7073942,47.1230369],[28.7073956,47.123036],[28.7073969,47.123035],[28.707398,47.1230339],[28.707399,47.1230328],[28.7073998,47.1230316],[28.7074004,47.1230303],[28.7074004,47.1230303],[28.7077051,47.1231147],[28.7077067,47.1231151],[28.7085853,47.1232983],[28.7085868,47.1232986],[28.7092162,47.1233944],[28.7090705,47.1234948],[28.7090678,47.1234969],[28.708568,47.1239398],[28.7081196,47.124334],[28.7077676,47.124626],[28.7077656,47.1246279],[28.7076169,47.1247822],[28.7076163,47.1247829],[28.7075665,47.1248385],[28.7075646,47.1248409],[28.7075575,47.1248515],[28.7075067,47.1247633],[28.7075064,47.1247628],[28.7074589,47.124688],[28.7074346,47.1245641],[28.7074,47.1242191],[28.7073679,47.1236446],[28.7073838,47.1230401],[28.7073856,47.1230398],[28.7073875,47.1230395],[28.7073893,47.123039],[28.707391,47.1230384]],[[28.7100136,47.122668],[28.7100133,47.1226681],[28.7094488,47.1231609],[28.7094481,47.1231616],[28.7093489,47.1232547],[28.7093472,47.1232564],[28.7092474,47.1233715],[28.7085961,47.1232723],[28.7077191,47.1230895],[28.7074075,47.1230032],[28.7074236,47.1229415],[28.7080936,47.122264],[28.7100347,47.1226499],[28.7100136,47.122668]],[[28.7089094,47.1214872],[28.7110292,47.1218154],[28.7110542,47.1218195],[28.7110561,47.1218198],[28.7110574,47.1218199],[28.7109021,47.1219364],[28.7107312,47.1220513],[28.7107293,47.1220527],[28.710528,47.122213],[28.7105264,47.1222143],[28.7103881,47.1223429],[28.7102793,47.1224241],[28.7102777,47.1224254],[28.7102762,47.1224268],[28.7101751,47.12253],[28.7100614,47.1226271],[28.7081169,47.1222405],[28.7088704,47.1214785],[28.7089076,47.1214868],[28.7089094,47.1214872]],[[28.7067353,47.1250828],[28.7067347,47.1250857],[28.7067318,47.1251133],[28.7065885,47.1253689],[28.7063934,47.1255152],[28.7060821,47.1256591],[28.7060811,47.1256596],[28.7036658,47.1269297],[28.7034698,47.1270242],[28.7034686,47.1270248],[28.7034674,47.1270255],[28.7034111,47.1270629],[28.7034926,47.1266871],[28.7038,47.1257453],[28.7041764,47.1255987],[28.7041787,47.1255977],[28.7052701,47.125018],[28.7052707,47.1250177],[28.7059592,47.1246255],[28.7070375,47.1241395],[28.7069853,47.124283],[28.7069851,47.1242836],[28.706779,47.1249818],[28.7067778,47.1249822],[28.7067751,47.1249833],[28.7067724,47.1249846],[28.70677,47.1249861],[28.7067679,47.1249877],[28.7067659,47.1249895],[28.7067642,47.1249914],[28.7067628,47.1249934],[28.7067617,47.1249954],[28.7067609,47.1249976],[28.7067353,47.1250828]],[[28.7040504,47.1248381],[28.704154,47.1244488],[28.7041662,47.1244151],[28.7047971,47.1241001],[28.705448,47.1238008],[28.7054491,47.1238003],[28.7061069,47.1234531],[28.7064985,47.1233025],[28.7065009,47.1233014],[28.7072398,47.1229131],[28.707345,47.1230102],[28.7073284,47.1236419],[28.7072524,47.1237671],[28.7071743,47.1238493],[28.7071732,47.1238506],[28.7071723,47.1238521],[28.7071158,47.1239611],[28.7071155,47.1239616],[28.7070521,47.1241006],[28.7059365,47.1246034],[28.7059347,47.1246043],[28.7052456,47.1249968],[28.7041556,47.1255758],[28.70381,47.1257103],[28.7039445,47.1252263],[28.7039448,47.1252249],[28.7039766,47.1249547],[28.704049,47.1248411],[28.7040498,47.1248396],[28.7040504,47.1248381]],[[28.7033716,47.1271638],[28.70336,47.1271603],[28.7033671,47.1271565],[28.7033716,47.1271638]],[[28.7072572,47.1246908],[28.7072557,47.1246915],[28.7072543,47.1246922],[28.7071287,47.1247668],[28.707003,47.1248341],[28.7070021,47.1248346],[28.7068841,47.1249058],[28.706883,47.1249065],[28.7068819,47.1249073],[28.7068282,47.1249519],[28.7070238,47.1242893],[28.707088,47.1241128],[28.7071532,47.1239699],[28.7072088,47.1238626],[28.7072866,47.1237807],[28.7072875,47.1237797],[28.7072883,47.1237786],[28.7073318,47.1237068],[28.7073605,47.1242203],[28.7073606,47.1242207],[28.7073952,47.1245664],[28.7073953,47.1245673],[28.707416,47.1246727],[28.7073722,47.1246639],[28.7073704,47.1246636],[28.7073686,47.1246634],[28.7073668,47.1246633],[28.707365,47.1246634],[28.7073631,47.1246635],[28.7073614,47.1246638],[28.7073596,47.1246642],[28.7072603,47.1246898],[28.7072587,47.1246902],[28.7072572,47.1246908]],[[28.7142242,47.1189854],[28.7142253,47.1189842],[28.7142262,47.1189829],[28.7142268,47.1189816],[28.714239,47.1190017],[28.7142099,47.1189998],[28.7142242,47.1189854]],[[28.7167851,47.1159849],[28.7167858,47.1159845],[28.717054,47.1158518],[28.7172867,47.1157843],[28.7169152,47.1165791],[28.7168596,47.1166105],[28.7165561,47.1166823],[28.7165369,47.1166646],[28.7163697,47.1161968],[28.7165282,47.1161001],[28.7167851,47.1159849]],[[28.718323,47.1156444],[28.7182485,47.1163504],[28.7182485,47.1163506],[28.7182349,47.1165057],[28.7178748,47.1173172],[28.7178743,47.1173183],[28.7178741,47.1173195],[28.7178309,47.1175696],[28.7177073,47.1174917],[28.7175502,47.1173885],[28.7172443,47.1171113],[28.7170696,47.1168815],[28.7170689,47.1168806],[28.7169479,47.1167477],[28.7168923,47.1166271],[28.7169449,47.1165974],[28.7169463,47.1165965],[28.7169476,47.1165956],[28.7169487,47.1165946],[28.7169497,47.1165935],[28.7169505,47.1165923],[28.7169511,47.1165911],[28.7173408,47.1157572],[28.7176106,47.1156173],[28.7176119,47.1156166],[28.7176131,47.1156158],[28.7183107,47.1151036],[28.7183117,47.1151028],[28.7185931,47.114862],[28.7187043,47.1147978],[28.7184681,47.1151887],[28.7184675,47.1151898],[28.7184671,47.1151909],[28.7183234,47.1156425],[28.718323,47.1156444]],[[28.7167043,47.1168183],[28.7166284,47.1167486],[28.7165809,47.116705],[28.7168567,47.1166398],[28.7169066,47.1167479],[28.7167868,47.1168041],[28.7167043,47.1168183]],[[28.7171613,47.1180954],[28.7170844,47.1178921],[28.7168961,47.1173752],[28.7168959,47.1173747],[28.7167667,47.1170705],[28.7167184,47.1168437],[28.7167999,47.1168297],[28.7168016,47.1168293],[28.7168032,47.1168289],[28.7168048,47.1168284],[28.7168063,47.1168277],[28.7169239,47.1167725],[28.7170349,47.1168944],[28.71721,47.1171247],[28.7172108,47.1171257],[28.7172117,47.1171266],[28.7175196,47.1174056],[28.7175206,47.1174064],[28.7175217,47.1174072],[28.71768,47.1175112],[28.7176803,47.1175114],[28.7178252,47.1176028],[28.7178114,47.117683],[28.717492,47.1183397],[28.717492,47.1183398],[28.7173865,47.1185617],[28.7171613,47.1180954]]]]}}]}