{"type": "FeatureCollection", "name": "route", "crs": {"type": "name", "properties": {"name": "urn:ogc:def:crs:EPSG::32635"}}, "features": [{"type": "Feature", "properties": {"length_m": 24184.92, "route_id": "RT-20260927T1400-post-rc10f-pretest", "run_id": "20260927T1400-post-rc10f-pretest", "source": "model", "n_targets": 1215, "n_visited_est": 795, "coverage_est": 0.6543, "outside_frac_est": 0.01294, "outside_share": 0.01294, "closure_m": 0.0, "walking_time_min": 362.8, "duration_min": 362.8, "baseline_length_m": 68174.61, "baseline_id_order_m": 62234.2, "policy": "penalty_x10", "solver": "ortools", "created_at": "2026-09-27T14:00:00+03:00"}, "geometry": {"type": "LineString", "coordinates": [[629663.8, 5220195.3], [629678.97, 5220175.93], [629679.63, 5220175.06], [629692.29, 5220158.55], [629702.83, 5220144.86], [629720.51, 5220121.79], [629729.89, 5220109.58], [629728.91, 5220108.94], [629727.85, 5220108.25], [629735.79, 5220097.9], [629734.12, 5220096.62], [629724.46, 5220107.65], [629722.28, 5220110.49], [629709.12, 5220129.38], [629710.71, 5220130.59], [629674.61, 5220177.96], [629659.34, 5220198.1], [629659.29, 5220196.02], [629658.12, 5220196.88], [629657.12, 5220199.62], [629630.77, 5220234.71], [629621.93, 5220246.15], [629657.12, 5220199.62], [629658.12, 5220196.88], [629663.81, 5220187.89], [629677.45, 5220169.96], [629657.52, 5220195.42], [629655.38, 5220194.62], [629661.64, 5220185.33], [629678.62, 5220163.31], [629688.64, 5220150.33], [629697.88, 5220137.87], [629699.81, 5220135.32], [629697.88, 5220137.87], [629692.35, 5220145.09], [629689.35, 5220149.4], [629687.38, 5220147.88], [629685.38, 5220149.38], [629684.46, 5220148.46], [629683.88, 5220147.88], [629678.88, 5220153.15], [629658.12, 5220181.38], [629659.63, 5220182.54], [629658.12, 5220185.88], [629658.64, 5220186.27], [629660.07, 5220187.37], [629655.38, 5220194.62], [629606.88, 5220179.12], [629642.33, 5220131.33], [629641.46, 5220130.64], [629642.33, 5220131.33], [629632.66, 5220142.3], [629600.35, 5220186.74], [629605.34, 5220179.93], [629610.31, 5220178.06], [629611.13, 5220176.98], [629617.52, 5220168.49], [629647.97, 5220128.7], [629621.16, 5220163.67], [629612.49, 5220175.17], [629608.18, 5220180.88], [629614.47, 5220181.97], [629618.68, 5220176.42], [629613.87, 5220182.77], [629618.74, 5220181.13], [629655.42, 5220133.22], [629738.42, 5220024.48], [629743.44, 5220017.86], [629745.41, 5220015.25], [629746.44, 5220013.89], [629747.27, 5220010.95], [629777.74, 5220019.52], [629776.38, 5220024.38], [629776.62, 5220025.12], [629776.38, 5220024.38], [629773.62, 5220024.12], [629772.46, 5220025.72], [629770.62, 5220024.38], [629767.3, 5220027.94], [629769.78, 5220025.1], [629767.88, 5220022.88], [629759.77, 5220033.9], [629713.26, 5220094.38], [629714.88, 5220095.62], [629753.51, 5220046.49], [629744.07, 5220058.76], [629706.54, 5220107.97], [629708.38, 5220109.38], [629701.36, 5220119.52], [629689.57, 5220134.86], [629687.11, 5220138.06], [629684.02, 5220142.09], [629681.31, 5220145.53], [629682.38, 5220146.45], [629682.88, 5220146.88], [629691.03, 5220137.6], [629689.82, 5220139.17], [629682.88, 5220146.88], [629682.38, 5220146.45], [629681.31, 5220145.53], [629679.38, 5220146.88], [629677.79, 5220145.66], [629680.74, 5220141.79], [629675.88, 5220146.88], [629674.1, 5220145.52], [629650.35, 5220176.55], [629655.47, 5220169.86], [629657.12, 5220171.12], [629655.58, 5220174.44], [629657.12, 5220175.62], [629652.24, 5220183.19], [629639.24, 5220200.43], [629635.77, 5220204.73], [629633.61, 5220207.55], [629629.51, 5220212.92], [629612.22, 5220235.54], [629606.88, 5220243.88], [629608.39, 5220245.03], [629613.18, 5220238.78], [629644.62, 5220198.88], [629646.12, 5220200.38], [629650.42, 5220194.92], [629653.23, 5220195.85], [629637.76, 5220216.14], [629615.7, 5220244.96], [629594.12, 5220272.88], [629592.15, 5220271.41], [629590.88, 5220274.38], [629588.12, 5220273.12], [629586.51, 5220271.94], [629585.34, 5220271.09], [629585.12, 5220271.38], [629582.81, 5220269.68], [629605.88, 5220237.62], [629604.4, 5220236.49], [629615.41, 5220222.17], [629616.16, 5220221.19], [629624.58, 5220210.2], [629628.8, 5220204.68], [629639.15, 5220191.17], [629636.37, 5220190.25], [629633.54, 5220189.31], [629630.56, 5220193.2], [629639.02, 5220182.15], [629647.34, 5220171.27], [629651.99, 5220165.2], [629681.8, 5220126.25], [629686.21, 5220120.47], [629697.34, 5220105.89], [629701.12, 5220100.12], [629691.31, 5220096.55], [629698.12, 5220086.77], [629700.72, 5220083.38], [629731.31, 5220042.99], [629733.12, 5220044.38], [629742.22, 5220033.3], [629755.38, 5220017.12], [629755.92, 5220017.53], [629757.06, 5220018.39], [629734.51, 5220048.31], [629722.53, 5220064.05], [629756.86, 5220018.65], [629759.0, 5220020.26], [629756.54, 5220023.54], [629706.0, 5220089.97], [629694.41, 5220105.23], [629687.57, 5220114.15], [629682.15, 5220121.22], [629656.93, 5220153.96], [629649.95, 5220163.03], [629645.08, 5220169.42], [629617.59, 5220205.6], [629615.47, 5220208.4], [629613.18, 5220211.4], [629601.97, 5220226.13], [629594.66, 5220235.73], [629622.25, 5220199.41], [629630.64, 5220188.34], [629627.82, 5220187.41], [629625.2, 5220186.54], [629613.74, 5220201.55], [629594.31, 5220226.97], [629625.2, 5220186.54], [629621.36, 5220182.23], [629668.97, 5220120.13], [629668.26, 5220121.06], [629654.57, 5220138.94], [629635.54, 5220163.77], [629627.58, 5220174.13], [629609.91, 5220197.16], [629596.32, 5220215.08], [629604.11, 5220204.78], [629605.88, 5220206.12], [629594.74, 5220221.98], [629580.46, 5220240.78], [629576.23, 5220246.34], [629573.62, 5220249.12], [629571.73, 5220247.7], [629560.43, 5220263.02], [629559.41, 5220264.41], [629557.11, 5220262.7], [629558.58, 5220260.71], [629604.05, 5220200.4], [629602.38, 5220199.12], [629591.77, 5220211.93], [629577.68, 5220230.59], [629562.62, 5220249.12], [629561.02, 5220247.77], [629559.88, 5220249.12], [629557.86, 5220247.6], [629557.4, 5220248.22], [629555.62, 5220246.88], [629557.18, 5220243.55], [629555.62, 5220242.38], [629561.59, 5220232.59], [629562.64, 5220231.19], [629555.62, 5220242.38], [629557.18, 5220243.55], [629546.56, 5220257.32], [629551.01, 5220251.66], [629549.38, 5220250.38], [629545.62, 5220253.63], [629542.12, 5220256.88], [629539.79, 5220255.29], [629539.91, 5220255.13], [629585.76, 5220195.06], [629617.64, 5220152.02], [629630.63, 5220135.06], [629642.52, 5220119.57], [629660.64, 5220095.98], [629665.29, 5220089.92], [629682.46, 5220093.51], [629721.08, 5220042.69], [629723.69, 5220039.26], [629681.62, 5220094.12], [629662.71, 5220088.16], [629693.51, 5220048.03], [629691.95, 5220050.06], [629694.43, 5220051.97], [629693.4, 5220053.31], [629689.6, 5220058.93], [629676.28, 5220075.6], [629665.29, 5220089.92], [629658.69, 5220089.05], [629653.48, 5220095.91], [629635.47, 5220119.4], [629624.91, 5220133.14], [629621.67, 5220137.35], [629578.16, 5220194.46], [629592.53, 5220175.67], [629589.68, 5220175.05], [629572.3, 5220197.84], [629558.84, 5220215.71], [629551.61, 5220225.31], [629542.92, 5220236.85], [629537.06, 5220244.63], [629545.06, 5220234.01], [629553.43, 5220222.89], [629589.88, 5220174.79], [629586.79, 5220174.36], [629572.23, 5220193.46], [629556.56, 5220214.28], [629587.15, 5220173.88], [629591.59, 5220172.56], [629618.65, 5220136.98], [629620.91, 5220134.02], [629640.62, 5220108.18], [629643.56, 5220104.33], [629651.78, 5220093.62], [629656.74, 5220087.21], [629647.73, 5220085.33], [629618.67, 5220123.69], [629638.2, 5220097.94], [629666.43, 5220060.68], [629652.64, 5220078.82], [629648.31, 5220084.55], [629644.19, 5220085.24], [629634.95, 5220097.42], [629613.03, 5220126.35], [629609.4, 5220131.15], [629594.79, 5220150.17], [629587.22, 5220160.12], [629584.18, 5220164.1], [629578.84, 5220171.12], [629581.27, 5220172.44], [629537.46, 5220230.27], [629529.54, 5220240.83], [629525.88, 5220245.7], [629523.61, 5220248.72], [629521.33, 5220247.0], [629521.47, 5220246.81], [629524.46, 5220242.85], [629526.53, 5220240.11], [629528.7, 5220237.23], [629532.38, 5220232.35], [629535.42, 5220228.32], [629538.3, 5220224.51], [629541.09, 5220220.81], [629546.43, 5220213.73], [629550.43, 5220208.43], [629554.2, 5220203.48], [629578.84, 5220171.12], [629571.53, 5220166.72], [629596.29, 5220133.96], [629611.85, 5220113.56], [629618.93, 5220104.31], [629633.54, 5220085.21], [629648.43, 5220065.75], [629663.54, 5220045.67], [629665.8, 5220047.37], [629659.8, 5220055.34], [629656.99, 5220059.04], [629599.39, 5220134.49], [629560.19, 5220186.5], [629554.67, 5220193.8], [629552.15, 5220197.13], [629544.98, 5220206.61], [629543.23, 5220208.94], [629537.34, 5220216.74], [629534.15, 5220220.97], [629532.74, 5220222.84], [629528.24, 5220228.8], [629525.81, 5220232.02], [629523.87, 5220234.59], [629518.68, 5220241.47], [629516.46, 5220239.8], [629517.34, 5220238.62], [629517.71, 5220238.14], [629519.24, 5220236.1], [629516.92, 5220234.36], [629517.94, 5220233.01], [629518.86, 5220231.79], [629523.46, 5220225.69], [629526.35, 5220221.87], [629529.06, 5220218.27], [629618.26, 5220100.72], [629633.34, 5220079.81], [629636.26, 5220077.13], [629612.75, 5220107.88], [629602.32, 5220121.53], [629567.5, 5220167.35], [629560.31, 5220162.83], [629634.16, 5220066.41], [629650.0, 5220045.64], [629651.92, 5220047.33], [629640.03, 5220063.0], [629636.65, 5220067.45], [629629.3, 5220077.14], [629628.25, 5220078.53], [629624.58, 5220083.37], [629614.38, 5220095.62], [629612.79, 5220094.42], [629629.33, 5220072.74], [629559.29, 5220164.62], [629564.42, 5220166.72], [629552.78, 5220182.11], [629546.93, 5220189.87], [629539.47, 5220199.74], [629527.14, 5220216.09], [629524.8, 5220219.19], [629518.12, 5220228.04], [629516.6, 5220225.42], [629514.88, 5220224.12], [629518.46, 5220218.2], [629515.9, 5220221.62], [629514.88, 5220224.12], [629516.6, 5220225.42], [629510.82, 5220233.07], [629503.52, 5220252.82], [629500.38, 5220323.38], [629485.94, 5220348.42], [629468.83, 5220408.65], [629451.88, 5220488.12], [629448.01, 5220491.02], [629440.38, 5220509.88], [629423.13, 5220527.34], [629345.77, 5220582.18], [629192.62, 5220693.88], [629189.62, 5220701.12], [629185.88, 5220702.12], [629181.32, 5220701.46], [629159.04, 5220756.03], [629154.95, 5220766.05], [629137.35, 5220808.75], [629169.27, 5220730.99], [629177.08, 5220711.86], [629174.68, 5220710.88], [629170.14, 5220721.99], [629150.8, 5220769.39], [629148.8, 5220774.3], [629145.9, 5220781.37], [629145.48, 5220782.39], [629145.4, 5220782.58], [629138.98, 5220798.14], [629128.13, 5220824.32], [629112.81, 5220861.1], [629110.44, 5220860.13], [629111.41, 5220857.8], [629109.09, 5220856.84], [629138.54, 5220785.81], [629146.17, 5220767.33], [629160.34, 5220732.42], [629147.89, 5220763.14], [629142.61, 5220775.96], [629139.52, 5220783.45], [629131.12, 5220803.78], [629109.31, 5220856.3], [629107.02, 5220855.34], [629107.38, 5220854.46], [629105.38, 5220853.62], [629168.76, 5220698.52], [629169.62, 5220696.38], [629102.32, 5220660.03], [629096.12, 5220658.12], [629093.09, 5220662.51], [629090.56, 5220666.36], [629093.13, 5220668.06], [629092.06, 5220669.68], [629093.88, 5220670.88], [629085.75, 5220684.96], [629077.35, 5220697.67], [629075.45, 5220700.55], [629037.18, 5220758.28], [629045.96, 5220745.4], [629069.62, 5220710.88], [629066.3, 5220708.71], [629093.13, 5220668.06], [629090.56, 5220666.36], [629093.09, 5220662.51], [629096.12, 5220658.12], [629119.94, 5220669.4], [629161.88, 5220691.62], [629163.12, 5220693.62], [629146.32, 5220732.17], [629144.31, 5220731.97], [629137.24, 5220742.94], [629144.31, 5220731.97], [629146.32, 5220732.17], [629115.67, 5220814.2], [629106.55, 5220830.56], [629101.94, 5220841.59], [629111.16, 5220819.53], [629116.62, 5220812.62], [629116.12, 5220809.88], [629113.47, 5220805.33], [629115.31, 5220802.0], [629119.86, 5220790.98], [629124.4, 5220779.96], [629126.85, 5220772.94], [629125.08, 5220772.21], [629124.3, 5220771.89], [629123.9, 5220772.87], [629117.86, 5220787.53], [629112.48, 5220800.59], [629123.9, 5220772.87], [629121.88, 5220772.03], [629121.26, 5220773.51], [629118.69, 5220779.73], [629117.77, 5220781.94], [629113.23, 5220792.91], [629110.32, 5220799.94], [629107.88, 5220801.88], [629107.12, 5220800.57], [629111.11, 5220791.02], [629116.37, 5220778.42], [629118.84, 5220772.51], [629119.46, 5220771.03], [629117.29, 5220770.13], [629116.87, 5220771.14], [629116.04, 5220773.12], [629114.05, 5220772.29], [629113.4, 5220773.85], [629110.7, 5220780.33], [629108.7, 5220785.12], [629113.4, 5220773.85], [629114.05, 5220772.29], [629111.99, 5220771.44], [629111.35, 5220772.99], [629109.73, 5220776.87], [629097.41, 5220806.45], [629095.41, 5220805.61], [629103.91, 5220785.07], [629109.15, 5220772.41], [629111.63, 5220766.42], [629109.07, 5220765.36], [629123.6, 5220742.18], [629108.85, 5220765.92], [629106.34, 5220772.0], [629101.03, 5220784.84], [629096.88, 5220792.62], [629096.12, 5220792.38], [629095.38, 5220791.62], [629100.48, 5220779.49], [629104.61, 5220769.37], [629103.06, 5220768.74], [629102.44, 5220770.26], [629102.4, 5220770.36], [629095.11, 5220788.3], [629093.88, 5220789.38], [629083.53, 5220784.16], [629093.88, 5220789.38], [629095.11, 5220788.3], [629098.06, 5220781.04], [629095.88, 5220780.15], [629099.61, 5220771.16], [629103.35, 5220762.17], [629100.85, 5220760.76], [629132.36, 5220712.42], [629130.38, 5220711.12], [629096.12, 5220761.12], [629093.88, 5220762.12], [629090.53, 5220765.49], [629093.17, 5220767.26], [629085.06, 5220779.23], [629062.88, 5220811.92], [629060.38, 5220810.24], [629064.66, 5220803.89], [629067.23, 5220800.07], [629081.39, 5220779.07], [629079.02, 5220777.47], [629076.88, 5220779.88], [629075.62, 5220779.12], [629078.13, 5220773.78], [629119.43, 5220710.67], [629100.09, 5220740.32], [629134.66, 5220687.32], [629132.16, 5220685.69], [629129.56, 5220683.99], [629122.31, 5220695.12], [629115.73, 5220705.2], [629113.43, 5220708.73], [629108.87, 5220715.71], [629072.11, 5220771.9], [629070.12, 5220775.38], [629052.88, 5220761.38], [629086.12, 5220712.02], [629084.38, 5220710.88], [629050.68, 5220760.95], [629048.88, 5220764.81], [629082.7, 5220711.92], [629084.38, 5220710.88], [629086.12, 5220712.02], [629088.12, 5220710.88], [629089.87, 5220712.02], [629071.55, 5220739.93], [629086.11, 5220717.75], [629096.71, 5220701.57], [629094.88, 5220700.38], [629102.04, 5220687.77], [629100.92, 5220689.47], [629108.28, 5220678.31], [629110.88, 5220672.88], [629114.09, 5220674.97], [629114.29, 5220674.66], [629116.61, 5220676.62], [629119.13, 5220678.26], [629118.21, 5220679.67], [629109.05, 5220693.74], [629103.64, 5220702.04], [629099.54, 5220708.34], [629118.21, 5220679.67], [629119.13, 5220678.26], [629121.65, 5220679.89], [629114.78, 5220690.48], [629064.74, 5220767.74], [629063.38, 5220770.38], [629076.88, 5220779.88], [629079.02, 5220777.47], [629081.39, 5220779.07], [629093.88, 5220762.12], [629096.12, 5220761.12], [629130.38, 5220711.12], [629132.36, 5220712.42], [629100.85, 5220760.76], [629103.35, 5220762.17], [629137.88, 5220710.88], [629139.57, 5220711.96], [629140.88, 5220711.12], [629142.84, 5220712.4], [629143.94, 5220710.7], [629145.9, 5220707.69], [629148.29, 5220709.56], [629153.55, 5220701.78], [629155.05, 5220699.57], [629155.37, 5220699.1], [629160.03, 5220701.29], [629163.12, 5220693.62], [629186.38, 5220702.62], [629134.39, 5220829.01], [629132.71, 5220833.05], [629126.16, 5220848.9], [629119.71, 5220864.46], [629120.84, 5220864.93], [629122.09, 5220865.44], [629140.12, 5220823.38], [629144.51, 5220824.46], [629138.28, 5220839.49], [629127.29, 5220866.0], [629128.62, 5220862.79], [629130.62, 5220863.62], [629142.03, 5220837.59], [629144.44, 5220838.6], [629143.37, 5220841.13], [629145.12, 5220841.88], [629140.67, 5220854.3], [629136.3, 5220863.51], [629135.36, 5220866.42], [629138.67, 5220859.11], [629141.89, 5220851.36], [629145.12, 5220841.88], [629143.37, 5220841.13], [629144.44, 5220838.6], [629142.03, 5220837.59], [629145.12, 5220827.88], [629143.39, 5220827.16], [629144.12, 5220824.38], [629139.89, 5220822.28], [629177.19, 5220731.9], [629188.62, 5220703.88], [629197.88, 5220709.12], [629196.38, 5220710.88], [629194.64, 5220716.7], [629196.38, 5220717.38], [629194.61, 5220723.4], [629196.38, 5220724.12], [629194.68, 5220729.93], [629196.38, 5220730.62], [629193.99, 5220738.23], [629194.64, 5220736.66], [629196.38, 5220737.38], [629190.23, 5220753.74], [629187.38, 5220760.62], [629185.15, 5220759.71], [629184.12, 5220761.12], [629182.38, 5220759.88], [629190.24, 5220740.74], [629185.82, 5220751.5], [629181.38, 5220761.12], [629179.41, 5220760.28], [629178.62, 5220761.12], [629176.65, 5220759.89], [629181.75, 5220747.93], [629189.79, 5220728.46], [629197.12, 5220709.88], [629201.88, 5220710.38], [629204.62, 5220712.38], [629201.98, 5220718.37], [629204.38, 5220719.38], [629203.39, 5220721.55], [629197.12, 5220738.12], [629198.79, 5220738.82], [629197.12, 5220744.88], [629198.85, 5220745.58], [629199.0, 5220745.2], [629202.84, 5220735.74], [629206.05, 5220727.83], [629207.4, 5220724.49], [629208.6, 5220721.55], [629210.62, 5220722.38], [629197.12, 5220758.88], [629198.79, 5220759.56], [629198.47, 5220760.35], [629200.38, 5220761.12], [629202.74, 5220756.72], [629205.06, 5220750.96], [629218.38, 5220719.88], [629233.12, 5220728.88], [629230.48, 5220735.5], [629191.27, 5220831.78], [629188.21, 5220839.08], [629163.14, 5220898.89], [629165.5, 5220899.88], [629177.19, 5220871.98], [629180.41, 5220864.3], [629182.71, 5220865.45], [629183.62, 5220864.62], [629185.61, 5220865.46], [629186.02, 5220864.48], [629187.19, 5220864.97], [629188.33, 5220865.45], [629188.9, 5220864.09], [629207.92, 5220817.97], [629214.29, 5220802.37], [629217.02, 5220795.67], [629222.34, 5220782.59], [629226.78, 5220771.7], [629229.6, 5220764.77], [629242.83, 5220732.6], [629256.63, 5220740.46], [629254.3, 5220743.88], [629248.3, 5220759.49], [629247.33, 5220761.9], [629233.21, 5220796.56], [629209.12, 5220855.62], [629212.38, 5220856.88], [629214.14, 5220856.3], [629213.37, 5220858.19], [629192.51, 5220907.84], [629189.52, 5220914.76], [629187.3, 5220913.82], [629191.72, 5220903.4], [629206.8, 5220867.28], [629210.49, 5220858.42], [629256.15, 5220746.82], [629256.78, 5220745.25], [629259.01, 5220742.07], [629285.88, 5220760.38], [629267.86, 5220804.97], [629285.88, 5220760.38], [629285.03, 5220759.71], [629283.12, 5220762.12], [629282.22, 5220762.92], [629280.62, 5220762.12], [629274.65, 5220775.12], [629276.45, 5220770.65], [629279.38, 5220763.38], [629278.12, 5220762.12], [629276.88, 5220763.12], [629275.38, 5220762.12], [629263.9, 5220788.04], [629271.04, 5220770.58], [629274.15, 5220763.07], [629271.81, 5220761.9], [629267.58, 5220772.34], [629264.67, 5220779.51], [629261.4, 5220787.53], [629251.24, 5220812.5], [629247.7, 5220821.21], [629244.44, 5220829.22], [629246.83, 5220830.19], [629234.62, 5220861.88], [629235.38, 5220862.38], [629236.12, 5220862.38], [629226.92, 5220884.56], [629214.88, 5220913.62], [629216.62, 5220914.88], [629217.4, 5220913.64], [629219.38, 5220914.88], [629220.23, 5220913.89], [629222.38, 5220914.88], [629223.08, 5220913.75], [629224.14, 5220914.42], [629224.88, 5220914.88], [629230.18, 5220903.34], [629234.79, 5220892.29], [629242.51, 5220873.84], [629227.98, 5220908.58], [629233.86, 5220894.52], [629243.54, 5220871.37], [629225.88, 5220913.62], [629227.62, 5220914.88], [629228.41, 5220914.04], [629230.38, 5220914.88], [629232.04, 5220912.14], [629235.72, 5220903.47], [629245.89, 5220879.45], [629247.62, 5220880.12], [629244.5, 5220889.26], [629246.8, 5220890.23], [629244.3, 5220896.16], [629246.74, 5220897.19], [629244.42, 5220902.64], [629246.84, 5220903.67], [629244.66, 5220908.82], [629246.91, 5220909.77], [629244.59, 5220915.36], [629246.85, 5220916.3], [629244.72, 5220921.48], [629246.93, 5220922.39], [629244.69, 5220927.79], [629246.88, 5220928.7], [629240.89, 5220943.09], [629238.57, 5220948.67], [629236.39, 5220947.76], [629236.78, 5220946.81], [629234.65, 5220945.93], [629237.09, 5220940.02], [629246.85, 5220916.3], [629244.59, 5220915.36], [629246.91, 5220909.77], [629244.66, 5220908.82], [629246.84, 5220903.67], [629244.42, 5220902.64], [629240.1, 5220912.81], [629229.2, 5220938.45], [629227.81, 5220941.7], [629225.3, 5220940.62], [629225.49, 5220940.18], [629223.62, 5220939.38], [629230.23, 5220922.46], [629227.72, 5220928.32], [629226.03, 5220932.31], [629224.38, 5220931.62], [629224.12, 5220930.38], [629221.12, 5220930.38], [629221.87, 5220928.98], [629222.86, 5220927.12], [629224.31, 5220923.65], [629223.1, 5220923.17], [629222.38, 5220922.88], [629224.38, 5220916.62], [629223.2, 5220915.84], [629222.88, 5220915.62], [629221.98, 5220916.42], [629220.38, 5220915.62], [629218.88, 5220916.88], [629216.88, 5220915.88], [629216.12, 5220916.82], [629214.62, 5220915.62], [629211.7, 5220920.88], [629207.66, 5220928.94], [629205.79, 5220928.09], [629246.83, 5220830.19], [629244.44, 5220829.22], [629219.56, 5220889.16], [629205.96, 5220921.11], [629203.39, 5220927.06], [629201.32, 5220926.18], [629199.06, 5220931.49], [629197.62, 5220930.88], [629200.07, 5220924.16], [629203.62, 5220915.88], [629202.88, 5220914.88], [629201.62, 5220915.88], [629201.56, 5220915.96], [629200.12, 5220914.88], [629197.62, 5220914.38], [629198.81, 5220911.59], [629197.12, 5220910.88], [629216.62, 5220864.62], [629214.62, 5220862.62], [629213.88, 5220863.38], [629223.12, 5220843.83], [629223.59, 5220841.61], [629236.62, 5220813.12], [629238.12, 5220812.38], [629240.12, 5220810.88], [629242.62, 5220812.38], [629247.62, 5220800.12], [629248.56, 5220800.28], [629255.38, 5220783.22], [629268.12, 5220752.38], [629269.12, 5220751.88], [629270.58, 5220749.63], [629249.07, 5220735.72], [629247.12, 5220739.62], [629242.98, 5220752.0], [629242.57, 5220753.05], [629245.35, 5220745.99], [629247.7, 5220746.91], [629241.42, 5220762.83], [629240.25, 5220762.37], [629239.62, 5220762.12], [629218.12, 5220812.38], [629216.05, 5220811.54], [629215.39, 5220813.18], [629240.19, 5220751.76], [629237.6, 5220758.2], [629227.24, 5220783.85], [629231.46, 5220773.39], [629245.29, 5220738.9], [629245.37, 5220738.67], [629247.29, 5220734.83], [629241.82, 5220734.62], [629233.81, 5220754.42], [629242.83, 5220732.6], [629237.12, 5220732.22], [629217.59, 5220780.68], [629221.04, 5220772.18], [629233.63, 5220740.94], [629232.88, 5220742.81], [629237.62, 5220729.38], [629229.12, 5220725.46], [629227.38, 5220728.88], [629215.67, 5220758.77], [629214.38, 5220761.12], [629212.47, 5220759.86], [629211.62, 5220761.12], [629209.51, 5220759.97], [629220.69, 5220732.7], [629218.09, 5220739.16], [629212.98, 5220751.88], [629212.04, 5220754.22], [629208.88, 5220761.12], [629211.12, 5220762.88], [629205.04, 5220777.56], [629202.31, 5220784.13], [629197.12, 5220798.38], [629198.95, 5220799.12], [629204.89, 5220784.6], [629193.15, 5220812.43], [629191.38, 5220811.12], [629192.66, 5220807.99], [629186.67, 5220822.1], [629184.3, 5220827.89], [629180.62, 5220836.12], [629179.7, 5220835.99], [629180.82, 5220836.43], [629178.57, 5220841.93], [629173.3, 5220854.83], [629166.17, 5220868.89], [629160.06, 5220883.64], [629156.13, 5220893.1], [629154.34, 5220892.36], [629154.71, 5220891.5], [629152.82, 5220890.71], [629153.7, 5220888.6], [629151.38, 5220887.62], [629157.73, 5220871.95], [629160.6, 5220865.42], [629158.36, 5220864.3], [629151.49, 5220880.12], [629158.36, 5220864.3], [629160.6, 5220865.42], [629161.88, 5220864.38], [629163.58, 5220865.09], [629205.8, 5220762.87], [629203.47, 5220761.9], [629186.47, 5220802.86], [629182.47, 5220812.5], [629181.25, 5220811.98], [629180.17, 5220811.51], [629184.89, 5220799.65], [629179.38, 5220812.38], [629177.53, 5220811.62], [629177.17, 5220812.5], [629174.98, 5220811.62], [629190.47, 5220773.08], [629192.45, 5220768.17], [629174.12, 5220812.38], [629172.08, 5220811.54], [629166.97, 5220823.96], [629166.34, 5220825.51], [629165.91, 5220830.51], [629164.08, 5220830.88], [629164.08, 5220832.54], [629164.08, 5220830.88], [629165.91, 5220830.51], [629166.34, 5220825.51], [629171.49, 5220812.99], [629169.38, 5220812.12], [629184.0, 5220775.16], [629188.88, 5220763.12], [629188.07, 5220762.59], [629187.38, 5220762.12], [629179.34, 5220780.32], [629173.49, 5220794.83], [629170.33, 5220802.67], [629186.48, 5220762.92], [629184.88, 5220762.12], [629183.38, 5220763.62], [629181.62, 5220762.38], [629180.62, 5220763.62], [629178.88, 5220762.38], [629176.6, 5220766.63], [629173.84, 5220773.44], [629157.62, 5220812.38], [629155.52, 5220811.52], [629154.62, 5220812.38], [629152.64, 5220811.55], [629152.32, 5220812.32], [629149.87, 5220811.3], [629151.35, 5220807.72], [629153.14, 5220803.4], [629170.62, 5220762.38], [629172.63, 5220763.2], [629171.1, 5220766.88], [629195.12, 5220710.12], [629191.12, 5220700.88], [629205.51, 5220625.67], [629232.95, 5220509.54], [629227.87, 5220508.44], [629226.38, 5220509.25], [629222.46, 5220511.38], [629215.81, 5220515.0], [629208.53, 5220518.96], [629186.04, 5220531.17], [629181.23, 5220533.77], [629176.26, 5220536.46], [629170.69, 5220539.48], [629166.8, 5220541.59], [629165.29, 5220542.4], [629164.73, 5220541.36], [629164.19, 5220540.37], [629167.85, 5220538.4], [629173.45, 5220535.36], [629182.92, 5220530.24], [629191.09, 5220525.82], [629217.35, 5220511.57], [629227.77, 5220505.9], [629226.7, 5220503.94], [629226.97, 5220503.79], [629228.14, 5220503.16], [629226.98, 5220501.03], [629202.54, 5220514.38], [629189.93, 5220521.22], [629162.4, 5220536.07], [629169.41, 5220532.29], [629202.54, 5220514.38], [629226.98, 5220501.03], [629227.92, 5220500.52], [629226.83, 5220498.51], [629228.63, 5220497.53], [629230.08, 5220496.75], [629229.04, 5220494.67], [629223.45, 5220497.64], [629230.88, 5220494.38], [629235.98, 5220495.48], [629240.98, 5220457.37], [629247.72, 5220439.16], [629257.38, 5220396.38], [629376.27, 5220316.38], [629412.58, 5220290.7], [629446.6, 5220270.64], [629494.38, 5220235.38], [629501.62, 5220244.38], [629503.88, 5220242.88], [629503.12, 5220237.88], [629503.32, 5220225.81], [629506.17, 5220222.41], [629503.38, 5220224.88], [629508.88, 5220152.12], [629531.91, 5220126.45], [629546.47, 5220100.51], [629555.35, 5220082.87], [629744.88, 5219838.62], [629811.88, 5219753.62], [629796.38, 5219738.38], [629834.21, 5219685.6], [629837.62, 5219689.12], [629837.84, 5219690.9], [629837.62, 5219689.12], [629834.21, 5219685.6], [629796.38, 5219738.38], [629812.88, 5219753.38], [629873.78, 5219678.57], [629892.74, 5219663.57], [629902.38, 5219661.12], [629909.76, 5219665.32], [629970.62, 5219714.62], [629972.88, 5219715.38], [629984.65, 5219700.18], [629981.03, 5219696.88], [629979.8, 5219695.72], [629975.15, 5219691.33], [629949.48, 5219667.12], [629947.21, 5219664.98], [629939.0, 5219657.23], [629933.21, 5219651.77], [629926.99, 5219645.9], [629925.12, 5219647.88], [629930.92, 5219653.34], [629943.69, 5219665.4], [629925.12, 5219647.88], [629926.99, 5219645.9], [629926.54, 5219645.48], [629922.7, 5219641.07], [629966.34, 5219605.71], [629963.73, 5219602.41], [629947.42, 5219581.56], [629945.42, 5219583.19], [629933.19, 5219567.97], [629928.41, 5219562.02], [629925.07, 5219557.87], [629936.96, 5219572.66], [629940.87, 5219577.53], [629945.42, 5219583.19], [629947.42, 5219581.56], [629961.49, 5219599.52], [629963.69, 5219597.81], [629946.51, 5219576.3], [629963.69, 5219597.81], [629961.49, 5219599.52], [629963.73, 5219602.41], [629966.34, 5219605.71], [630091.18, 5219505.89], [630130.91, 5219468.07], [630168.5, 5219443.52], [630208.17, 5219405.59], [630244.32, 5219378.93], [630251.04, 5219375.4], [630262.4, 5219370.9], [630270.88, 5219362.62], [630272.38, 5219363.38], [630273.89, 5219366.34], [630272.38, 5219367.38], [630280.12, 5219378.88], [630277.15, 5219379.53], [630276.66, 5219378.75], [630274.88, 5219379.88], [630272.62, 5219380.12], [630274.0, 5219382.72], [630272.38, 5219383.88], [630274.09, 5219387.42], [630272.38, 5219388.62], [630273.94, 5219391.77], [630272.38, 5219392.88], [630274.01, 5219396.22], [630272.38, 5219397.38], [630274.57, 5219402.3], [630272.38, 5219403.88], [630273.79, 5219405.89], [630272.38, 5219406.88], [630273.45, 5219411.22], [630281.9, 5219423.06], [630288.62, 5219429.88], [630289.92, 5219428.76], [630286.74, 5219424.37], [630291.38, 5219429.88], [630293.24, 5219428.32], [630295.88, 5219429.88], [630297.26, 5219428.87], [630296.59, 5219427.94], [630291.52, 5219420.9], [630288.23, 5219416.3], [630272.38, 5219392.88], [630273.94, 5219391.77], [630272.38, 5219388.62], [630274.09, 5219387.42], [630272.38, 5219383.88], [630274.0, 5219382.72], [630307.88, 5219429.88], [630308.62, 5219431.62], [630290.12, 5219448.25], [630275.38, 5219459.88], [630243.86, 5219551.38], [630240.38, 5219554.62], [630247.11, 5219573.06], [630270.32, 5219615.71], [630294.13, 5219646.38], [630311.88, 5219665.38], [630303.93, 5219692.68], [630287.88, 5219738.62], [630285.52, 5219735.45], [630285.35, 5219728.06], [630282.05, 5219731.11], [630282.05, 5219731.66], [630282.05, 5219731.11], [630285.35, 5219728.06], [630287.38, 5219738.62], [630288.62, 5219737.62], [630311.17, 5219670.3], [630311.88, 5219662.62], [630284.52, 5219635.46], [630262.89, 5219603.21], [630244.12, 5219569.38], [630229.12, 5219576.88], [630226.62, 5219577.12], [630213.12, 5219557.88], [630201.88, 5219506.38], [630143.04, 5219555.65], [630139.28, 5219551.27], [630106.14, 5219510.12], [630105.1, 5219508.82], [630107.51, 5219506.73], [630108.44, 5219507.95], [630128.62, 5219532.38], [630130.57, 5219530.82], [630142.72, 5219546.05], [630145.06, 5219544.18], [630138.52, 5219535.93], [630136.01, 5219532.8], [630116.41, 5219508.32], [630118.7, 5219506.55], [630119.73, 5219507.86], [630129.08, 5219519.41], [630131.41, 5219517.52], [630134.19, 5219520.93], [630139.32, 5219527.22], [630145.53, 5219534.84], [630148.6, 5219538.64], [630131.41, 5219517.52], [630129.08, 5219519.41], [630119.73, 5219507.86], [630118.7, 5219506.55], [630116.41, 5219508.32], [630113.39, 5219504.39], [630111.12, 5219506.12], [630130.57, 5219530.82], [630128.62, 5219532.38], [630108.44, 5219507.95], [630107.51, 5219506.73], [630105.1, 5219508.82], [630106.14, 5219510.12], [630139.28, 5219551.27], [630143.04, 5219555.65], [630108.88, 5219584.88], [630105.6, 5219581.74], [630104.52, 5219580.32], [630106.46, 5219578.84], [630095.91, 5219565.11], [630085.32, 5219551.33], [630079.78, 5219544.12], [630071.67, 5219533.56], [630069.83, 5219534.96], [630070.37, 5219535.67], [630068.36, 5219537.21], [630070.35, 5219539.8], [630068.2, 5219541.45], [630072.47, 5219546.98], [630091.31, 5219571.34], [630100.52, 5219583.25], [630102.53, 5219581.7], [630103.68, 5219583.2], [630105.6, 5219581.74], [630106.82, 5219583.33], [630107.12, 5219585.38], [630028.14, 5219651.86], [630022.69, 5219657.47], [630020.32, 5219655.16], [630002.39, 5219634.39], [630000.06, 5219631.7], [629995.08, 5219625.95], [629979.68, 5219607.91], [629977.69, 5219609.61], [629978.79, 5219610.89], [630012.75, 5219650.65], [630009.51, 5219646.77], [629997.6, 5219632.68], [629988.27, 5219621.9], [629978.79, 5219610.89], [629977.69, 5219609.61], [629979.68, 5219607.91], [629979.21, 5219607.37], [629981.23, 5219605.64], [629981.42, 5219605.87], [629983.41, 5219604.17], [629984.49, 5219605.44], [629992.52, 5219614.88], [629997.83, 5219621.12], [630009.29, 5219634.66], [630004.58, 5219629.05], [630014.98, 5219641.43], [630013.06, 5219643.08], [630019.9, 5219650.81], [630021.03, 5219652.08], [630019.1, 5219653.78], [630020.32, 5219655.16], [630022.69, 5219657.47], [629972.88, 5219715.38], [629990.2, 5219736.29], [629988.62, 5219738.12], [629983.48, 5219742.73], [629980.28, 5219746.87], [629988.62, 5219738.12], [629990.2, 5219736.29], [629990.88, 5219739.38], [629987.75, 5219742.15], [629978.58, 5219754.11], [629976.42, 5219756.92], [629972.62, 5219761.88], [629974.7, 5219763.49], [629967.61, 5219772.59], [629968.73, 5219771.15], [629970.62, 5219772.62], [629978.0, 5219763.23], [629984.33, 5219755.16], [629982.74, 5219757.19], [629970.62, 5219772.62], [629972.54, 5219774.17], [629943.72, 5219809.85], [629942.57, 5219808.92], [629943.72, 5219809.85], [629919.3, 5219842.57], [629914.88, 5219838.88], [629919.12, 5219830.38], [629917.63, 5219829.18], [629899.61, 5219851.72], [629893.14, 5219859.81], [629889.81, 5219863.97], [629888.33, 5219865.83], [629908.05, 5219841.16], [629907.15, 5219840.45], [629906.12, 5219839.62], [629916.2, 5219827.03], [629926.44, 5219813.93], [629933.12, 5219805.38], [629931.0, 5219803.74], [629933.94, 5219799.91], [629914.67, 5219824.97], [629915.75, 5219825.81], [629916.62, 5219826.49], [629906.12, 5219839.62], [629907.15, 5219840.45], [629908.05, 5219841.16], [629917.63, 5219829.18], [629919.12, 5219830.38], [629914.88, 5219838.88], [629919.3, 5219842.57], [629924.88, 5219839.38], [629926.02, 5219838.13], [629928.88, 5219840.38], [629914.38, 5219857.62], [629914.12, 5219859.12], [629915.68, 5219860.35], [629891.74, 5219890.63], [629891.38, 5219890.88], [629894.08, 5219893.02], [629859.05, 5219938.23], [629810.03, 5220002.47], [629812.3, 5220004.71], [629801.17, 5220018.85], [629797.01, 5220014.83], [629794.77, 5220013.25], [629792.62, 5220017.38], [629789.46, 5220015.17], [629788.25, 5220016.91], [629793.69, 5220009.11], [629789.46, 5220015.17], [629792.62, 5220017.38], [629794.77, 5220013.25], [629797.01, 5220014.83], [629801.17, 5220018.85], [629812.3, 5220004.71], [629810.03, 5220002.47], [629854.3, 5219944.56], [629852.38, 5219943.12], [629850.62, 5219944.38], [629849.12, 5219942.88], [629847.21, 5219944.09], [629845.62, 5219942.88], [629838.93, 5219950.24], [629816.56, 5219979.2], [629810.88, 5219985.88], [629813.55, 5219987.84], [629817.64, 5219982.46], [629855.86, 5219932.77], [629861.88, 5219923.38], [629864.87, 5219925.67], [629876.68, 5219910.41], [629882.64, 5219902.71], [629889.42, 5219893.97], [629999.62, 5219753.62], [629997.62, 5219751.38], [629999.38, 5219747.62], [629996.59, 5219744.51], [629995.19, 5219744.91], [629996.59, 5219744.51], [630009.95, 5219760.94], [630005.38, 5219764.62], [629862.88, 5219949.38], [629864.48, 5219950.58], [629862.88, 5219954.12], [629864.52, 5219955.38], [629862.88, 5219959.12], [629864.56, 5219960.42], [629859.97, 5219966.42], [629861.88, 5219967.88], [629858.51, 5219973.31], [629861.0, 5219975.21], [629861.39, 5219974.7], [629863.69, 5219976.45], [629816.13, 5220039.18], [629813.27, 5220042.98], [629815.12, 5220044.38], [629847.59, 5220007.84], [629815.12, 5220044.38], [629813.27, 5220042.98], [629813.32, 5220042.91], [629811.62, 5220041.62], [629813.53, 5220037.17], [629816.41, 5220033.39], [629820.59, 5220027.89], [629847.12, 5219994.38], [629848.93, 5219995.74], [629849.27, 5219995.28], [629854.21, 5219988.83], [629857.91, 5219991.67], [629858.9, 5219990.39], [629859.89, 5219989.11], [629856.18, 5219986.26], [629857.52, 5219984.52], [629863.69, 5219976.45], [629861.39, 5219974.7], [629861.0, 5219975.21], [629858.51, 5219973.31], [629842.38, 5219993.12], [629840.6, 5219991.77], [629815.45, 5220024.95], [629864.56, 5219960.42], [629862.88, 5219959.12], [629864.52, 5219955.38], [629862.88, 5219954.12], [629864.48, 5219950.58], [629862.88, 5219949.38], [629891.9, 5219910.97], [629895.4, 5219906.47], [629905.38, 5219893.62], [629903.38, 5219891.88], [629898.2, 5219897.4], [629895.87, 5219900.42], [629890.37, 5219907.51], [629880.17, 5219920.7], [629866.68, 5219938.12], [629914.83, 5219876.26], [629983.62, 5219789.38], [629985.88, 5219788.38], [629992.81, 5219780.45], [630005.38, 5219764.62], [630009.95, 5219760.94], [630024.85, 5219788.15], [630032.96, 5219805.2], [630030.88, 5219816.38], [629907.08, 5219970.04], [629795.41, 5220116.59], [629723.57, 5220195.99], [629709.38, 5220212.38], [629668.62, 5220197.62], [629674.38, 5220190.64], [629681.79, 5220180.95], [629687.29, 5220173.76], [629700.98, 5220155.86], [629708.12, 5220147.88], [629709.93, 5220149.26], [629710.78, 5220148.15], [629709.12, 5220146.88], [629719.87, 5220131.29], [629726.75, 5220122.42], [629731.1, 5220116.82], [629737.05, 5220108.38], [629735.49, 5220108.28], [629739.88, 5220107.62], [629740.9, 5220109.0], [629739.27, 5220111.12], [629717.36, 5220139.6], [629711.61, 5220147.07], [629672.47, 5220198.1], [629671.89, 5220199.97], [629709.38, 5220212.38], [629645.62, 5220294.12], [629640.09, 5220291.58], [629640.66, 5220289.23], [629647.26, 5220280.67], [629652.78, 5220273.52], [629656.42, 5220268.81], [629654.14, 5220267.04], [629662.47, 5220256.29], [629666.69, 5220250.84], [629698.66, 5220209.54], [629701.62, 5220210.38], [629679.31, 5220239.43], [629687.57, 5220228.72], [629695.81, 5220217.97], [629702.18, 5220210.54], [629697.04, 5220207.18], [629719.01, 5220178.65], [629723.13, 5220173.29], [629735.87, 5220156.69], [629757.6, 5220128.39], [629759.7, 5220130.01], [629739.71, 5220156.18], [629733.47, 5220164.3], [629747.46, 5220146.07], [629759.7, 5220130.01], [629757.6, 5220128.39], [629755.27, 5220131.43], [629743.29, 5220147.03], [629733.17, 5220160.22], [629727.93, 5220167.04], [629695.83, 5220208.74], [629692.99, 5220207.93], [629675.87, 5220230.16], [629665.33, 5220243.84], [629658.28, 5220252.99], [629653.59, 5220259.08], [629646.35, 5220268.48], [629638.7, 5220278.42], [629648.83, 5220265.26], [629660.43, 5220250.21], [629692.99, 5220207.93], [629690.11, 5220207.11], [629687.3, 5220206.32], [629660.73, 5220240.65], [629642.92, 5220263.76], [629628.75, 5220282.16], [629627.72, 5220283.49], [629625.54, 5220281.8], [629624.85, 5220282.69], [629623.82, 5220284.03], [629621.65, 5220282.36], [629625.45, 5220277.44], [629636.06, 5220263.69], [629665.07, 5220226.02], [629689.12, 5220194.69], [629698.82, 5220182.09], [629700.88, 5220179.42], [629714.64, 5220161.43], [629719.96, 5220154.51], [629751.92, 5220111.7], [629750.67, 5220109.74], [629756.24, 5220102.41], [629743.87, 5220118.67], [629741.55, 5220117.16], [629737.17, 5220122.87], [629734.37, 5220126.51], [629713.84, 5220153.22], [629648.9, 5220237.77], [629624.52, 5220269.58], [629618.51, 5220277.44], [629615.85, 5220280.91], [629615.14, 5220281.84], [629612.93, 5220280.15], [629618.05, 5220273.44], [629642.43, 5220241.59], [629634.94, 5220251.32], [629633.38, 5220250.12], [629630.31, 5220252.69], [629622.41, 5220263.03], [629610.38, 5220279.62], [629607.81, 5220277.64], [629611.3, 5220273.13], [629662.39, 5220206.79], [629665.79, 5220202.35], [629664.74, 5220201.07], [629662.12, 5220197.88], [629660.19, 5220200.6], [629655.45, 5220206.84], [629657.12, 5220208.12], [629633.85, 5220239.49], [629627.02, 5220248.15], [629625.62, 5220249.12], [629624.89, 5220248.56], [629623.91, 5220247.8], [629621.76, 5220250.57], [629663.8, 5220195.3]]}}]}
