{"type": "FeatureCollection", "name": "siret3_forbidden", "crs": {"type": "name", "properties": {"name": "urn:ogc:def:crs:EPSG::32635"}}, "features": [{"type": "Feature", "properties": {"type": "forbidden", "source": "village core outside the study area; OSM buildings (+1 m); commercial/religious compounds"}, "geometry": {"type": "MultiPolygon", "coordinates": [[[[629442.9056437609, 5220569.89554336], [629442.9802053748, 5220569.957191873], [629443.060375365, 5220570.011346708], [629443.1454033426, 5220570.057500977], [629443.2344934478, 5220570.095222676], [629443.3268117999, 5220570.124158732], [629445.045759778, 5220570.572881419], [629445.0672218062, 5220570.603103145], [629445.1321969623, 5220570.67771296], [629445.2042267004, 5220570.745537087], [629445.2826059649, 5220570.805911638], [629445.3665675487, 5220570.858245641], [629445.4552896025, 5220570.902026831], [629445.5479036797, 5220570.936826661], [629445.6435032373, 5220570.962304495], [629455.0088867802, 5220572.967903804], [629455.1045263398, 5220572.983582191], [629455.2012344443, 5220572.989928818], [629455.2981027398, 5220572.986884075], [629455.3942213682, 5220572.974476559], [629455.4886875122, 5220572.952822811], [629455.5806138762, 5220572.922126219], [629455.66913702, 5220572.882675108], [629455.753425469, 5220572.834840031], [629455.832687524, 5220572.779070293], [629455.9061786972, 5220572.715889721], [629455.9732087055, 5220572.645891756], [629456.0331479537, 5220572.569733869], [629456.085433448, 5220572.488131392], [629456.1295740845, 5220572.401850795], [629456.165155262, 5220572.31170249], [629456.1918427757, 5220572.218533215], [629459.5636079346, 5220557.850114365], [629459.5817383802, 5220557.750352192], [629459.5896731201, 5220557.6492668595], [629459.5873305753, 5220557.547897649], [629459.5747348304, 5220557.447286758], [629459.5520153847, 5220557.348468585], [629459.5194058212, 5220557.252459102], [629459.4772414059, 5220557.160245403], [629459.4259556393, 5220557.072775553], [629459.3660758013, 5220556.99094885], [629459.3299927483, 5220556.950886241], [629459.4478045679, 5220556.29470161], [629459.4605148451, 5220556.195743691], [629459.4633010398, 5220556.096011762], [629459.4561354173, 5220555.996498573], [629459.439089306, 5220555.898194703], [629459.4123323866, 5220555.802078689], [629459.3761310034, 5220555.709107293], [629459.3308455128, 5220555.6202059705], [629459.2769266966, 5220555.536259666], [629459.2149112748, 5220555.4581039995], [629459.1454165626, 5220555.386516949], [629459.0691343254, 5220555.322211109], [629458.9868238937, 5220555.265826594], [629458.8993046036, 5220555.217924667], [629458.8074476415, 5220555.178982154], [629458.7121673719, 5220555.149386698], [629454.7355461211, 5220554.12864848], [629454.6399583999, 5220554.109027898], [629454.5429134622, 5220554.09881713], [629454.4453353679, 5220554.098113404], [629454.3481532537, 5220554.10692342], [629454.2522924856, 5220554.125163291], [629454.158665848, 5220554.152659335], [629454.0681648519, 5220554.189149736], [629453.9816512457, 5220554.234287035], [629453.8999488105, 5220554.287641432], [629453.8238355151, 5220554.348704891], [629453.7540361086, 5220554.416895965], [629453.6912152198, 5220554.49156534], [629453.6359710278, 5220554.572002017], [629453.5888295667, 5220554.657440078], [629453.5502397165, 5220554.747065986], [629453.5205689291, 5220554.840026322], [629453.4182655949, 5220555.224367709], [629447.1816129475, 5220553.88861839], [629447.0861343406, 5220553.872955933], [629446.9895890016, 5220553.866593978], [629446.8928807377, 5220553.869592083], [629446.796914881, 5220553.881922179], [629446.7025898136, 5220553.90346884], [629446.6107885574, 5220553.934030357], [629446.522370508, 5220553.9733206285], [629446.4381633888, 5220554.020971841], [629446.3589555026, 5220554.076537907], [629446.2854883524, 5220554.139498647], [629446.2184496992, 5220554.209264656], [629446.1584671239, 5220554.28518282], [629446.1061021519, 5220554.366542432], [629446.0618449966, 5220554.452581849], [629446.0261099705, 5220554.542495612], [629445.999231606, 5220554.635441997], [629442.6064389524, 5220568.925582397], [629442.5886699281, 5220569.020683581], [629442.5801740414, 5220569.11705678], [629442.5810308139, 5220569.213799941], [629442.5912322258, 5220569.310007554], [629442.6106827925, 5220569.404779116], [629442.639200457, 5220569.497227567], [629442.6765182947, 5220569.586487594], [629442.7222870119, 5220569.671723725], [629442.7760782144, 5220569.752138152], [629442.837388418, 5220569.826978197], [629442.9056437609, 5220569.89554336]]], [[[629442.7717914376, 5220572.045992937], [629442.7101984192, 5220572.121980345], [629442.6563238736, 5220572.203621753], [629442.6106832607, 5220572.290136033], [629442.5737132605, 5220572.380695434], [629442.5457675938, 5220572.474433505], [629439.4308757437, 5220585.158559482], [629439.4122116977, 5220585.25464948], [629439.4030316442, 5220585.352103884], [629439.403423543, 5220585.449988923], [629439.413383639, 5220585.547366696], [629439.4328164983, 5220585.643304167], [629439.4615359225, 5220585.736882098], [629439.4992667323, 5220585.827203858], [629439.5456474051, 5220585.913404018], [629439.600233538, 5220585.994656639], [629439.6625021069, 5220586.070183189], [629439.731856477, 5220586.139259999], [629439.8076321201, 5220586.201225201], [629439.8891029817, 5220586.255485067], [629439.9754884378, 5220586.301519698], [629440.0659607745, 5220586.338888009], [629440.159653119, 5220586.367231949], [629452.30254876, 5220589.4007274015], [629452.3995410812, 5220589.419919542], [629452.4979545734, 5220589.429439688], [629452.5968271613, 5220589.429194771], [629452.6951922814, 5220589.419187185], [629452.7920883313, 5220589.399514765], [629452.8865680697, 5220589.370369823], [629452.9777078772, 5220589.332037276], [629453.0646167846, 5220589.284891858], [629453.1464451838, 5220589.229394455], [629453.2223931325, 5220589.166087601], [629453.2917181753, 5220589.095590176], [629453.3537426009, 5220589.01859135], [629453.407860068, 5220588.935843851], [629453.4535415325, 5220588.84815661], [629453.4903404191, 5220588.756386841], [629453.5178969877, 5220588.661431671], [629456.5598816974, 5220575.842305001], [629456.5778049905, 5220575.745990888], [629456.5862179361, 5220575.648385176], [629456.5850397899, 5220575.55042465], [629456.5742818593, 5220575.453049502], [629456.5540473951, 5220575.357194304], [629456.5245306006, 5220575.2637790395], [629456.486014768, 5220575.173700278], [629456.4388695586, 5220575.087822563], [629456.3835474559, 5220575.00697012], [629456.3205794222, 5220574.931918941], [629456.2505698028, 5220574.863389343], [629456.1741905257, 5220574.802039048], [629456.0921746526, 5220574.748456876], [629456.0053093436, 5220574.703157088], [629455.9144283015, 5220574.666574458], [629455.8204037711, 5220574.639060091], [629443.7504152706, 5220571.740565333], [629443.6543009522, 5220571.722404276], [629443.5568721355, 5220571.713720278], [629443.4590609985, 5220571.714596424], [629443.3618033772, 5220571.725024331], [629443.2660298118, 5220571.744904229], [629443.1726566432, 5220571.77404591], [629443.082577246, 5220571.812170552], [629442.9966534806, 5220571.858913387], [629442.9157074471, 5220571.913827191], [629442.84051362, 5220571.976386559], [629442.7717914376, 5220572.045992937]]], [[[629448.9209901883, 5220634.1529808985], [629449.019928252, 5220634.158510932], [629449.1189278751, 5220634.1542218365], [629449.2170169485, 5220634.140155729], [629449.3132323041, 5220634.116450727], [629449.4066291722, 5220634.0833396], [629449.496290459, 5220634.041147475], [629449.5813357515, 5220633.990288652], [629449.6609299625, 5220633.931262528], [629449.7342915309, 5220633.864648701], [629449.800700096, 5220633.791101272], [629449.8595035705, 5220633.711342429], [629449.9101245443, 5220633.626155348], [629449.9520659536, 5220633.536376509], [629449.9849159626, 5220633.442887479], [629450.008352006, 5220633.346606258], [629452.3807653305, 5220620.957569156], [629452.3943119162, 5220620.86211782], [629452.3986039902, 5220620.765805591], [629452.3936016599, 5220620.669527639], [629452.3793514194, 5220620.574178815], [629452.3559857171, 5220620.480645338], [629452.3237217247, 5220620.38979655], [629452.2828593189, 5220620.302476843], [629452.2337782938, 5220620.219497807], [629452.1769348317, 5220620.141630688], [629452.112857262, 5220620.06959922], [629452.0421411518, 5220620.004072894], [629451.9654437696, 5220619.945660747], [629451.8834779768, 5220619.894905685], [629451.7970056016, 5220619.852279453], [629451.706830359, 5220619.818178235], [629451.6137903795, 5220619.792918986], [629449.1763589763, 5220619.255852443], [629449.341014019, 5220618.23905044], [629449.3520641414, 5220618.139318995], [629449.3530640102, 5220618.038982229], [629449.3440035582, 5220617.939050381], [629449.3249740102, 5220617.840529609], [629449.2961669646, 5220617.744411866], [629449.2578724643, 5220617.651664913], [629449.2104760759, 5220617.563222567], [629449.1544550086, 5220617.479975306], [629449.0903733084, 5220617.402761306], [629449.0188761798, 5220617.332357991], [629448.9406834894, 5220617.269474213], [629448.8565825175, 5220617.214743119], [629448.767420032, 5220617.168715764], [629448.6740937622, 5220617.1318555735], [629448.5775433606, 5220617.104533674], [629439.7967137047, 5220615.089470529], [629439.7005601828, 5220615.072298975], [629439.6031901044, 5220615.064589898], [629439.5055324149, 5220615.066416848], [629439.4085188044, 5220615.077762394], [629439.3130748175, 5220615.098518295], [629439.2201110247, 5220615.128486533], [629439.1305143342, 5220615.167381199], [629439.0451395307, 5220615.214831226], [629438.9648011208, 5220615.2703839205], [629438.8902655621, 5220615.333509292], [629438.8222439507, 5220615.403605101], [629438.7613852376, 5220615.480002608], [629438.7082700366, 5220615.561972953], [629438.6634050863, 5220615.6487341095], [629438.6272184144, 5220615.739458345], [629438.6000552549, 5220615.833280116], [629435.2488677297, 5220629.957565231], [629435.2306943154, 5220630.055759843], [629435.2224052147, 5220630.155277409], [629435.2240830901, 5220630.255125492], [629435.2357112092, 5220630.354308362], [629435.2571736112, 5220630.451836923], [629435.288256263, 5220630.546738576], [629435.3286491946, 5220630.638066918], [629435.377949589, 5220630.72491118], [629435.4356658005, 5220630.806405314], [629435.5012222565, 5220630.881736623], [629435.5739651984, 5220630.950153867], [629435.6531692004, 5220631.01097476], [629435.7380444042, 5220631.063592767], [629435.8277443957, 5220631.107483159], [629435.9213746458, 5220631.142208239], [629436.0180014308, 5220631.167421714], [629437.0386034389, 5220631.37993852], [629437.043832884, 5220631.389012186], [629437.1016296637, 5220631.46961848], [629437.1671273155, 5220631.544102707], [629437.239681484, 5220631.611732102], [629437.3185783924, 5220631.671841337], [629437.4030418657, 5220631.72383907], [629437.4922409652, 5220631.767213752], [629437.5852981646, 5220631.80153867], [629437.6812979816, 5220631.826476144], [629448.8230851886, 5220634.137686037], [629448.9209901883, 5220634.1529808985]]], [[[629442.4233673696, 5220650.158397606], [629442.3255934354, 5220650.16123285], [629442.2285642388, 5220650.1736068465], [629442.1332081336, 5220650.195401204], [629442.0404374662, 5220650.226407398], [629441.9511398461, 5220650.266328768], [629441.8661696533, 5220650.314783356], [629441.7863398638, 5220650.371307559], [629441.7124142718, 5220650.435360566], [629441.645100181, 5220650.506329531], [629441.585041638, 5220650.583535438], [629441.5328132695, 5220650.666239601], [629441.4889147854, 5220650.75365072], [629441.4537661967, 5220650.844932468], [629441.4277037974, 5220650.93921148], [629439.5736942161, 5220659.2], [629401.6, 5220659.2], [629350.4, 5220659.2], [629350.4, 5220710.4], [629350.4, 5220761.6], [629324.0372638783, 5220761.6], [629324.1631650857, 5220761.274562711], [629324.1940168552, 5220761.181492388], [629324.2156056954, 5220761.085848054], [629324.2277240528, 5220760.988549225], [629324.2302554228, 5220760.890531324], [629324.2231754687, 5220760.792736687], [629324.2065522568, 5220760.696105504], [629324.1805456013, 5220760.6015667785], [629324.1454055279, 5220760.510029399], [629324.1014698704, 5220760.422373396], [629324.0491610226, 5220760.33944149], [629323.9889818773, 5220760.262030979], [629323.921510992, 5220760.190886082], [629323.8473970258, 5220760.126690781], [629323.7673525045, 5220760.070062242], [629323.6821469695, 5220760.0215448905], [629323.5925995792, 5220759.981605166], [629314.646517921, 5220756.506680945], [629314.5533669097, 5220756.475668565], [629314.4576237778, 5220756.453939984], [629314.3602113817, 5220756.441704638], [629314.2620686678, 5220756.439080465], [629314.1641416218, 5220756.446092756], [629314.0673741505, 5220756.462673923], [629313.972698984, 5220756.48866414], [629313.8810286844, 5220756.523812892], [629313.793246851, 5220756.567781384], [629313.7101996018, 5220756.620145809], [629313.6326874195, 5220756.680401432], [629313.5614574346, 5220756.747967458], [629313.4971962239, 5220756.822192625], [629313.4405231939, 5220756.902361486], [629313.3919846087, 5220756.987701302], [629313.3520483259, 5220757.077389495], [629311.5988697618, 5220761.6], [629299.2, 5220761.6], [629299.2, 5220801.488277386], [629299.195210774, 5220801.491990651], [629299.1235676034, 5220801.559843867], [629299.0589604989, 5220801.634427544], [629299.0020185271, 5220801.715015475], [629298.9532961206, 5220801.800822991], [629298.9132676801, 5220801.891014602], [629298.4568281717, 5220803.073634352], [629297.110214518, 5220802.606895976], [629297.0169085179, 5220802.5795585085], [629296.9213887113, 5220802.561411517], [629296.8245580803, 5220802.552626549], [629296.7273319982, 5220802.553286653], [629296.630629577, 5220802.563385589], [629296.5353649782, 5220802.582827888], [629296.4424387712, 5220802.611429756], [629296.3527294195, 5220802.648920808], [629296.2670849768, 5220802.694946629], [629296.1863150696, 5220802.7490721205], [629296.1111832439, 5220802.810785617], [629296.0423997471, 5220802.879503717], [629295.980614813, 5220802.954576806], [629295.9264125165, 5220803.035295191], [629295.8803052504, 5220803.120895815], [629295.8427288828, 5220803.210569465], [629295.6934776367, 5220803.621774858], [629294.3036008796, 5220803.108029948], [629294.2078004172, 5220803.077992178], [629294.1094708238, 5220803.057711959], [629294.0096032609, 5220803.047393717], [629293.9092043935, 5220803.04714146], [629293.8092862417, 5220803.056957729], [629293.7108559799, 5220803.076743578], [629293.6149057851, 5220803.106299563], [629293.5224028346, 5220803.145327763], [629293.4342795579, 5220803.193434772], [629293.3514242374, 5220803.250135672], [629293.2746720542, 5220803.314858918], [629293.2047966702, 5220803.3869521], [629293.1425024291, 5220803.46568852], [629293.0884172563, 5220803.550274514], [629293.0430863304, 5220803.639857455], [629293.0069665867, 5220803.733534348], [629292.9856871621, 5220803.798225244], [629292.93329056, 5220803.7823034], [629292.8377267019, 5220803.763179474], [629292.7407551082, 5220803.753448823], [629292.6432968321, 5220803.75320387], [629292.5462775497, 5220803.762446942], [629292.450618767, 5220803.781090247], [629292.3572290678, 5220803.808956709], [629292.266995484, 5220803.845781646], [629292.1807750701, 5220803.891215287], [629292.0993867626, 5220803.944826097], [629292.0236036018, 5220804.006104871], [629291.9541453898, 5220804.074469572], [629291.8916718528, 5220804.1492708605], [629291.8367763752, 5220804.22979826], [629291.7899803641, 5220804.315286907], [629291.7517282963, 5220804.404924817], [629289.5344790933, 5220810.3935359605], [629289.5051213762, 5220810.48652087], [629289.4849593404, 5220810.581922973], [629289.4741846878, 5220810.67883518], [629289.4728998644, 5220810.776336042], [629289.4811170865, 5220810.873498515], [629289.4987582241, 5220810.969398771], [629289.525655544, 5220811.063124985], [629289.5615533048, 5220811.153786001], [629289.606110188, 5220811.240519807], [629289.6589025436, 5220811.322501732], [629289.7194284184, 5220811.398952288], [629289.7871123283, 5220811.469144575], [629289.8613107298, 5220811.532411203], [629289.9413181394, 5220811.588150627], [629290.0263738413, 5220811.635832872], [629290.11566912, 5220811.675004573], [629293.0630734467, 5220812.8], [629248.0, 5220812.8], [629248.0, 5220864.0], [629248.0, 5220915.2], [629248.0, 5220966.4], [629248.0, 5221017.6], [629251.6958914896, 5221017.6], [629266.9999441067, 5221017.6], [629288.0503240069, 5221017.6], [629299.2, 5221017.6], [629305.4834926289, 5221017.6], [629323.5312557346, 5221017.6], [629337.7737711391, 5221017.6], [629350.4, 5221017.6], [629350.4, 5221019.943867138], [629350.4, 5221027.568145231], [629350.4, 5221058.084028389], [629350.4, 5221064.7283504065], [629350.4, 5221068.8], [629372.7815839271, 5221068.8], [629390.2202468045, 5221068.8], [629401.6, 5221068.8], [629401.6, 5221071.7645839695], [629401.6, 5221085.205987273], [629401.6, 5221120.0], [629452.8, 5221120.0], [629452.8, 5221171.2], [629504.0, 5221171.2], [629555.2, 5221171.2], [629571.9589109456, 5221171.2], [629583.4134805744, 5221171.2], [629585.5541982115, 5221171.2], [629592.4881927246, 5221171.2], [629606.4, 5221171.2], [629606.4, 5221120.0], [629657.6, 5221120.0], [629657.6, 5221068.8], [629682.4128952959, 5221068.8], [629691.099557979, 5221068.8], [629708.8, 5221068.8], [629708.8, 5221021.0801891675], [629708.8, 5221017.6], [629712.1293988281, 5221017.6], [629729.9908835123, 5221017.6], [629741.863831869, 5221017.6], [629760.0, 5221017.6], [629760.0, 5221015.428111011], [629760.0, 5221004.49822599], [629760.0, 5220966.4], [629760.0, 5220965.845659291], [629760.0, 5220963.7057465315], [629760.0, 5220948.749116721], [629760.0, 5220944.950394693], [629760.0, 5220919.095774741], [629760.0, 5220915.2], [629762.9278555237, 5220915.2], [629811.2, 5220915.2], [629811.2, 5220864.0], [629862.4, 5220864.0], [629862.4, 5220812.8], [629893.7093862069, 5220812.8], [629906.4215703992, 5220812.8], [629913.6, 5220812.8], [629913.6, 5220761.6], [629934.5141109179, 5220761.6], [629952.5052137831, 5220761.6], [629964.8, 5220761.6], [629964.8, 5220750.383012003], [629964.8, 5220739.017346776], [629964.8, 5220710.4], [629964.8, 5220663.191348331], [629964.8, 5220659.2], [629969.9395383465, 5220659.2], [630016.0, 5220659.2], [630016.0, 5220608.0], [630018.0076415527, 5220608.0], [630022.8796547835, 5220608.0], [630024.596623607, 5220608.0], [630035.6762724436, 5220608.0], [630067.2, 5220608.0], [630067.2, 5220588.062450646], [630067.2, 5220576.259113692], [630067.2, 5220556.8], [630118.4, 5220556.8], [630118.4, 5220505.6], [630169.6, 5220505.6], [630169.6, 5220454.4], [630220.8, 5220454.4], [630220.8, 5220426.104708447], [630220.8, 5220410.117827253], [630220.8, 5220403.2], [630238.1084582569, 5220403.2], [630238.8770538504, 5220403.2], [630272.0, 5220403.2], [630272.0, 5220392.136468948], [630272.0, 5220383.242349302], [630272.0, 5220361.439379457], [630272.0, 5220358.869137211], [630272.0, 5220352.0], [630318.9406207358, 5220352.0], [630323.2, 5220352.0], [630323.2, 5220346.4098085305], [630323.2, 5220300.8], [630350.7603493333, 5220300.8], [630353.3842700616, 5220300.8], [630374.4, 5220300.8], [630374.4, 5220274.14172686], [630374.4, 5220258.92539719], [630374.4, 5220251.141495221], [630374.4, 5220249.6], [630374.4, 5220240.198911261], [630374.4, 5220198.4], [630404.8250884636, 5220198.4], [630414.6847862105, 5220198.4], [630425.6, 5220198.4], [630425.6, 5220147.2], [630476.8, 5220147.2], [630476.8, 5220101.451127209], [630476.8, 5220096.0], [630479.0690262708, 5220096.0], [630528.0, 5220096.0], [630528.0, 5220044.8], [630579.2, 5220044.8], [630579.2, 5219993.6], [630579.2, 5219942.4], [630579.2, 5219891.2], [630528.0, 5219891.2], [630476.8, 5219891.2], [630476.8, 5219868.003731738], [630476.8676500486, 5219867.956664969], [630476.9427420556, 5219867.892559441], [630477.0111463983, 5219867.821361308], [630477.0721962486, 5219867.743764633], [630477.1252964725, 5219867.660525854], [630477.1699294315, 5219867.572456408], [630478.191718193, 5219865.282420597], [630478.2274427342, 5219865.190397236], [630478.2539202523, 5219865.095300007], [630478.270892736, 5219864.998055589], [630478.2781947964, 5219864.899611586], [630478.2757552781, 5219864.800927288], [630478.2635979529, 5219864.702964329], [630478.2418412887, 5219864.606677313], [630478.2106972941, 5219864.513004513], [630478.1704694532, 5219864.422858727], [630477.064933889, 5219862.241661144], [630477.0171575169, 5219862.157717154], [630476.9615055096, 5219862.078773951], [630476.8984970539, 5219862.005568011], [630476.8287199668, 5219861.938782284], [630476.8, 5219861.916174643], [630476.8, 5219861.663919209], [630477.907380624, 5219859.196715716], [630477.9431248669, 5219859.105318919], [630477.9697383081, 5219859.010858609], [630477.9869646329, 5219858.914244535], [630477.994637934, 5219858.816407192], [630477.9926843098, 5219858.718288851], [630477.9811225758, 5219858.620834494], [630477.9600640831, 5219858.524982706], [630477.9297116467, 5219858.431656637], [630477.8903575917, 5219858.3417551145], [630477.842380938, 5219858.256143982], [630477.7862437499, 5219858.175647761], [630477.7224866862, 5219858.101041714], [630477.6517237928, 5219858.033044374], [630477.5746365887, 5219857.972310623], [630477.491967503, 5219857.919425392], [630477.4045127237, 5219857.874898018], [630476.8, 5219857.60359666], [630476.8, 5219840.0], [630476.8, 5219788.8], [630425.6, 5219788.8], [630425.6, 5219834.600053007], [630425.0452280565, 5219834.331866199], [630424.9539218361, 5219834.293187871], [630424.8592338632, 5219834.263742552], [630424.7620951894, 5219834.243819774], [630424.6634609638, 5219834.233615436], [630424.5643010407, 5219834.233229873], [630424.4655904437, 5219834.242666877], [630424.3682997783, 5219834.261833657], [630424.273385688, 5219834.290541747], [630424.2694882167, 5219834.2921571275], [630422.8094150216, 5219833.583024204], [630422.7192227275, 5219833.544563236], [630422.6256974011, 5219833.515119911], [630422.5297381857, 5219833.494977295], [630422.432267623, 5219833.484329037], [630422.3342227848, 5219833.483277508], [630422.2365462643, 5219833.491832817], [630422.140177113, 5219833.509912714], [630422.046041814, 5219833.537343381], [630421.9550453745, 5219833.573861103], [630421.8680626246, 5219833.619114801], [630421.7859298075, 5219833.672669412], [630421.7094365394, 5219833.734010067], [630421.6393182188, 5219833.802547043], [630421.5762489559, 5219833.877621434], [630421.5208350921, 5219833.95851148], [630421.4736093702, 5219834.044439515], [630420.337079061, 5219836.3764317185], [630420.2985298538, 5219836.466479107], [630420.2689753055, 5219836.559865949], [630420.2486989797, 5219836.655696237], [630420.237895419, 5219836.753050522], [630420.2366682789, 5219836.8509947285], [630420.2450293335, 5219836.948589126], [630420.2628983619, 5219837.0448973365], [630420.2901039184, 5219837.138995324], [630420.3263849772, 5219837.229980259], [630420.3713934373, 5219837.316979179], [630420.4246974613, 5219837.399157367], [630420.4857856202, 5219837.475726359], [630420.5540717989, 5219837.545951506], [630420.6289008209, 5219837.60915903], [630420.7095547334, 5219837.66474248], [630420.7952596963, 5219837.7121685585], [630422.0118381586, 5219838.3095166255], [630421.1922477334, 5219840.0], [630374.4, 5219840.0], [630323.2, 5219840.0], [630272.0, 5219840.0], [630220.8, 5219840.0], [630169.6, 5219840.0], [630169.6, 5219891.2], [630118.4, 5219891.2], [630067.2, 5219891.2], [630016.0, 5219891.2], [630016.0, 5219942.4], [629964.8, 5219942.4], [629964.8, 5219993.6], [629913.6, 5219993.6], [629913.6, 5220044.8], [629913.6, 5220065.428231433], [629913.5924359674, 5220065.42081325], [629904.5929829552, 5220057.418899755], [629904.5151841661, 5220057.356388625], [629904.4315419084, 5220057.301943554], [629904.3428892836, 5220057.25610683], [629904.2501092979, 5220057.219335003], [629904.1541260671, 5220057.191994329], [629904.0558956122, 5220057.17435713], [629903.9563963376, 5220057.166599077], [629903.856619285, 5220057.168797444], [629903.7575582631, 5220057.180930332], [629903.6601999488, 5220057.202876897], [629903.5655140594, 5220057.234418542], [629903.4744436941, 5220057.275241104], [629903.3878959405, 5220057.324937979], [629903.3067328393, 5220057.383014171], [629903.2317627991, 5220057.448891224], [629903.1637325436, 5220057.521912984], [629899.1355977956, 5220062.3032749565], [629899.0765254628, 5220062.380760712], [629899.0252743956, 5220062.463627538], [629898.98233115, 5220062.551088732], [629898.9481034111, 5220062.642313973], [629898.9229161231, 5220062.736437208], [629898.9070084034, 5220062.832564869], [629898.9005312732, 5220062.92978436], [629898.9035462239, 5220063.027172722], [629898.9160246325, 5220063.123805387], [629898.9378480345, 5220063.218764968], [629898.9688092475, 5220063.311149956], [629899.0086143386, 5220063.400083288], [629899.056885415, 5220063.484720667], [629899.113164211, 5220063.564258582], [629899.1769164396, 5220063.637941932], [629899.2475368632, 5220063.7050712], [629901.0335907274, 5220065.244347742], [629898.5924217575, 5220067.994628263], [629896.3822101813, 5220066.546926753], [629896.3004016327, 5220066.498730355], [629896.2143907628, 5220066.458510191], [629896.1249530051, 5220066.426628866], [629896.0328946887, 5220066.403373809], [629895.939045768, 5220066.388954675], [629895.8442523411, 5220066.38350146], [629895.7493690209, 5220066.387063328], [629895.6552512312, 5220066.399608167], [629895.5627474936, 5220066.421022879], [629895.4726917787, 5220066.451114398], [629895.3858959865, 5220066.489611435], [629895.3031426271, 5220066.536166917], [629895.2251777663, 5220066.590361121], [629895.1527042984, 5220066.651705459], [629895.0863756102, 5220066.719646879], [629891.0403672097, 5220071.278265401], [629890.9787771603, 5220071.35494468], [629890.9250174012, 5220071.437303252], [629890.8796079536, 5220071.524544458], [629890.8429880649, 5220071.615824411], [629890.815511961, 5220071.710260155], [629890.7974454195, 5220071.806938209], [629890.788963199, 5220071.904923401], [629890.7901473484, 5220072.003267917], [629890.8009864133, 5220072.101020466], [629890.8213755469, 5220072.197235481], [629890.8511175242, 5220072.290982272], [629890.8899246497, 5220072.381354021], [629890.9374215404, 5220072.467476558], [629890.9931487564, 5220072.5485168155], [629891.0565672461, 5220072.623690888], [629891.1270635594, 5220072.6922716135], [629900.1950192378, 5220080.684550093], [629900.271863504, 5220080.745839554], [629900.354353579, 5220080.799288846], [629900.4416924899, 5220080.844381571], [629900.5330364172, 5220080.88068207], [629900.627502847, 5220080.907839626], [629900.7241790978, 5220080.92559186], [629900.8221311376, 5220080.933767259], [629900.920412609, 5220080.932286837], [629901.0180739714, 5220080.921164896], [629901.1141716754, 5220080.900508891], [629901.2077772791, 5220080.870518389], [629901.2979864173, 5220080.831483141], [629901.3839275403, 5220080.783780282], [629901.4647703328, 5220080.727870693], [629901.5397337372, 5220080.66429454], [629901.6080934994, 5220080.59366606], [629913.6, 5220066.918471564], [629913.6, 5220096.0], [629862.4, 5220096.0], [629862.4, 5220147.2], [629811.2, 5220147.2], [629811.2, 5220198.4], [629760.0, 5220198.4], [629760.0, 5220249.6], [629708.8, 5220249.6], [629708.8, 5220300.8], [629657.6, 5220300.8], [629657.6, 5220321.525832117], [629650.35397982, 5220315.936933719], [629650.2730854611, 5220315.880670447], [629650.187046566, 5220315.832641689], [629650.0966985251, 5220315.793313778], [629650.0029185686, 5220315.763068567], [629649.9066172483, 5220315.742199721], [629649.8087295976, 5220315.730909863], [629649.7102060519, 5220315.729308613], [629649.6120032211, 5220315.737411518], [629649.5150746008, 5220315.755139902], [629649.420361315, 5220315.782321634], [629649.3287829779, 5220315.818692793], [629649.2412287651, 5220315.863900236], [629649.1585487799, 5220315.917505022], [629649.0815458, 5220315.978986679], [629649.010967482, 5220316.047748253], [629648.3502887064, 5220316.758151572], [629646.1924747862, 5220315.1758135], [629646.1117413351, 5220315.122420055], [629646.0262240514, 5220315.077081945], [629645.9367241248, 5220315.040223931], [629645.8440800577, 5220315.012191326], [629645.7491598092, 5220314.993246763], [629645.6528526635, 5220314.983567726], [629645.5560608981, 5220314.983244897], [629645.4596913309, 5220314.9922813], [629645.3646468243, 5220315.010592275], [629645.2718178265, 5220315.038006272], [629645.1820740291, 5220315.074266456], [629645.0962562194, 5220315.119033113], [629645.015168403, 5220315.171886837], [629644.9395702714, 5220315.232332453], [629644.8701700846, 5220315.299803663], [629644.8076180355, 5220315.373668345], [629638.4259447994, 5220323.694786305], [629638.3702598838, 5220323.775263184], [629638.3227079697, 5220323.8607977], [629638.2837444779, 5220323.950570659], [629638.2537425748, 5220324.043722276], [629638.2329895991, 5220324.1393604055], [629638.2216843087, 5220324.23656909], [629638.2199349784, 5220324.334417328], [629638.2277583621, 5220324.431967995], [629638.2450795324, 5220324.528286815], [629638.2717325989, 5220324.622451309], [629638.3074622961, 5220324.713559632], [629638.3519264285, 5220324.800739211], [629638.4046991481, 5220324.883155095], [629638.4652750329, 5220324.9600179605], [629638.5330739269, 5220325.030591666], [629638.6074464973, 5220325.094200303], [629648.8827516431, 5220333.0457945885], [629648.9631916105, 5220333.101958278], [629649.0487478703, 5220333.149969472], [629649.1385969479, 5220333.189366064], [629649.2318740508, 5220333.219768867], [629649.3276813916, 5220333.240885253], [629649.4250968297, 5220333.252511978], [629649.5231827463, 5220333.254537137], [629649.6209950696, 5220333.246941237], [629649.7175923613, 5220333.229797388], [629649.8120448772, 5220333.203270598], [629649.9034435168, 5220333.1676161885], [629649.9909085729, 5220333.123177328], [629650.0735981988, 5220333.07038174], [629650.1507165113, 5220333.00973758], [629650.2215212504, 5220332.941828543], [629650.2853309246, 5220332.8673082525], [629657.6, 5220323.423977724], [629657.6, 5220352.0], [629606.4, 5220352.0], [629606.4, 5220403.2], [629606.4, 5220454.4], [629555.2, 5220454.4], [629555.2, 5220469.001166336], [629548.5900450826, 5220463.77673715], [629548.510726915, 5220463.720099088], [629548.426271862, 5220463.671451521], [629548.3374821828, 5220463.631256564], [629548.2452013118, 5220463.599896038], [629548.1503058475, 5220463.577667844], [629548.0536972248, 5220463.564783134], [629547.9562931523, 5220463.5613643015], [629547.859018895, 5220463.567443824], [629547.7627984844, 5220463.582963951], [629547.6685459415, 5220463.607777252], [629547.577156594, 5220463.64164802], [629547.4894985715, 5220463.6842545075], [629547.4064045585, 5220463.735191986], [629547.3286638854, 5220463.793976588], [629547.2570150294, 5220463.860049905], [629547.1921386005, 5220463.93278429], [629540.4303110603, 5220472.3012794545], [629540.3717144759, 5220472.381672435], [629540.3213955683, 5220472.467489675], [629540.2798523231, 5220472.557881874], [629540.2474958767, 5220472.65195446], [629540.2246464478, 5220472.748776434], [629540.2115301676, 5220472.847389588], [629540.2082768428, 5220472.946817989], [629540.21491867, 5220473.046077634], [629540.231389918, 5220473.144186192], [629540.2575275775, 5220473.240172721], [629540.2930729745, 5220473.333087283], [629540.3376743312, 5220473.42201034], [629540.3908902459, 5220473.506061856], [629540.4521940626, 5220473.584410009], [629540.5209790824, 5220473.656279419], [629540.5965645683, 5220473.720958823], [629550.5137370755, 5220481.386618461], [629550.5934259293, 5220481.442246698], [629550.6781382725, 5220481.489876868], [629550.7670740123, 5220481.529059113], [629550.8593931674, 5220481.559423364], [629550.9542238006, 5220481.5806828365], [629551.0506702539, 5220481.592636738], [629551.1478216087, 5220481.595172168], [629551.2447602884, 5220481.588265178], [629551.3405707253, 5220481.5719810035], [629551.4343480075, 5220481.546473446], [629551.5252064262, 5220481.511983421], [629551.6122878402, 5220481.468836677], [629551.6947697821, 5220481.417440729], [629551.771873225, 5220481.358281003], [629551.8428699414, 5220481.29191625], [629551.9070893805, 5220481.218973274], [629555.2, 5220477.090419614], [629555.2, 5220505.6], [629504.0, 5220505.6], [629504.0, 5220556.8], [629504.0, 5220608.0], [629452.8, 5220608.0], [629452.8, 5220652.411871373], [629442.6174093568, 5220650.181360357], [629442.5209505615, 5220650.16512824], [629442.4233673696, 5220650.158397606]]], [[[629640.5309305523, 5220339.327994288], [629640.4781430244, 5220339.244973695], [629640.4174531479, 5220339.167541913], [629640.349448337, 5220339.096448399], [629640.2747868062, 5220339.0323812645], [629631.2087724205, 5220331.996672332], [629631.1283131023, 5220331.9403374335], [629631.0427153112, 5220331.892167516], [629630.9528048368, 5220331.852627292], [629630.8594490744, 5220331.822098218], [629630.7635486571, 5220331.800874818], [629630.6660287672, 5220331.78916184], [629630.5678302108, 5220331.787072285], [629630.4699003408, 5220331.7946263105], [629630.3731839182, 5220331.81175104], [629630.2786139979, 5220331.838281266], [629630.187102926, 5220331.873961043], [629630.0995335396, 5220331.918446156], [629630.0167506489, 5220331.971307443], [629629.9395528869, 5220332.032034936], [629629.8686850056, 5220332.100042774], [629629.8048306903, 5220332.174674867], [629622.6049317205, 5220341.478522176], [629622.5488120372, 5220341.558891137], [629622.5008305412, 5220341.644368415], [629622.4614482672, 5220341.73413269], [629622.4310436229, 5220341.827321459], [629622.4099087543, 5220341.923039305], [629622.3982467375, 5220342.020366517], [629622.3961696281, 5220342.118367918], [629622.4036973842, 5220342.21610185], [629622.4207576746, 5220342.312629232], [629622.4471865741, 5220342.407022569], [629622.4827301382, 5220342.498374876], [629622.5270468434, 5220342.585808384], [629622.5797108688, 5220342.6684829835], [629622.6402161872, 5220342.745604285], [629622.7079814281, 5220342.816431264], [629622.7823554634, 5220342.8802833725], [629631.7959989564, 5220349.881483005], [629631.8761758271, 5220349.937689153], [629631.9614652097, 5220349.985784711], [629632.0510493956, 5220350.025308567], [629632.1440694997, 5220350.055881787], [629632.2396336955, 5220350.0772112515], [629632.3368257646, 5220350.089092465], [629632.4347138822, 5220350.091411517], [629632.5323595495, 5220350.084146174], [629632.6288265925, 5220350.067366091], [629632.723190137, 5220350.041232146], [629632.8145454762, 5220350.0059949], [629632.9020167445, 5220349.9619921865], [629632.9847653141, 5220349.909645881], [629633.0619978367, 5220349.84945785], [629633.1329738481, 5220349.782005145], [629633.197012869, 5220349.707934467], [629640.4492827313, 5220340.438596457], [629640.5060208956, 5220340.358224058], [629640.5545868834, 5220340.272665382], [629640.5945106271, 5220340.182748551], [629640.6254057072, 5220340.089343862], [629640.6469730919, 5220339.993355374], [629640.6590040319, 5220339.895712153], [629640.6613820802, 5220339.797359284], [629640.65408422, 5220339.699248718], [629640.6371810868, 5220339.602330062], [629640.6108362849, 5220339.507541384], [629640.5753048045, 5220339.41580014], [629640.5309305523, 5220339.327994288]]], [[[629578.96119806, 5220400.76267167], [629579.0018378502, 5220400.852879866], [629579.0511929923, 5220400.938630559], [629579.1087803429, 5220401.019084322], [629579.1740361731, 5220401.093453589], [629579.2463216867, 5220401.161010348], [629585.4526010155, 5220406.410869887], [629585.5315872935, 5220406.471213509], [629585.6161740627, 5220406.523417564], [629585.70552559, 5220406.566966266], [629585.7987590657, 5220406.601429347], [629585.894953326, 5220406.626466303], [629585.9931579536, 5220406.641829765], [629586.0924026688, 5220406.647367941], [629586.1917069154, 5220406.643026111], [629586.2900895491, 5220406.628847173], [629586.3865785314, 5220406.604971219], [629586.480220533, 5220406.571634146], [629586.5700903538, 5220406.529165332], [629586.6553000635, 5220406.477984376], [629586.7350077742, 5220406.418596956], [629586.8084259591, 5220406.351589829], [629586.8748292327, 5220406.277625039], [629592.8249114231, 5220398.947625578], [629592.883350148, 5220398.867879366], [629592.9336286935, 5220398.782752338], [629592.9752556102, 5220398.693076572], [629593.0078240139, 5220398.59972861], [629593.0310155634, 5220398.503620883], [629593.0446035719, 5220398.405692803], [629593.0484552227, 5220398.3069015695], [629593.042532868, 5220398.208212823], [629593.0268943957, 5220398.1105912], [629593.0016926649, 5220398.014990908], [629592.9671740112, 5220397.922346396], [629592.9236758384, 5220397.833563223], [629592.8716233213, 5220397.749509201], [629592.8115252495, 5220397.671005922], [629592.7439690542, 5220397.59882072], [629592.6696150663, 5220397.53365917], [629586.5382623052, 5220392.674555383], [629586.460807271, 5220392.6189707145], [629586.3784110371, 5220392.571014503], [629586.291822498, 5220392.531122617], [629586.2018286515, 5220392.499657634], [629586.109247446, 5220392.476905534], [629586.0149203463, 5220392.463073112], [629585.9197046857, 5220392.458286089], [629585.8244658731, 5220392.462587975], [629585.7300695283, 5220392.475939669], [629585.6373736139, 5220392.498219818], [629585.5472206371, 5220392.529225921], [629585.4604299928, 5220392.568676164], [629585.3777905157, 5220392.616211987], [629585.3000533108, 5220392.67140134], [629585.2279249268, 5220392.733742609], [629585.162060934, 5220392.802669179], [629579.1370521758, 5220399.741912888], [629579.0759610842, 5220399.819739553], [629579.0228597438, 5220399.903222239], [629578.9782679692, 5220399.991543724], [629578.9426222745, 5220400.083839421], [629578.9162715992, 5220400.179205836], [629578.8994738932, 5220400.276709417], [629578.8923935909, 5220400.37539569], [629578.8951000023, 5220400.474298604], [629578.9075666339, 5220400.572449989], [629578.9296714487, 5220400.668889028], [629578.96119806, 5220400.76267167]]], [[[629574.2505323588, 5220426.297919721], [629574.3390076652, 5220426.254185931], [629574.4227410653, 5220426.201943783], [629574.500916952, 5220426.141702145], [629574.5727738511, 5220426.074047801], [629574.6376118389, 5220425.999639739], [629582.1223414562, 5220416.50184314], [629582.1789616913, 5220416.422292734], [629582.2275537518, 5220416.337599581], [629582.2676543549, 5220416.248571159], [629582.2988811771, 5220416.156056275], [629582.320936498, 5220416.060936975], [629582.3336100396, 5220415.964120139], [629582.3367809708, 5220415.8665288305], [629582.3304190595, 5220415.769093496], [629582.3145849612, 5220415.672743096], [629582.2894296397, 5220415.578396246], [629582.2551929291, 5220415.486952459], [629582.2122012462, 5220415.399283574], [629582.1608644786, 5220415.316225435], [629582.1016720773, 5220415.2385699265], [629582.0351883896, 5220415.167057427], [629581.9620472788, 5220415.102369744], [629572.386350163, 5220407.433008852], [629572.3065066852, 5220407.375279399], [629572.2213697211, 5220407.325687381], [629572.1317657524, 5220407.284714224], [629572.0385646251, 5220407.25275768], [629571.9426711049, 5220407.2301279735], [629571.8450160946, 5220407.217044787], [629571.746547597, 5220407.213635125], [629571.6482215116, 5220407.2199320905], [629571.550992356, 5220407.235874552], [629571.4558039985, 5220407.261307748], [629571.3635804966, 5220407.2959847795], [629571.2752171255, 5220407.339569014], [629571.1915716879, 5220407.3916373495], [629571.1134561861, 5220407.451684325], [629571.0416289397, 5220407.5191270225], [629570.9767872237, 5220407.593310731], [629563.4849656224, 5220417.068728398], [629563.4281990639, 5220417.148216432], [629563.379458189, 5220417.232863445], [629563.3392080243, 5220417.321861838], [629563.3078325883, 5220417.414362496], [629563.2856312274, 5220417.509482889], [629563.27281576, 5220417.6063154945], [629563.269508456, 5220417.703936453], [629563.2757408695, 5220417.801414383], [629563.2914535383, 5220417.897819267], [629563.3164965514, 5220417.992231327], [629563.3506309784, 5220418.083749799], [629563.3935311501, 5220418.171501522], [629563.4447877648, 5220418.254649277], [629563.5039117942, 5220418.332399768], [629563.570339148, 5220418.404011195], [629563.6434360574, 5220418.468800326], [629573.226225157, 5220426.1605401505], [629573.306147074, 5220426.218445344], [629573.3913876886, 5220426.268190312], [629573.4811167123, 5220426.309290513], [629573.5744601374, 5220426.341345611], [629573.67050875, 5220426.36404337], [629573.7683269863, 5220426.377162702], [629573.8669620454, 5220426.380575821], [629573.9654531701, 5220426.374249478], [629574.0628410052, 5220426.3582452955], [629574.1581769421, 5220426.332719164], [629574.2505323588, 5220426.297919721]]], [[[629559.12122614, 5220445.756090878], [629559.207375709, 5220445.713412748], [629559.2890287382, 5220445.662658893], [629559.3654304947, 5220445.604298438], [629559.435874784, 5220445.538870821], [629559.4997104775, 5220445.466980799], [629566.4337975135, 5220436.857676284], [629566.4918618684, 5220436.777812465], [629566.5417669861, 5220436.692611654], [629566.5830263068, 5220436.602904535], [629566.6152375645, 5220436.509565723], [629566.6380867092, 5220436.413505244], [629566.6513509686, 5220436.31565966], [629566.6549010202, 5220436.216982936], [629566.648702252, 5220436.118437137], [629566.6328151001, 5220436.02098306], [629566.6073944595, 5220435.925570849], [629566.5726881739, 5220435.833130746], [629566.5290346189, 5220435.744564014], [629566.4768594037, 5220435.6607341515], [629566.4166712209, 5220435.582458475], [629566.3490568871, 5220435.510500148], [629566.2746756218, 5220435.445560743], [629555.1525344456, 5220426.663999563], [629555.0722939951, 5220426.606829144], [629554.9868171689, 5220426.557832217], [629554.8969336897, 5220426.517484394], [629554.803516055, 5220426.48617733], [629554.7074710688, 5220426.464214923], [629554.6097310383, 5220426.451810362], [629554.5112447247, 5220426.4490840575], [629554.4129681335, 5220426.456062474], [629554.3158552339, 5220426.4726778725], [629554.2208487, 5220426.498768967], [629554.1288707586, 5220426.534082491], [629554.0408142385, 5220426.578275657], [629553.9575339031, 5220426.6309194835], [629553.8798381536, 5220426.691502957], [629553.8084811815, 5220426.759437993], [629553.744155648, 5220426.83406515], [629546.7567974279, 5220435.797988651], [629546.6998009646, 5220435.879101], [629546.65111579, 5220435.965458186], [629546.6112203727, 5220436.056211509], [629546.5805067973, 5220436.150469061], [629546.5592769111, 5220436.247304498], [629546.5477393572, 5220436.345766138], [629546.5460075246, 5220436.444886321], [629546.5540984333, 5220436.5436909115], [629546.5719325676, 5220436.641208877], [629546.5993346568, 5220436.73648183], [629546.6360353986, 5220436.828573444], [629546.6816741049, 5220436.916578662], [629546.7358022472, 5220436.999632584], [629546.7978878645, 5220437.076918974], [629546.8673207911, 5220437.147678274], [629546.9434186536, 5220437.211215076], [629558.1188310139, 5220445.638157269], [629558.1982880417, 5220445.69228445], [629558.2825756998, 5220445.738531198], [629558.3709149029, 5220445.7764700465], [629558.4624891164, 5220445.80575032], [629558.5564519042, 5220445.826101376], [629558.6519347525, 5220445.837335107], [629558.7480550967, 5220445.839347676], [629558.84392448, 5220445.832120483], [629558.9386567655, 5220445.815720327], [629559.0313763265, 5220445.790298801], [629559.12122614, 5220445.756090878]]], [[[629819.6962759142, 5220071.5479268795], [629819.7874254168, 5220071.512016221], [629819.8746236153, 5220071.467358844], [629819.9570335983, 5220071.41438336], [629820.0338644107, 5220071.353598219], [629820.1043786451, 5220071.285586824], [629820.1678995194, 5220071.2110019345], [629827.7911527654, 5220061.316277612], [629827.8472476939, 5220061.2355515575], [629827.895145627, 5220061.149707951], [629827.9343837107, 5220061.059576327], [629827.9645827744, 5220060.966027658], [629827.9854509942, 5220060.869965937], [629827.9967867136, 5220060.772319441], [629827.9984803916, 5220060.67403176], [629827.9905156617, 5220060.57605268], [629827.9729694898, 5220060.479329009], [629827.9460114302, 5220060.384795417], [629827.9099019881, 5220060.293365416], [629827.864990101, 5220060.205922525], [629827.8117097676, 5220060.123311733], [629827.7505758537, 5220060.046331337], [629827.682179117, 5220059.975725223], [629827.6071804983, 5220059.912175683], [629817.0015127442, 5220051.786286333], [629816.9209208904, 5220051.730583731], [629816.8352652407, 5220051.683034426], [629816.7453679031, 5220051.644094787], [629816.6520916966, 5220051.614138551], [629816.5563318703, 5220051.593453233], [629816.4590075101, 5220051.582237366], [629816.3610527185, 5220051.580598598], [629816.2634076485, 5220051.588552659], [629816.1670094809, 5220051.606023206], [629816.0727834282, 5220051.63284256], [629815.981633856, 5220051.668753315], [629815.894435602, 5220051.713410802], [629815.81202558, 5220051.76638641], [629815.735194747, 5220051.827171687], [629815.6646805122, 5220051.895183226], [629815.6011596586, 5220051.969768264], [629807.9779150642, 5220061.864505962], [629807.9218202594, 5220061.945232041], [629807.8739224474, 5220062.031075658], [629807.8346844807, 5220062.121207278], [629807.8044855284, 5220062.21475593], [629807.783617413, 5220062.310817623], [629807.7722817898, 5220062.408464081], [629807.7705881988, 5220062.506751713], [629807.7785530057, 5220062.6047307355], [629807.7960992437, 5220062.701454345], [629807.8230573582, 5220062.795987869], [629807.8591668437, 5220062.887417798], [629807.9040787626, 5220062.974860617], [629807.9573591164, 5220063.057471336], [629808.0184930396, 5220063.134451661], [629808.0868897752, 5220063.205057706], [629808.1618883831, 5220063.2686071815], [629818.7675474857, 5220071.394483157], [629818.8481392764, 5220071.450185674], [629818.9337948505, 5220071.49773491], [629819.0236921022, 5220071.536674495], [629819.1169682149, 5220071.566630696], [629819.2127279425, 5220071.587315998], [629819.3100522017, 5220071.598531868], [629819.4080068929, 5220071.600170658], [629819.5056518659, 5220071.59221664], [629819.6020499431, 5220071.574746154], [629819.6962759142, 5220071.5479268795]]], [[[629805.218417502, 5220133.406881865], [629805.2728774094, 5220133.490392935], [629805.3353823079, 5220133.568066085], [629805.4053109001, 5220133.639129243], [629805.481968097, 5220133.702876043], [629805.564591928, 5220133.758672844], [629816.3942985187, 5220140.310722131], [629816.4821789699, 5220140.35806728], [629816.5743417992, 5220140.396415027], [629816.6698686467, 5220140.425383255], [629816.7678076314, 5220140.44468331], [629816.8671828369, 5220140.454122874], [629816.967004035, 5220140.453607887], [629817.066276554, 5220140.44314348], [629817.1640111891, 5220140.422833928], [629817.25923406, 5220140.392881604], [629817.3509963147, 5220140.35358497], [629817.4383835851, 5220140.3053356], [629817.5205250973, 5220140.248614274], [629817.5966023493, 5220140.183986195], [629817.6658572665, 5220140.112095352], [629817.7275997557, 5220140.033658105], [629817.7812145816, 5220139.949456043], [629823.4638376328, 5220129.956648158], [629823.5093870409, 5220129.866171817], [629823.5455497074, 5220129.771551638], [629823.5719545779, 5220129.673758491], [629823.5883307194, 5220129.573795804], [629823.5945101008, 5220129.472689265], [629823.5904293173, 5220129.371476302], [629823.5761302408, 5220129.271195429], [629823.5517595899, 5220129.172875604], [629823.517567425, 5220129.077525656], [629823.4739045823, 5220128.986123943], [629823.4212190738, 5220128.899608314], [629823.3600514906, 5220128.818866482], [629823.2910294558, 5220128.744726914], [629823.2148611853, 5220128.677950336], [629823.13232822, 5220128.619221923], [629817.2203141052, 5220124.848271424], [629817.6646567346, 5220124.143470971], [629817.7128460581, 5220124.058010275], [629817.7524289244, 5220123.968238684], [629817.7830243192, 5220123.8750203205], [629817.8043377391, 5220123.779252478], [629817.8161640265, 5220123.681856993], [629817.8183893446, 5220123.583771369], [629817.8109922733, 5220123.485939754], [629817.7940440146, 5220123.389303849], [629817.7677077083, 5220123.294793847], [629817.7322368608, 5220123.203319476], [629817.6879729052, 5220123.115761245], [629817.6353419151, 5220123.0329619665], [629817.5748505027, 5220122.955718646], [629817.5070809425, 5220122.884774807], [629817.4326855672, 5220122.820813336], [629817.3523804871, 5220122.764449911], [629813.9391135556, 5220120.61067866], [629813.8539988527, 5220120.562619889], [629813.7645988403, 5220120.523100326], [629813.6717676604, 5220120.492497546], [629813.5763922369, 5220120.471103934], [629813.4793838015, 5220120.459123885], [629813.381669188, 5220120.456671863], [629813.2841819775, 5220120.463771291], [629813.1878535781, 5220120.480354342], [629813.0936043267, 5220120.506262577], [629813.0023346954, 5220120.541248468], [629812.9149166888, 5220120.584977751], [629812.8321855122, 5220120.63703263], [629812.7549315924, 5220120.696915766], [629812.6838930256, 5220120.764055026], [629812.6197485256, 5220120.837808949], [629812.5631109389, 5220120.917472879], [629805.239874541, 5220132.364160039], [629805.1903982629, 5220132.450716832], [629805.1497868173, 5220132.541770063], [629805.1184438807, 5220132.636414666], [629805.0966810016, 5220132.733709874], [629805.0847145024, 5220132.832688575], [629805.0826633301, 5220132.9323669225], [629805.090547873, 5220133.031754117], [629805.1082897593, 5220133.129862251], [629805.1357126347, 5220133.225716131], [629805.1725439163, 5220133.318362972], [629805.218417502, 5220133.406881865]]], [[[629799.3639335873, 5220159.197185453], [629799.450035508, 5220159.153469427], [629799.5315195173, 5220159.101652557], [629799.6076258068, 5220159.042218017], [629799.6776447135, 5220158.975720014], [629799.7409233372, 5220158.902778616], [629806.899006718, 5220149.798332613], [629806.9565142218, 5220149.71718588], [629807.0056765857, 5220149.630727987], [629807.0460074997, 5220149.539814168], [629807.0771080144, 5220149.445343732], [629807.0986704864, 5220149.348251172], [629807.1104816217, 5220149.24949692], [629807.1124245859, 5220149.150057842], [629807.104480159, 5220149.050917582], [629807.086726927, 5220148.953056823], [629807.0593405027, 5220148.857443597], [629807.0225917904, 5220148.7650237], [629806.9768443046, 5220148.67671134], [629806.9225505753, 5220148.593380096], [629806.8602476709, 5220148.515854273], [629806.7905518857, 5220148.444900747], [629806.7141526437, 5220148.381221386], [629796.7923324083, 5220140.91516858], [629796.7122086434, 5220140.860746864], [629796.6271957079, 5220140.814331978], [629796.5380911541, 5220140.776359364], [629796.4457309201, 5220140.747185266], [629796.3509814873, 5220140.727083379], [629796.2547317513, 5220140.716242292], [629796.1578846829, 5220140.714763709], [629796.0613488569, 5220140.7226615045], [629795.9660299281, 5220140.7398615815], [629795.8728221349, 5220140.766202578], [629795.7825999099, 5220140.801437377], [629795.6962096768, 5220140.8452354185], [629795.6144619089, 5220140.897185811], [629795.5381235264, 5220140.95680118], [629795.4679107008, 5220141.023522241], [629795.4044821368, 5220141.096723048], [629788.2226781825, 5220150.245132733], [629788.1651213525, 5220150.326492896], [629788.115948699, 5220150.413178045], [629788.0756486178, 5220150.504327199], [629788.0446213802, 5220150.599035041], [629788.0231751566, 5220150.696360908], [629788.0115229568, 5220150.795338133], [629788.0097805134, 5220150.894983649], [629788.017965133, 5220150.994307749], [629788.0359955236, 5220151.092323921], [629788.0636926027, 5220151.188058641], [629788.1007812755, 5220151.280561048], [629788.1468931675, 5220151.368912382], [629788.2015702833, 5220151.452235116], [629788.2642695551, 5220151.529701664], [629788.3343682372, 5220151.6005426105], [629788.4111700908, 5220151.664054343], [629798.3567108997, 5220159.086143467], [629798.4367986431, 5220159.140093305], [629798.5217165357, 5220159.186067029], [629798.6106727493, 5220159.22363595], [629798.7028378005, 5220159.252449751], [629798.7973522836, 5220159.272239753], [629798.8933348862, 5220159.282821424], [629798.9898906057, 5220159.284096093], [629799.0861190956, 5220159.276051872], [629799.1811230608, 5220159.258763774], [629799.2740166241, 5220159.232393001], [629799.3639335873, 5220159.197185453]]], [[[629726.0681928851, 5220239.358857049], [629726.1532058184, 5220239.3115145005], [629726.2332150061, 5220239.256133587], [629726.3074628797, 5220239.193238683], [629726.3752464222, 5220239.12342531], [629733.5501367793, 5220230.975399883], [629733.6111650957, 5220230.898842004], [629733.6644144355, 5220230.816683182], [629733.7093743737, 5220230.729710955], [629733.7456139438, 5220230.638759002], [629733.7727857692, 5220230.544699147], [629733.7906293925, 5220230.448433009], [629733.7989737727, 5220230.350883353], [629733.7977389239, 5220230.252985245], [629733.7869366831, 5220230.155677096], [629733.7666705957, 5220230.059891659], [629733.7371349238, 5220229.966547091], [629733.6986127832, 5220229.876538153], [629733.6514734306, 5220229.79072763], [629733.5961687231, 5220229.709938067], [629733.5332287877, 5220229.634943875], [629733.4632569392, 5220229.566463917], [629720.9349778866, 5220218.452439599], [629720.8575989557, 5220218.390372421], [629720.7744514886, 5220218.336276837], [629720.6863536424, 5220218.290685138], [629720.5941722848, 5220218.254045939], [629720.4988144656, 5220218.226719765], [629720.4012184894, 5220218.2089754995], [629720.3023446846, 5220218.200987743], [629720.2031659529, 5220218.202835094], [629720.1046581967, 5220218.214499376], [629720.0077907156, 5220218.235865813], [629719.9135166697, 5220218.266724164], [629719.8227636997, 5220218.306770786], [629719.7364248, 5220218.355611629], [629719.6553495309, 5220218.4127661055], [629719.5803356596, 5220218.477671827], [629719.5121213098, 5220218.54969013], [629712.2621647574, 5220227.007387419], [629712.2020306325, 5220227.084937535], [629712.1497871352, 5220227.16800829], [629712.1059373775, 5220227.255799703], [629712.0709036384, 5220227.347466331], [629712.0450232974, 5220227.442125411], [629712.0285455858, 5220227.538865363], [629712.021629186, 5220227.6367545705], [629712.024340704, 5220227.734850345], [629712.0366540273, 5220227.832208013], [629712.0584505771, 5220227.927890006], [629712.0895204498, 5220228.020974895], [629712.1295644382, 5220228.110566258], [629712.1781969134, 5220228.1958013205], [629712.2349495384, 5220228.275859255], [629712.2992757775, 5220228.349969096], [629712.3705561608, 5220228.417417153], [629724.9739014087, 5220239.221769608], [629725.0507713258, 5220239.281431417], [629725.1330759159, 5220239.333339703], [629725.220035876, 5220239.377002972], [629725.3108278249, 5220239.412007797], [629725.4045920973, 5220239.438022734], [629725.5004408847, 5220239.45480146], [629725.5974666416, 5220239.462185105], [629725.6947506778, 5220239.460103759], [629725.791371858, 5220239.448577127], [629725.8864153231, 5220239.427714351], [629725.9789811525, 5220239.397712968], [629726.0681928851, 5220239.358857049]]], [[[629896.9038708064, 5220021.586110317], [629896.9973409021, 5220021.549365683], [629897.0866538642, 5220021.503430712], [629897.1709088088, 5220021.4487687405], [629897.2492558706, 5220021.385931134], [629897.3209047762, 5220021.315551725], [629902.5682121924, 5220015.615880988], [629902.6312405906, 5220015.540265477], [629902.686529095, 5220015.458819387], [629902.7335419448, 5220015.372331951], [629902.7718235719, 5220015.28164126], [629902.8010030164, 5220015.187626131], [629902.8207975214, 5220015.091197598], [629902.8310152723, 5220014.993290081], [629902.8315572563, 5220014.89485233], [629902.8224182214, 5220014.796838237], [629902.8036867273, 5220014.700197585], [629902.7755442879, 5220014.60586685], [629902.738263611, 5220014.5147601245], [629902.6922059571, 5220014.427760256], [629902.6378176382, 5220014.345710301], [629902.5756256923, 5220014.269405345], [629902.5062327773, 5220014.199584805], [629895.6463770953, 5220007.94559704], [629895.5695024732, 5220007.882227584], [629895.4867039312, 5220007.826821837], [629895.3988032775, 5220007.779929721], [629895.306672961, 5220007.74201666], [629895.2112274112, 5220007.713458956], [629895.1134139631, 5220007.694540056], [629895.0142034539, 5220007.685447737], [629894.9145805871, 5220007.686272243], [629894.815534159, 5220007.697005392], [629894.7180472445, 5220007.7175406525], [629894.6230874399, 5220007.747674204], [629894.5315972588, 5220007.787106959], [629894.4444847773, 5220007.835447532], [629894.3626146214, 5220007.892216124], [629894.2867993846, 5220007.956849283], [629894.2177915631, 5220008.0287055], [629889.3832489597, 5220013.592892769], [629889.3213401859, 5220013.6718152175], [629889.2676493519, 5220013.756542684], [629889.2227166649, 5220013.846222686], [629889.1869942131, 5220013.939952913], [629889.1608414162, 5220014.036790304], [629889.1445214091, 5220014.135760535], [629889.1381983947, 5220014.235867821], [629889.1419359918, 5220014.336104937], [629889.1556965947, 5220014.435463353], [629889.1793417518, 5220014.53294338], [629889.2126335585, 5220014.627564227], [629889.2552370512, 5220014.718373872], [629889.3067235767, 5220014.804458638], [629889.3665751063, 5220014.884952386], [629889.4341894466, 5220014.959045234], [629895.8812803159, 5220021.348516469], [629895.9560755544, 5220021.415542576], [629896.0372167228, 5220021.474728197], [629896.1238853644, 5220021.525476334], [629896.2152072673, 5220021.5672751], [629896.3102612835, 5220021.59970288], [629896.4080886195, 5220021.622432577], [629896.5077025079, 5220021.635234925], [629896.6080981607, 5220021.637980785], [629896.7082629043, 5220021.630642462], [629896.8071863942, 5220021.613293976], [629896.9038708064, 5220021.586110317]]], [[[629828.1957797485, 5220103.831840391], [629828.2430955663, 5220103.916879024], [629828.2984531315, 5220103.996915864], [629828.3613281881, 5220104.071192932], [629828.4311252871, 5220104.1390068], [629828.5071834251, 5220104.1997152455], [629838.9810352832, 5220111.755735703], [629839.0642096347, 5220111.809679901], [629839.1523165087, 5220111.85512358], [629839.2444899951, 5220111.891620125], [629839.3398242175, 5220111.918810845], [629839.4373822361, 5220111.936428514], [629839.5362052558, 5220111.944299987], [629839.6353220487, 5220111.942347901], [629839.7337585001, 5220111.930591443], [629839.8305471815, 5220111.909146153], [629839.9247368588, 5220111.878222797], [629840.0154018404, 5220111.838125287], [629840.1016510758, 5220111.789247697], [629840.1826369115, 5220111.732070398], [629840.257563423, 5220111.667155321], [629840.3256942363, 5220111.595140451], [629840.3863597655, 5220111.516733545], [629843.0971738615, 5220107.629265195], [629843.1495296962, 5220107.545680537], [629843.1933971077, 5220107.457344935], [629843.2283493741, 5220107.365117676], [629843.2540464966, 5220107.269895901], [629843.2702385054, 5220107.172605885], [629843.2767678924, 5220107.074194018], [629843.2735711429, 5220106.975617605], [629843.2606793533, 5220106.877835551], [629843.2382179287, 5220106.781799032], [629843.2064053633, 5220106.688442249], [629843.165551115, 5220106.59867333], [629843.1160525943, 5220106.513365506], [629843.0583912997, 5220106.433348611], [629842.9931281329, 5220106.359401012], [629842.9208979434, 5220106.292242035], [629842.8424033524, 5220106.232524972], [629841.9112085883, 5220105.594051133], [629845.0267095236, 5220100.879809726], [629845.0760189309, 5220100.796732894], [629845.1170816829, 5220100.709285608], [629845.1495145337, 5220100.618284026], [629845.1730147817, 5220100.5245774845], [629845.1873630949, 5220100.429040562], [629845.1924255579, 5220100.332564923], [629845.1881549218, 5220100.23605099], [629845.1745910454, 5220100.140399545], [629845.1518605225, 5220100.046503321], [629845.1201755013, 5220099.955238667], [629845.0798317038, 5220099.867457374], [629845.0312056656, 5220099.783978717], [629844.9747512223, 5220099.705581821], [629844.9109952732, 5220099.632998375], [629844.8405328637, 5220099.566905816], [629844.7640216324, 5220099.507920995], [629836.0635195675, 5220093.44716409], [629835.9805248625, 5220093.395193252], [629835.8928449961, 5220093.351589006], [629835.8013207384, 5220093.316769481], [629835.7068297236, 5220093.291068561], [629835.6102780345, 5220093.274732697], [629835.5125915138, 5220093.267918533], [629835.4147068864, 5220093.270691412], [629835.3175627766, 5220093.283024743], [629835.2220907081, 5220093.304800264], [629835.1292061708, 5220093.335809163], [629835.039799843, 5220093.375754097], [629834.9547290498, 5220093.424252027], [629834.8748095428, 5220093.480837905], [629834.8008076772, 5220093.544969122], [629834.7334330634, 5220093.616030719], [629834.6733317625, 5220093.693341279], [629828.2736448689, 5220102.814362562], [629828.2216926458, 5220102.896650607], [629828.1779848632, 5220102.983598784], [629828.1429354494, 5220103.074383662], [629828.1168763349, 5220103.168145479], [629828.1000543088, 5220103.263996275], [629828.0926286815, 5220103.36102831], [629828.0946697765, 5220103.458322655], [629828.1061582639, 5220103.554957899], [629828.1269853435, 5220103.650018872], [629828.1569537757, 5220103.742605311], [629828.1957797485, 5220103.831840391]]], [[[630013.1560972072, 5219863.557534527], [630013.2042024159, 5219863.644141433], [630013.2606411654, 5219863.725563387], [630013.324859517, 5219863.801001246], [630013.3962271761, 5219863.869714595], [630023.9034773887, 5219873.027753756], [630023.9814751998, 5219873.0891969865], [630024.0651818301, 5219873.142602315], [630024.153772022, 5219873.187443223], [630024.246372371, 5219873.223277627], [630024.3420699369, 5219873.2497522365], [630024.4399212443, 5219873.266606042], [630024.5389615839, 5219873.2736728825], [630024.6382145241, 5219873.270883086], [630024.7367015372, 5219873.258264157], [630024.8334516466, 5219873.235940506], [630024.9275110001, 5219873.204132219], [630025.0179522729, 5219873.163152891], [630025.1038838112, 5219873.113406536], [630025.1844584218, 5219873.055383599], [630025.2588817254, 5219872.989656124], [630025.3264199882, 5219872.916872114], [630032.3007536981, 5219864.6091303155], [630032.3588694932, 5219864.532738974], [630032.409393617, 5219864.4511277275], [630032.4518605861, 5219864.365048466], [630032.4858791489, 5219864.275294246], [630032.5111358898, 5219864.18269198], [630032.5273981162, 5219864.08809482], [630032.5345160029, 5219863.992374299], [630032.532423972, 5219863.896412295], [630032.521141298, 5219863.801092917], [630032.5007719287, 5219863.707294349], [630032.4715035289, 5219863.615880764], [630032.4336057509, 5219863.527694365], [630032.3874277499, 5219863.443547619], [630032.3333949678, 5219863.364215777], [630032.2720052131, 5219863.29042973], [630032.2038240745, 5219863.222869276], [630030.0848279916, 5219861.31577393], [630031.2491586619, 5219859.761121902], [630031.3050968064, 5219859.6780680055], [630031.3524483297, 5219859.589836158], [630031.390738437, 5219859.497311062], [630031.4195831921, 5219859.401420469], [630031.4386933682, 5219859.303125878], [630031.447877347, 5219859.203412889], [630031.4470430404, 5219859.1032813275], [630031.4361988142, 5219859.003735215], [630031.4154534035, 5219858.905772704], [630031.3850148233, 5219858.810376066], [630031.3451882818, 5219858.718501846], [630031.296373121, 5219858.6310712695], [630031.2390588115, 5219858.548961005], [630031.1738200455, 5219858.472994373], [630031.1013109741, 5219858.403933095], [630029.8836034947, 5219857.355243025], [630030.5347101999, 5219856.595889225], [630030.5933547143, 5219856.520485869], [630030.6445370537, 5219856.439830966], [630030.6877901871, 5219856.354660481], [630030.7227194363, 5219856.26575158], [630030.7490060773, 5219856.173915543], [630030.7664102486, 5219856.07999036], [630030.7747731399, 5219855.984833084], [630030.774018441, 5219855.88931201], [630030.7641530385, 5219855.794298753], [630030.7452669526, 5219855.700660295], [630030.7175325159, 5219855.609251071], [630030.681202801, 5219855.520905177], [630030.6366093107, 5219855.4364287555], [630030.5841589539, 5219855.35659264], [630030.5243303317, 5219855.282125325], [630030.4576693712, 5219855.213706311], [630024.3668569443, 5219849.53233108], [630024.2896219753, 5219849.467261782], [630024.2062178223, 5219849.410314426], [630024.1174951456, 5219849.362069834], [630024.0243588504, 5219849.323020064], [630023.9277588574, 5219849.293563395], [630023.8286804142, 5219849.274000262], [630023.7281340475, 5219849.264530195], [630023.6271452549, 5219849.265249782], [630023.5267440468, 5219849.276151683], [630023.4279544407, 5219849.297124708], [630023.3317840169, 5219849.327954947], [630023.2392136418, 5219849.368327954], [630023.1511874645, 5219849.417831955], [630023.0686032859, 5219849.4759620465], [630022.9923034034, 5219849.542125344], [630022.9230660188, 5219849.615647032], [630014.9385091881, 5219859.0019137], [630014.8799465229, 5219859.077853895], [630014.8289273083, 5219859.159054503], [630014.7859207427, 5219859.244768762], [630014.7513223357, 5219859.334208402], [630014.7254502716, 5219859.426550891], [630014.7085424829, 5219859.520947001], [630014.700754462, 5219859.616528619], [630014.7021578314, 5219859.712416729], [630014.7127396851, 5219859.807729495], [630014.732402707, 5219859.901590373], [630014.7609660662, 5219859.993136173], [630014.7981670797, 5219860.081524993], [630014.8436636286, 5219860.165943966], [630014.8970373037, 5219860.245616733], [630014.9081436122, 5219860.259178624], [630013.2468766513, 5219862.5244944], [630013.1923187068, 5219862.607188402], [630013.14621094, 5219862.694875008], [630013.1090058926, 5219862.786693588], [630013.0810687275, 5219862.881742954], [630013.062673644, 5219862.979090209], [630013.0540011876, 5219863.077779903], [630013.0551364771, 5219863.176843409], [630013.0660683699, 5219863.275308433], [630013.0866895708, 5219863.372208552], [630013.1167976857, 5219863.466592707], [630013.1560972072, 5219863.557534527]]], [[[629994.0512259075, 5219865.588332618], [629994.091765763, 5219865.677944259], [629994.1409126307, 5219865.763139985], [629994.1981910773, 5219865.843095632], [629994.2630470069, 5219865.917037736], [629994.3348530208, 5219865.984250997], [630003.1935115663, 5219873.49402052], [630003.2712225683, 5219873.553612393], [630003.3543897424, 5219873.6053174455], [630003.4422154992, 5219873.648639814], [630003.5338575732, 5219873.68316403], [630003.6284370993, 5219873.708559], [630003.7250470417, 5219873.724581181], [630003.8227608924, 5219873.731076916], [630003.9206415573, 5219873.7279839115], [630004.0177503419, 5219873.715331829], [630004.1131559543, 5219873.693242004], [630004.2059434366, 5219873.6619262835], [630004.2952229389, 5219873.62168499], [630004.3801382539, 5219873.572904046], [630004.4598750273, 5219873.516051269], [630004.5336685684, 5219873.45167189], [630004.600811183, 5219873.380383317], [630008.549887335, 5219868.753001255], [630008.6099584457, 5219868.675166466], [630008.662095757, 5219868.5918088425], [630008.7057952683, 5219868.503734184], [630008.7406345456, 5219868.411793891], [630008.7662768046, 5219868.316876732], [630008.7824741671, 5219868.2199002495], [630008.7890700564, 5219868.121801896], [630008.7860007116, 5219868.023529968], [630008.7732958032, 5219867.92603444], [630008.7510781471, 5219867.830257782], [630008.7195625167, 5219867.737125845], [630008.679053567, 5219867.647538916], [630008.6299428897, 5219867.5623630155], [630008.5727052275, 5219867.48242152], [630008.507893885, 5219867.408487208], [630008.4361353803, 5219867.341274786], [630004.9763112565, 5219864.40623873], [630009.4354847263, 5219859.177442569], [630009.4955113376, 5219859.099611633], [630009.5476072659, 5219859.01626379], [630009.5912692201, 5219858.928204251], [630009.6260753889, 5219858.836283747], [630009.651689515, 5219858.741390306], [630009.6678641443, 5219858.64444068], [630009.6744430162, 5219858.546371484], [630009.6713625732, 5219858.448130151], [630009.6586525749, 5219858.350665775], [630009.6364358107, 5219858.254919945], [630009.6049269135, 5219858.161817647], [630009.5644302858, 5219858.072258326], [630009.5153371596, 5219857.987107204], [630009.458121816, 5219857.907186912], [630009.393337004, 5219857.833269548], [630009.3216085994, 5219857.766069216], [630004.6949165034, 5219853.84008444], [630004.6172208851, 5219853.780446546], [630004.5340637006, 5219853.728695506], [630004.4462427007, 5219853.685327782], [630004.3546003776, 5219853.650759414], [630004.2600158824, 5219853.625322025], [630004.1633965913, 5219853.609259644], [630004.0656694011, 5219853.602726362], [630003.9677718367, 5219853.605784854], [630003.8706430576, 5219853.618405779], [630003.7752148482, 5219853.640468062], [630003.6824026786, 5219853.671760052], [630003.5930969227, 5219853.711981557], [630003.5081543162, 5219853.76074672], [630003.4283897382, 5219853.817587723], [630003.354568393, 5219853.881959273], [630003.2873984699, 5219853.953243836], [629994.2209853719, 5219864.572133875], [629994.160876725, 5219864.649984224], [629994.1087065297, 5219864.73336286], [629994.0649794665, 5219864.821463201], [629994.0301185388, 5219864.913432988], [629994.0044609816, 5219865.008382533], [629993.9882549993, 5219865.1053933175], [629993.981657364, 5219865.203526886], [629993.9847318996, 5219865.301833923], [629993.9974488637, 5219865.399363431], [629994.0196852358, 5219865.495171938], [629994.0512259075, 5219865.588332618]]], [[[629983.568454314, 5219920.753178211], [629983.5479941263, 5219920.6585235745], [629983.518474209, 5219920.566291833], [629983.4801714033, 5219920.477347949], [629983.4334449173, 5219920.392526046], [629983.378732958, 5219920.312621596], [629983.3165486204, 5219920.2383839525], [629983.2474750765, 5219920.170509324], [629974.7470802714, 5219912.590797532], [629974.6714335342, 5219912.529679989], [629974.5902078031, 5219912.476199494], [629974.504171293, 5219912.430861851], [629974.4141377188, 5219912.394095856], [629974.3209585986, 5219912.366249233], [629974.2255152002, 5219912.347585349], [629974.1287102065, 5219912.338280723], [629974.0314591781, 5219912.338423357], [629973.934681894, 5219912.348011902], [629973.8392936531, 5219912.36695567], [629973.7461966163, 5219912.395075495], [629973.6562712755, 5219912.432105429], [629973.5703681246, 5219912.477695247], [629973.4892996174, 5219912.531413773], [629973.413832482, 5219912.5927529475], [629973.3446804703, 5219912.661132638], [629965.6555190715, 5219921.042211069], [629965.5924477007, 5219921.118167165], [629965.5371736111, 5219921.199972428], [629965.4902355773, 5219921.286829479], [629965.4520911196, 5219921.377891692], [629965.4231120445, 5219921.4722714545], [629965.4035808203, 5219921.569048815], [629965.3936878245, 5219921.667280454], [629965.3935294872, 5219921.766008875], [629965.4031073517, 5219921.864271741], [629965.4223280596, 5219921.961111251], [629965.4510042602, 5219922.055583479], [629965.4888564375, 5219922.1467675725], [629965.5355156336, 5219922.233774731], [629965.5905270465, 5219922.315756868], [629965.6533544618, 5219922.391914875], [629965.7233854799, 5219922.461506418], [629974.4082930522, 5219930.278726957], [629974.4851217015, 5219930.341277074], [629974.5677626332, 5219930.395918039], [629974.6554047135, 5219930.442113539], [629974.7471877215, 5219930.47941016], [629974.8422107926, 5219930.507441831], [629974.9395412601, 5219930.525933414], [629975.03822381, 5219930.534703412], [629975.1372898577, 5219930.533665746], [629975.235767054, 5219930.522830602], [629975.3326888296, 5219930.502304328], [629975.4271038821, 5219930.472288392], [629975.5180855126, 5219930.433077405], [629975.604740722, 5219930.38505623], [629975.6862189758, 5219930.3286962025], [629975.7617205519, 5219930.264550504], [629975.8305043903, 5219930.193248737], [629982.2992706203, 5219922.786034134], [629982.3060735789, 5219922.77816196], [629983.3419559804, 5219921.566789385], [629983.4012561082, 5219921.490228204], [629983.4528726329, 5219921.408290094], [629983.4963214886, 5219921.321743479], [629983.5311952069, 5219921.231400005], [629983.5571667377, 5219921.138106922], [629983.573992517, 5219921.042739145], [629983.5815147505, 5219920.946191045], [629983.5796628938, 5219920.849368062], [629983.568454314, 5219920.753178211]]], [[[630084.3363636938, 5219849.668442702], [630084.3422305563, 5219849.570311587], [630084.3384338202, 5219849.472078597], [630084.3250101774, 5219849.374693067], [630084.3020893561, 5219849.279096144], [630084.2698928661, 5219849.18621169], [630084.2287318589, 5219849.096937354], [630077.6813007968, 5219836.556889008], [630077.6317605011, 5219836.472374046], [630077.5741884075, 5219836.393111989], [630077.5091370365, 5219836.319863516], [630077.4372306874, 5219836.253331594], [630077.3591594467, 5219836.194154732], [630077.2756725657, 5219836.142900851], [630077.1875712696, 5219836.100061835], [630077.0957010683, 5219836.066048811], [630077.000943642, 5219836.041188203], [630076.9042083796, 5219836.0257186], [630076.806423651, 5219836.019788461], [630076.7085278986, 5219836.0234547], [630076.6114606296, 5219836.036682132], [630076.5161534005, 5219836.059343812], [630076.4235208768, 5219836.091222256], [630076.3344520546, 5219836.132011526], [630064.8582818725, 5219842.084026419], [630064.7733444764, 5219842.133521756], [630064.6936773316, 5219842.191117726], [630064.6200503532, 5219842.256257713], [630064.5531750836, 5219842.328312192], [630064.4936978152, 5219842.406584821], [630064.4421933454, 5219842.490319158], [630064.399159421, 5219842.578705984], [630064.3650119281, 5219842.670891116], [630064.3400808736, 5219842.765983662], [630064.3246071945, 5219842.863064633], [630064.3187404311, 5219842.961195825], [630064.3225372806, 5219843.059428883], [630064.3359610495, 5219843.156814468], [630064.3588820087, 5219843.252411431], [630064.3910786465, 5219843.345295909], [630064.4322398099, 5219843.434570252], [630070.9796872376, 5219855.974605707], [630071.0292275957, 5219856.059120506], [630071.0867997267, 5219856.138382401], [630071.1518511111, 5219856.211630716], [630071.2237574509, 5219856.278162487], [630071.3018286611, 5219856.337339208], [630071.3853154924, 5219856.388592962], [630071.4734167218, 5219856.431431866], [630071.565286842, 5219856.465444794], [630071.6600441755, 5219856.490305325], [630071.7567793365, 5219856.505774872], [630071.8545639577, 5219856.511704975], [630071.9524596003, 5219856.508038721], [630072.04952676, 5219856.494811296], [630072.1448338835, 5219856.472149644], [630072.2374663084, 5219856.440271248], [630072.3265350417, 5219856.399482046], [630083.8026888581, 5219850.447480044], [630083.8876262091, 5219850.397984771], [630083.9672933195, 5219850.340388875], [630084.0409202757, 5219850.275248972], [630084.1077955365, 5219850.203194581], [630084.1672728106, 5219850.124922047], [630084.2187773013, 5219850.041187806], [630084.2618112623, 5219849.952801078], [630084.2959588077, 5219849.860616041], [630084.3208899307, 5219849.765523587], [630084.3363636938, 5219849.668442702]]], [[[630520.1884986102, 5219717.23988781], [630537.1973396422, 5219732.690159702], [630547.9512012637, 5219740.620489936], [630565.5388084668, 5219690.488034736], [630541.3777181602, 5219685.5200443175], [630520.1884986102, 5219717.23988781]]]]}}]}