{"type": "FeatureCollection", "name": "siret3_passages", "crs": {"type": "name", "properties": {"name": "urn:ogc:def:crs:EPSG::32635"}}, "features": [{"type": "Feature", "properties": {"type": "passage", "source": "OpenStreetMap highways, buffered; plus 5 passages digitised from the orthomosaic (work/manual_passages.json)"}, "geometry": {"type": "MultiPolygon", "coordinates": [[[[630118.4, 5219232.764531808], [630160.7355233207, 5219283.2523978], [630183.0957471906, 5219312.708179153], [630109.3012261832, 5219373.964501976], [630097.0282613075, 5219351.238630129], [630096.9551756565, 5219351.117360636], [630096.8709813107, 5219351.003522529], [630096.776428453, 5219350.898130123], [630074.1941770087, 5219328.0], [630069.9806982188, 5219328.0], [630094.4902325426, 5219352.852371677], [630106.9470594435, 5219375.918701177], [630035.7248116079, 5219435.041426431], [629951.620482463, 5219504.3003357975], [629953.579572465, 5219498.688949116], [629953.619956442, 5219498.552914732], [629953.6473050694, 5219498.4136729585], [629953.6613735924, 5219498.2724699285], [629953.6620361059, 5219498.1305693295], [629953.6492866805, 5219497.98924109], [629953.6232394166, 5219497.849750019], [629953.5841274223, 5219497.71334448], [629953.5323007277, 5219497.581245227], [629953.4682231521, 5219497.454634472], [629953.3924681534, 5219497.334645309], [629953.3057136957, 5219497.222351573], [629953.2087361817, 5219497.11875823], [629943.0592528424, 5219487.25637137], [629939.4888385327, 5219481.6], [629935.9411706594, 5219481.6], [629940.6175719621, 5219489.008513452], [629940.7209748559, 5219489.15267283], [629940.8406748358, 5219489.283615564], [629950.4318352595, 5219498.603472681], [629947.1607010117, 5219507.972924383], [629913.6, 5219535.610990983], [629913.6, 5219539.497343586], [629949.3919846168, 5219510.0217598], [630037.6341553759, 5219437.355387342], [630037.6387064238, 5219437.35162455], [630109.8091436868, 5219377.441792112], [630186.1168452679, 5219314.099295425], [630262.8666447921, 5219250.4005348105], [630292.7424820365, 5219225.6], [630288.0456188836, 5219225.6], [630262.1536643682, 5219247.0934334425], [630245.7689446592, 5219225.6], [630241.9966658482, 5219225.6], [630259.8432812303, 5219249.011144451], [630185.4063509688, 5219310.790331251], [630163.1030391072, 5219281.409521762], [630163.0576743856, 5219281.35267742], [630118.4, 5219228.0954952], [630118.4, 5219232.764531808]]], [[[629719.9838387944, 5220216.499912936], [629720.1309337917, 5220216.49427452], [629720.2767678251, 5220216.474245424], [629720.419936433, 5220216.440018538], [629720.5590608235, 5220216.391923488], [629720.6928011527, 5220216.330423453], [629720.8198694279, 5220216.256110712], [629720.9390419126, 5220216.169700939], [629721.0491709101, 5220216.072026306], [629721.1491958183, 5220215.964027475], [629721.2381533426, 5220215.846744531], [629721.3151867733, 5220215.721306974], [629721.3795542364, 5220215.588922838], [629721.4306358382, 5220215.450867052], [629721.4679396347, 5220215.30846917], [629721.49110637, 5220215.163100562], [629721.499912936, 5220215.016161205], [629721.4942745203, 5220214.869066209], [629721.4742454243, 5220214.723232175], [629721.4400185389, 5220214.580063567], [629721.3919234877, 5220214.440939177], [629721.3304234524, 5220214.307198848], [629721.2561107121, 5220214.180130572], [629721.1697009389, 5220214.060958087], [629721.0720263063, 5220213.95082909], [629720.9640274743, 5220213.850804182], [629720.8467445307, 5220213.761846658], [629720.7213069744, 5220213.684813227], [629720.5889228376, 5220213.620445764], [629720.4508670521, 5220213.569364162], [629714.4085002822, 5220211.66510312], [629722.0119977188, 5220202.566479818], [629722.1408592488, 5220202.398276064], [629730.0139961289, 5220191.165558635], [629738.4261392757, 5220182.361767612], [629738.6009794122, 5220182.157905997], [629749.4321553471, 5220168.062172298], [629764.9570532192, 5220150.731993372], [629778.1762858179, 5220138.276750327], [629778.2745544917, 5220138.178875007], [629802.4397904193, 5220112.736602058], [629802.5423976325, 5220112.621679386], [629813.0523583678, 5220100.093707045], [629817.2585738201, 5220105.983455806], [629817.3988619029, 5220106.162134419], [629817.5547902939, 5220106.327340744], [629817.7250714786, 5220106.477710659], [629826.52454692, 5220113.563452616], [629826.7655110491, 5220113.735019856], [629848.1261664401, 5220127.113431718], [629862.4, 5220138.575214157], [629862.4, 5220132.162732024], [629851.142563754, 5220123.123094247], [629850.9042657916, 5220122.953670922], [629829.5450651753, 5220109.576170201], [629821.1281428577, 5220102.798477597], [629816.3353499222, 5220096.087374332], [629832.715526658, 5220075.275479927], [629832.7464772736, 5220075.235324295], [629862.7268343435, 5220035.511893769], [629862.7536396297, 5220035.47570388], [629904.0911660781, 5219978.601798739], [629904.1211056561, 5219978.5596987605], [629926.3362355165, 5219946.628081112], [629953.2091750054, 5219915.047328665], [629953.3105484061, 5219914.9200227335], [629968.5634699826, 5219894.43059743], [629984.7870627621, 5219875.792487694], [629984.8509135514, 5219875.716115496], [630029.2578989022, 5219820.398867801], [630032.7268731061, 5219818.882862455], [630035.9375883735, 5219819.255558095], [630060.1979130727, 5219875.266832099], [630060.2439695067, 5219875.3670445215], [630067.9480524061, 5219891.2], [630073.5085497397, 5219891.2], [630064.7641039453, 5219873.228954938], [630039.95249337, 5219815.944894001], [630039.916721369, 5219815.872296548], [630039.8833955926, 5219815.79854413], [630039.8625310069, 5219815.762319971], [630039.8440539476, 5219815.724821721], [630039.8013384051, 5219815.6560801165], [630039.760944099, 5219815.5859493315], [630039.7366293928, 5219815.551944688], [630039.7145658351, 5219815.516438072], [630039.665318126, 5219815.452214334], [630039.6182443086, 5219815.38638058], [630039.5907136442, 5219815.3549229335], [630039.5652760738, 5219815.321749901], [630039.5099704781, 5219815.262662537], [630039.4566704986, 5219815.201759833], [630039.4261890195, 5219815.173152146], [630039.3976224058, 5219815.142632162], [630039.3367915348, 5219815.089250206], [630039.2777787127, 5219815.033865088], [630039.2446399677, 5219815.008382862], [630039.2132194275, 5219814.980809858], [630039.1474491361, 5219814.933647425], [630039.083291777, 5219814.884313262], [630039.0478149027, 5219814.862201902], [630039.0138430404, 5219814.837841425], [630038.9437667264, 5219814.797352709], [630038.8750827067, 5219814.754544623], [630038.8376093768, 5219814.73601708], [630038.8014133483, 5219814.715103727], [630038.7277058724, 5219814.681678651], [630038.6551566691, 5219814.645808914], [630038.6160477664, 5219814.631043615], [630038.5779761649, 5219814.613778796], [630038.5013473817, 5219814.587739267], [630038.4256316721, 5219814.5591533175], [630038.3852638394, 5219814.548292461], [630038.3456833127, 5219814.5348424455], [630038.3324411882, 5219814.531750312], [630034.5596088389, 5219804.822963266], [630034.5468463468, 5219804.793547124], [630034.5393551395, 5219804.773474914], [630034.5286803793, 5219804.751676565], [630034.5133975898, 5219804.716451415], [630021.8482411712, 5219778.367358189], [630021.8424690269, 5219778.355483719], [630015.6163346997, 5219765.689145514], [630015.5346255945, 5219765.543902972], [630015.4373093569, 5219765.408620587], [629982.351608545, 5219724.425534555], [629982.2903040161, 5219724.354285154], [629974.5000493154, 5219715.854158108], [629979.1737470628, 5219708.521308124], [630002.8041064389, 5219682.373909542], [630002.8051724116, 5219682.372728768], [630007.7210798288, 5219676.921582631], [630007.75150842, 5219676.886777201], [630014.5625685542, 5219668.849350493], [630021.0809472753, 5219661.344431183], [630027.9660401563, 5219654.142776205], [630045.1015028402, 5219638.437422584], [630092.0908530464, 5219599.77961592], [630102.0064768434, 5219611.241225712], [630102.0725841618, 5219611.312803322], [630134.5678279678, 5219644.281072377], [630136.9750118938, 5219663.288312099], [630137.0061198256, 5219663.456408827], [630137.0561521311, 5219663.619874363], [630137.1244589633, 5219663.77658553], [630139.5683518497, 5219668.610900296], [630148.9592881852, 5219687.162200012], [630148.9786144667, 5219687.1990976], [630162.4370608446, 5219712.048228067], [630176.9677601446, 5219744.628433616], [630190.1713893248, 5219783.377474652], [630190.1920654997, 5219783.434366705], [630203.8719913738, 5219818.833846241], [630203.9481618433, 5219819.000044225], [630215.1687896954, 5219840.0], [630218.5701790267, 5219840.0], [630206.6372982081, 5219817.667027838], [630193.0012962205, 5219782.381209935], [630179.7853754305, 5219743.596096386], [630179.7354663982, 5219743.468917272], [630165.1534233957, 5219710.773590741], [630165.1024682567, 5219710.670211686], [630151.6264763341, 5219685.788685835], [630142.2455002835, 5219667.257062629], [630139.9186853376, 5219662.654342144], [630137.480322007, 5219643.400908347], [630137.4563337208, 5219643.263277147], [630137.4196447766, 5219643.128474674], [630137.3705734351, 5219642.997670284], [630137.3095453692, 5219642.871998645], [630137.2370899712, 5219642.75254991], [630137.1538357607, 5219642.640360242], [630137.0605049321, 5219642.536402838], [630104.2433935648, 5219609.241580876], [630094.4084150749, 5219597.873190135], [630132.4678482794, 5219566.568889603], [630132.4892770593, 5219566.550926746], [630200.8334123092, 5219508.167668668], [630212.0916671096, 5219559.162995367], [630212.1311160346, 5219559.307146803], [630212.1847137859, 5219559.446657142], [630212.2519282963, 5219559.580141461], [630212.3320923242, 5219559.706274655], [630214.5624913446, 5219562.857135025], [630214.563108531, 5219562.857921981], [630214.5636432219, 5219562.858759981], [630219.2456611642, 5219569.454405948], [630225.1954233039, 5219577.830624274], [630228.432664175, 5219604.186856987], [630228.4719932951, 5219604.3899971545], [630237.5509570773, 5219638.482254307], [630250.5666314474, 5219696.208355756], [630250.5696573696, 5219696.221500366], [630255.9206356903, 5219718.997256393], [630255.9463074419, 5219719.092377609], [630273.0992678638, 5219775.248250088], [630256.8877137174, 5219821.66627926], [630247.4769756186, 5219840.0], [630250.8491131879, 5219840.0], [630259.6040604358, 5219822.943871538], [630259.685713142, 5219822.753468637], [630276.0933354569, 5219775.774043692], [630286.1504290453, 5219746.970793317], [630311.6445327146, 5219675.4573882455], [630324.6238187357, 5219676.4578884365], [630324.7639614368, 5219676.462119185], [630324.9038869565, 5219676.453246484], [630356.8034765989, 5219672.927553338], [630366.3013121838, 5219672.750021682], [630384.3836206319, 5219672.408091034], [630403.0922607457, 5219675.369910863], [630403.2305705264, 5219675.385271517], [630403.3697086239, 5219675.387748407], [630416.1125250946, 5219675.023158803], [630416.2814436523, 5219675.008741442], [630416.4476564612, 5219674.975355192], [630416.6090403303, 5219674.9234265275], [630450.3622880704, 5219661.9152130755], [630459.973576898, 5219661.424517743], [630485.8669034279, 5219666.840208574], [630558.3667149222, 5219687.8222014755], [630558.3745634404, 5219687.824449766], [630571.2367125092, 5219691.471101787], [630539.9905365312, 5219785.429256589], [630536.188106091, 5219795.214958927], [630498.8855584342, 5219891.2], [630505.3227288779, 5219891.2], [630541.2688107047, 5219798.705348634], [630681.6, 5219848.576848715], [630681.6, 5219845.393033087], [630542.3559047166, 5219795.907869142], [630545.6101001351, 5219787.533070922], [630545.6335996983, 5219787.462519635], [630545.6604996261, 5219787.39319354], [630576.9445257836, 5219693.3212221535], [630584.262626212, 5219696.000298896], [630592.6345397421, 5219699.064253767], [630624.6011344428, 5219710.761469029], [630672.0834114582, 5219728.697767004], [630712.4714077149, 5219745.1682684785], [630712.5140777042, 5219745.184914409], [630732.8, 5219752.743854595], [630732.8, 5219749.542353242], [630713.5830420493, 5219742.381730541], [630673.1981677331, 5219725.912502215], [630673.1618099358, 5219725.898224501], [630625.6539708908, 5219707.95227054], [630625.6393622409, 5219707.946838721], [630593.665564168, 5219696.246987603], [630586.6480901686, 5219693.678730834], [630616.9629461878, 5219599.52696597], [630630.4, 5219605.184690368], [630630.4, 5219601.92960546], [630617.8567439812, 5219596.648218141], [630621.60826857, 5219584.0], [630618.4790880592, 5219584.0], [630614.6035768905, 5219597.066237342], [630583.8287008696, 5219692.646730582], [630577.833368024, 5219690.451904623], [630607.8597002005, 5219584.0], [630601.6255861005, 5219584.0], [630572.1206333388, 5219688.603465826], [630559.196792063, 5219684.939322948], [630486.6464620356, 5219663.9427096015], [630486.5365488274, 5219663.915351833], [630462.0638425525, 5219658.7967893025], [630476.3272035767, 5219617.449864185], [630476.328412227, 5219617.446346383], [630487.6188180238, 5219584.452312974], [630487.6719675887, 5219584.253314349], [630497.6638939165, 5219532.930061156], [630516.9741473359, 5219475.916241055], [630517.0160428309, 5219475.767834798], [630517.0424802958, 5219475.615911429], [630521.5269386423, 5219438.694729967], [630523.5869821262, 5219430.4], [630520.495845605, 5219430.4], [630518.5932042007, 5219438.060953177], [630518.5599229571, 5219438.241641987], [630514.0830347253, 5219475.100497621], [630494.7900894681, 5219532.063215108], [630494.7384566198, 5219532.257758618], [630484.7469820484, 5219583.578691376], [630473.4906007693, 5219616.473294694], [630459.0030309734, 5219658.470160822], [630449.9699987603, 5219658.931333806], [630449.8125049518, 5219658.947743247], [630449.6576185194, 5219658.980663794], [630449.5070654876, 5219659.029728589], [630415.7699279258, 5219672.031733315], [630403.4234636301, 5219672.384982736], [630384.7220651907, 5219669.424309357], [630384.5910113818, 5219669.409432865], [630384.4591573803, 5219669.406126342], [630367.807942388, 5219669.720995505], [630368.5529920307, 5219636.488975696], [630374.8034667277, 5219607.423998244], [630396.8856864336, 5219527.346598259], [630396.8930417462, 5219527.3188953325], [630410.4058714487, 5219474.390579362], [630429.969690881, 5219408.795792626], [630439.1769777143, 5219379.2], [630436.0351540949, 5219379.2], [630427.1024930828, 5219407.913038673], [630427.0973534023, 5219407.92990859], [630407.522462199, 5219473.561817447], [630407.5065093488, 5219473.61947974], [630393.9898236215, 5219526.562899349], [630371.8999967835, 5219606.667885301], [630371.8795501201, 5219606.751275292], [630365.5900894256, 5219635.997539317], [630365.5668386939, 5219636.137627172], [630365.5569393329, 5219636.279285939], [630364.8059228525, 5219669.777449173], [630356.6788339819, 5219669.929359104], [630356.5420831302, 5219669.938175826], [630324.7141360913, 5219673.455950693], [630312.3230186483, 5219672.5007891115], [630313.4710603098, 5219664.283453787], [630317.7459026228, 5219633.780057123], [630347.0594491417, 5219544.163378182], [630347.1042193348, 5219543.9933691565], [630347.1287906375, 5219543.819289606], [630348.5500508571, 5219526.438038172], [630355.9151665303, 5219448.223394351], [630367.8632038124, 5219398.512410998], [630389.0566491667, 5219350.186305538], [630409.7818537396, 5219328.0], [630405.6765370168, 5219328.0], [630386.7610108982, 5219348.249047019], [630373.3430449932, 5219359.10441015], [630373.2340019104, 5219359.201791994], [630373.1349567726, 5219359.309326538], [630351.1349588785, 5219385.664480542], [630297.094333908, 5219441.286218211], [630276.0137100156, 5219456.576092345], [630272.8254885088, 5219458.883733511], [630254.8976297353, 5219466.044050243], [630254.7445880038, 5219466.115409174], [630254.6005364095, 5219466.203517101], [630233.8208812203, 5219480.580439296], [630213.9883390248, 5219493.00054119], [630213.8967121053, 5219493.0627462715], [630213.8099244854, 5219493.131542155], [630200.7849470807, 5219504.263471387], [630130.5513348671, 5219564.260822918], [630091.3150294618, 5219596.533113721], [630043.1645693658, 5219636.146157282], [630043.1040413436, 5219636.198727531], [630025.9025194456, 5219651.964627129], [630025.8318089113, 5219652.033864611], [630018.8877425259, 5219659.297204571], [630018.8394856767, 5219659.350155933], [630012.2916253193, 5219666.889018852], [630012.2797383522, 5219666.902874296], [630005.4777229859, 5219674.929627678], [630000.5778304705, 5219680.363015228], [629976.8636094597, 5219706.603208149], [629976.7834073688, 5219706.699788188], [629976.7115621357, 5219706.802736436], [629972.2305841626, 5219713.83321659], [629944.1757986392, 5219692.328917454], [629914.7525374321, 5219668.407948504], [629909.9149807931, 5219663.0915263835], [629909.811431351, 5219662.9883136], [629909.698325707, 5219662.89567193], [629909.576738383, 5219662.814481486], [629909.4478244786, 5219662.745513588], [629903.4706441493, 5219659.913340854], [629930.7765723018, 5219636.050638619], [629993.4871972166, 5219586.0377491135], [629993.4998812475, 5219586.027520158], [630047.0365670216, 5219542.371182119], [630086.2135994614, 5219512.919286727], [630086.3672946119, 5219512.786545258], [630127.5178066484, 5219472.068051787], [630167.4930198451, 5219446.585001484], [630167.625245474, 5219446.490251283], [630167.7464334138, 5219446.381739991], [630202.1082250457, 5219412.080542143], [630244.4161179252, 5219380.398371056], [630261.3124954555, 5219374.044979163], [630261.4570724996, 5219373.981747512], [630261.594206775, 5219373.903677326], [630261.7223806161, 5219373.811632609], [630261.8401755223, 5219373.706632021], [630306.2570325135, 5219329.708782522], [630335.8520213707, 5219308.596091898], [630335.9849589475, 5219308.489354862], [630371.1559131636, 5219276.8], [630366.6741463953, 5219276.8], [630334.0402533546, 5219306.203439291], [630304.4162551882, 5219327.336824789], [630304.3208795994, 5219327.410831818], [630304.2317641979, 5219327.492268841], [630259.956626157, 5219371.349736298], [630243.1601587932, 5219377.665559876], [630243.0302123902, 5219377.721552402], [630242.906120089, 5219377.789540132], [630242.788986103, 5219377.868918087], [630200.224755074, 5219409.7430474255], [630200.0641456775, 5219409.882115382], [630165.7426223721, 5219444.143115912], [630125.7702206369, 5219469.624373989], [630125.6405682421, 5219469.717064856], [630125.5214823821, 5219469.822988876], [630084.3295420805, 5219510.582475678], [630045.2102014939, 5219539.9910003925], [630045.163603637, 5219540.027491813], [629991.6102931779, 5219583.6973864045], [629928.8796581512, 5219633.726234346], [629928.8278710052, 5219633.769476244], [629899.9631639189, 5219658.994398337], [629889.3760347947, 5219663.29885052], [629889.228341806, 5219663.368492924], [629889.0890939092, 5219663.453776607], [629888.9599412406, 5219663.553690929], [629867.7021791928, 5219681.932813754], [629867.5929494436, 5219682.037322164], [629867.4947935705, 5219682.152294205], [629858.1347398611, 5219694.306483183], [629850.981010315, 5219694.006261557], [629835.1867489988, 5219684.582305915], [629825.3188503314, 5219671.04515962], [629811.2, 5219640.024402309], [629811.2, 5219647.266355321], [629822.6515802967, 5219672.426809952], [629822.7214817373, 5219672.561797546], [629822.8046865418, 5219672.689017131], [629832.9429391541, 5219686.59704491], [629833.0379409367, 5219686.714462913], [629833.1442691378, 5219686.8217319185], [629833.2608457154, 5219686.917764348], [629833.3864887219, 5219687.001586546], [629849.7700235924, 5219696.777143806], [629849.9013816915, 5219696.8469329635], [629850.039006009, 5219696.90336898], [629850.18154321, 5219696.945896888], [629850.3275916486, 5219696.974098489], [629850.4757151505, 5219696.98769646], [629855.8335328433, 5219697.212548789], [629812.2496272898, 5219751.85674986], [629796.4362334986, 5219736.390829869], [629796.3288544707, 5219736.295429809], [629796.2128429436, 5219736.210737704], [629777.1581434272, 5219723.653000223], [629777.0552742771, 5219723.590966449], [629760.0, 5219714.216057057], [629760.0, 5219717.6394053195], [629775.5574904132, 5219726.191015843], [629794.4416506774, 5219738.636361777], [629810.3693987458, 5219754.214123295], [629744.0572129107, 5219837.354282572], [629730.5389404936, 5219830.502675013], [629714.6191993882, 5219817.048663912], [629694.1446379197, 5219799.504816397], [629694.0094864084, 5219799.401696317], [629693.8635347614, 5219799.314530964], [629693.7086576256, 5219799.244439918], [629679.8542368704, 5219793.898164914], [629674.1586004596, 5219788.8], [629669.6604796633, 5219788.8], [629678.0578312608, 5219796.316470539], [629678.1628808146, 5219796.402270268], [629678.2752512976, 5219796.478229972], [629678.3940239188, 5219796.543728571], [629678.5182275404, 5219796.59823052], [629692.3882647011, 5219801.95053173], [629712.6710756145, 5219819.330075727], [629712.6788578404, 5219819.336698174], [629728.7363150861, 5219832.907095242], [629728.875762802, 5219833.011683978], [629729.0264024258, 5219833.099389012], [629742.1468028987, 5219839.749338968], [629688.2692601335, 5219907.291997093], [629688.2518784733, 5219907.31421262], [629682.8649890677, 5219914.334221824], [629678.3020116349, 5219909.558687655], [629678.1881379448, 5219909.451327679], [629678.0636978357, 5219909.356416978], [629677.9300459564, 5219909.274988745], [629677.7886372341, 5219909.207929405], [629661.2592654786, 5219902.401408374], [629643.6614900723, 5219891.2], [629638.0746049811, 5219891.2], [629659.7601340344, 5219905.003362137], [629659.8746090197, 5219905.069330658], [629659.9944449161, 5219905.124969906], [629676.3525016686, 5219911.860946261], [629681.0169511326, 5219916.742679323], [629612.4372244483, 5220006.127264928], [629573.6268675362, 5219973.914352735], [629555.2, 5219957.307672416], [629555.2, 5219961.346211001], [629571.6411581242, 5219976.163328262], [629571.6873469728, 5219976.2032810375], [629610.6096724191, 5220008.509128026], [629550.2485761852, 5220087.174345973], [629550.1712695874, 5220087.285082251], [629550.104236258, 5220087.402322884], [629550.0480195791, 5220087.525117503], [629541.9553252154, 5220107.536483743], [629527.548012958, 5220130.480198219], [629509.8594314738, 5220150.29484574], [629506.6562412687, 5220121.117504077], [629507.8138471914, 5220086.403450695], [629513.3643180685, 5220061.703631199], [629513.390740334, 5220061.548313748], [629513.4007259752, 5220061.391081647], [629513.8355736749, 5220021.437092553], [629517.610438194, 5220008.443130768], [629517.650122772, 5220008.26799751], [629517.6685944123, 5220008.0893769], [629518.2942412627, 5219993.6], [629515.2914458363, 5219993.6], [629514.6791758543, 5220007.779581543], [629510.8974477748, 5220020.797169299], [629510.8654905022, 5220020.929233092], [629510.8456148743, 5220021.0636469005], [629510.837983978, 5220021.199307809], [629510.4026253881, 5220061.200237709], [629504.85588314, 5220085.883464655], [629504.8315029923, 5220086.022068039], [629504.8202197165, 5220086.162346253], [629503.654335367, 5220121.12465143], [629503.6624604632, 5220121.338335725], [629507.2289961742, 5220153.825332852], [629502.2610842569, 5220213.174591462], [629502.2558579933, 5220213.301725945], [629502.2956112968, 5220242.931646676], [629496.1061009297, 5220234.1650469685], [629490.3429195168, 5220226.008267751], [629487.7987233509, 5220200.130843503], [629487.7763368315, 5220199.981171055], [629487.7389827864, 5220199.834516108], [629487.6870414466, 5220199.69237148], [629487.6210415286, 5220199.556184077], [629487.5416548529, 5220199.427340164], [629487.4496895055, 5220199.307151259], [629470.5274575657, 5220179.362888703], [629452.8, 5220139.821007038], [629452.8, 5220147.154352519], [629467.8771238774, 5220180.784547148], [629467.9408007833, 5220180.910376447], [629468.0160131562, 5220181.029669614], [629468.1020961932, 5220181.141372217], [629484.85897039, 5220200.890746873], [629487.3961309033, 5220226.696610377], [629487.4192592076, 5220226.849938783], [629487.4580931147, 5220227.00006022], [629487.5122176281, 5220227.145370424], [629487.5810543486, 5220227.284316544], [629487.6638676559, 5220227.415413739], [629492.8065419259, 5220234.6939730635], [629435.8577895241, 5220276.591278854], [629405.7853084808, 5220292.681056235], [629405.6014079615, 5220292.797346868], [629354.8214141806, 5220330.326875633], [629304.7373918755, 5220362.504695961], [629304.6892609097, 5220362.536948974], [629258.9760798592, 5220394.466087327], [629269.0478240147, 5220356.856546924], [629269.0876732466, 5220356.651541834], [629269.6594910702, 5220352.0], [629266.6369080913, 5220352.0], [629266.1228591439, 5220356.181611843], [629255.0144727367, 5220397.662144007], [629253.858570256, 5220401.961029375], [629253.8375083709, 5220402.050118197], [629245.0552581181, 5220445.014010236], [629239.2577373772, 5220457.591788911], [629239.1970629616, 5220457.745060941], [629239.153573518, 5220457.904065243], [629239.1277942772, 5220458.066881491], [629236.0414349785, 5220488.204248298], [629224.0131811632, 5220544.840525107], [629198.2486785951, 5220649.663594871], [629198.2265982516, 5220649.769888193], [629189.8346000443, 5220699.065417875], [629186.8991804001, 5220701.243151185], [629182.8784745894, 5220699.346361866], [629182.6517187541, 5220699.252699132], [629182.4168742567, 5220699.181713369], [629182.1762027781, 5220699.134088207], [629181.9320221165, 5220699.110282304], [629181.6866838648, 5220699.110524923], [629181.4425507647, 5220699.134813726], [629181.2019739512, 5220699.182914802], [629180.9672703107, 5220699.254364909], [629180.7407001676, 5220699.348475943], [629180.5803568076, 5220699.434385231], [629169.4726038448, 5220694.593139904], [629164.4357098558, 5220691.877150978], [629135.3599638608, 5220676.183214747], [629105.5735557639, 5220659.651180597], [629105.4557291889, 5220659.592394714], [629105.3332010765, 5220659.544168752], [629083.4895176622, 5220652.03621789], [629067.4179844259, 5220639.972595139], [629067.3647876496, 5220639.93445046], [629043.2, 5220623.393376272], [629043.2, 5220627.028895975], [629065.6432138581, 5220642.391533165], [629081.8777557808, 5220654.577513581], [629082.0075175447, 5220654.664727249], [629082.145652468, 5220654.737960316], [629082.290659832, 5220654.796417168], [629104.2331685029, 5220662.338335524], [629133.9118092958, 5220678.81055673], [629133.9272577928, 5220678.819012702], [629161.7670519121, 5220693.845831057], [629147.3263544055, 5220724.867373692], [629147.2776837307, 5220724.984665434], [629129.7382192871, 5220772.887167918], [629129.7286688916, 5220772.914039744], [629117.332719609, 5220808.872033358], [629099.2962933783, 5220791.171879268], [629099.2030272804, 5220791.087722228], [629099.1030464348, 5220791.011664337], [629098.9970520835, 5220790.9442390455], [629074.2619781371, 5220776.628068898], [629023.5585693207, 5220738.8414682485], [629023.4736737475, 5220738.782635143], [628992.0, 5220718.538776656], [628992.0, 5220722.105757597], [629021.8073281939, 5220741.277823073], [629072.5390083299, 5220779.08549286], [629072.6839542603, 5220779.180988427], [629097.330269501, 5220793.4457867965], [629116.1893713652, 5220811.953278509], [629104.9891778659, 5220837.661332344], [629092.6098634338, 5220864.0], [629094.4, 5220864.0], [629094.4, 5220867.244006891], [629107.7133339437, 5220838.918086254], [629107.7309603392, 5220838.879152362], [629118.6320418131, 5220813.857657027], [629128.406788675, 5220820.45464493], [629128.5173491526, 5220820.522495297], [629128.6333584145, 5220820.580539614], [629128.7539488513, 5220820.628343779], [629154.5843825255, 5220829.596164592], [629154.6133479329, 5220829.605891391], [629180.406461854, 5220837.9760652], [629202.9031532056, 5220855.256964734], [629203.016263653, 5220855.33585712], [629203.1361415433, 5220855.404028033], [629203.2617736163, 5220855.460901262], [629203.392097975, 5220855.505996089], [629203.5260130609, 5220855.538931355], [629231.2833869967, 5220861.026199693], [629248.0, 5220868.906034286], [629248.0, 5220865.589444108], [629232.3952658485, 5220858.233724146], [629232.2244519494, 5220858.165665419], [629232.0465943066, 5220858.119017404], [629204.4522431056, 5220852.663976519], [629182.0290356022, 5220835.439523819], [629181.8881196189, 5220835.343500888], [629181.7372158346, 5220835.264092037], [629181.5782744436, 5220835.202323503], [629155.5538786848, 5220826.757095973], [629129.9227915903, 5220817.858484389], [629119.8543220618, 5220811.0632627215], [629119.9167214893, 5220810.921416122], [629119.969312563, 5220810.783928271], [629120.0081742305, 5220810.641947635], [629120.0329322325, 5220810.496841567], [629120.0433481361, 5220810.3500075145], [629120.0399008258, 5220810.224026171], [629132.5602220045, 5220773.905256327], [629150.0729328715, 5220726.075821255], [629164.4119592205, 5220695.272688856], [629168.1039140649, 5220697.263461154], [629168.2165227962, 5220697.318243148], [629179.3807178423, 5220702.184088408], [629179.3873460678, 5220702.21723938], [629179.4587961746, 5220702.45194302], [629179.5529072093, 5220702.678513164], [629179.6687728311, 5220702.894767814], [629179.8052771908, 5220703.098624324], [629179.9611056767, 5220703.288119442], [629180.1347575755, 5220703.461428226], [629180.3245605242, 5220703.616881618], [629180.5286866169, 5220703.752982518], [629180.7451700077, 5220703.868420199], [629185.0931983814, 5220705.91962524], [629193.0232568918, 5220709.666105799], [629213.2835374752, 5220720.0842242325], [629249.7189882449, 5220738.806703039], [629265.2356613417, 5220749.099068012], [629265.2883874935, 5220749.133096685], [629276.6606413265, 5220756.272008964], [629297.9119940352, 5220772.44424098], [629293.3598986107, 5220776.102818871], [629293.1782084996, 5220776.263980315], [629293.0130135663, 5220776.442011046], [629292.8658728361, 5220776.635230903], [629292.7381749481, 5220776.841816374], [629292.6311250498, 5220777.0598178115], [629289.418682982, 5220784.494272903], [629289.3221847602, 5220784.757128877], [629289.2556864524, 5220785.029127304], [629284.0946868041, 5220812.8], [629289.1802971842, 5220812.8], [629289.5119544474, 5220811.01538224], [629289.4987582241, 5220810.969398771], [629289.4811170865, 5220810.873498515], [629289.4728998644, 5220810.776336042], [629289.4741846878, 5220810.67883518], [629289.4849593404, 5220810.581922973], [629289.5051213762, 5220810.48652087], [629289.5344790933, 5220810.3935359605], [629289.721286929, 5220809.888983074], [629289.7212869291, 5220809.888983074], [629294.1201135529, 5220786.219294542], [629296.9751763128, 5220779.611911305], [629299.2, 5220777.82379177], [629299.2, 5220767.141263335], [629281.368515113, 5220753.571543104], [629303.1061557261, 5220736.761815089], [629323.7067745595, 5220722.469563048], [629323.8245859703, 5220722.3788594445], [629338.3747511966, 5220709.980951904], [629350.4, 5220701.580369787], [629350.4, 5220697.920846702], [629336.597685216, 5220707.562849178], [629336.4838545817, 5220707.650781463], [629321.935539728, 5220720.047112337], [629301.3642054459, 5220734.319047406], [629301.301647714, 5220734.364888815], [629278.8385202968, 5220751.735636127], [629267.9733226357, 5220744.915027466], [629252.3670477039, 5220734.563228697], [629252.1277519612, 5220734.422965963], [629215.5697093599, 5220715.637493046], [629195.2723942036, 5220705.20033092], [629195.1970695205, 5220705.1631842395], [629194.7849846928, 5220704.96849869], [629192.8205667736, 5220699.909191004], [629194.4257549183, 5220695.745609674], [629200.4066474704, 5220690.173469406], [629215.4258735303, 5220680.051475906], [629215.4769347785, 5220680.015495498], [629401.7350406138, 5220542.876800767], [629425.8023900588, 5220527.329316687], [629425.9456863774, 5220527.224215242], [629426.0755473529, 5220527.102904584], [629441.546354179, 5220510.830665866], [629441.6377970816, 5220510.725043854], [629441.7190166775, 5220510.611372436], [629441.7893084207, 5220510.490637666], [629441.8480625597, 5220510.363886867], [629449.7103381974, 5220491.098429999], [629447.5906582592, 5220513.796843721], [629446.0246974315, 5220530.204245184], [629443.1393395411, 5220541.708690951], [629413.3778245135, 5220655.883597854], [629413.3643634933, 5220655.937703573], [629413.3168965884, 5220656.138001189], [629407.5822820179, 5220659.2], [629417.7297416256, 5220659.2], [629418.2231835586, 5220657.117807308], [629447.9805850532, 5220542.958681263], [629447.9863186063, 5220542.936260839], [629450.9203677273, 5220531.237674296], [629450.9592444012, 5220531.053552258], [629450.9841614043, 5220530.867027558], [629452.5682818124, 5220514.269358547], [629452.5687611095, 5220514.264281965], [629455.920902313, 5220478.368160802], [629458.0328579685, 5220469.102566225], [629458.0755779927, 5220468.860975836], [629458.0944123094, 5220468.6163614765], [629458.0891795335, 5220468.371078916], [629458.0599300597, 5220468.127490359], [629458.0345203964, 5220468.012610484], [629464.7518934021, 5220460.208793629], [629473.7501310459, 5220452.597330348], [629483.4427939976, 5220445.331751479], [629483.5025633338, 5220445.284531569], [629493.034049082, 5220437.353078889], [629499.8979449912, 5220434.930369443], [629504.2584119114, 5220436.3281521415], [629507.484690806, 5220444.248500378], [629512.1191722932, 5220456.8364409115], [629511.9752886134, 5220457.134867351], [629511.9683809374, 5220457.151197737], [629511.9601274432, 5220457.166890965], [629511.9206061733, 5220457.264141711], [629511.8797106262, 5220457.360822578], [629511.8744368709, 5220457.377751399], [629511.8677613243, 5220457.394178044], [629511.8379625996, 5220457.494834266], [629511.8067403584, 5220457.595058051], [629511.8031513118, 5220457.612422274], [629511.7981180031, 5220457.629424138], [629511.7783288034, 5220457.732516453], [629511.7570805534, 5220457.835317953], [629511.7552107808, 5220457.85295035], [629511.7518681828, 5220457.870363696], [629511.7422790878, 5220457.97489927], [629511.7312094626, 5220458.079288449], [629511.7310769706, 5220458.097019213], [629511.7294572745, 5220458.11467634], [629511.7301606316, 5220458.219648443], [629511.7293762387, 5220458.324619971], [629511.7309823034, 5220458.342278343], [629511.7311011076, 5220458.360009204], [629511.7420901435, 5220458.4644069], [629511.7515985364, 5220458.568949843], [629511.7549276905, 5220458.586365762], [629511.756783851, 5220458.6039996], [629511.7779527359, 5220458.706817482], [629511.7976623429, 5220458.809925033], [629511.8026825245, 5220458.826930774], [629511.8062581657, 5220458.844297767], [629511.8374030329, 5220458.944545643], [629511.8671240386, 5220459.045224819], [629511.873786901, 5220459.06165661], [629511.8790475873, 5220459.078589501], [629515.4948822472, 5220468.974625482], [629515.5603435001, 5220469.136092853], [629521.3766922076, 5220482.159847525], [629521.4853854651, 5220482.374778032], [629521.6142567839, 5220482.578251693], [629535.2365744532, 5220501.954089534], [629535.2745047852, 5220502.006581641], [629537.9425980563, 5220505.6], [629544.170153842, 5220505.6], [629539.3082259954, 5220499.051900286], [629525.8435409033, 5220479.900272697], [629520.161295002, 5220467.176796109], [629516.9379059026, 5220458.354828982], [629518.9328391186, 5220454.21717545], [629522.7406132182, 5220448.283719838], [629534.2944607374, 5220431.527232298], [629561.6305177668, 5220399.730062804], [629561.6752259665, 5220399.676567254], [629596.6732313172, 5220356.592806147], [629596.6797391858, 5220356.584760768], [629635.5666795868, 5220308.306621978], [629647.6687677654, 5220296.617281995], [629657.2195904681, 5220303.316753742], [629657.6, 5220303.59250601], [629657.6, 5220300.8], [629662.2669061216, 5220300.8], [629660.138399631, 5220299.257082585], [629660.1067901056, 5220299.234541708], [629650.7881978205, 5220292.697969133], [629657.734222226, 5220281.534677848], [629665.3870075245, 5220271.4817101825], [629709.3654466817, 5220217.699805621], [629712.3278816304, 5220214.154847544], [629719.5491329479, 5220216.430635838], [629719.6915308298, 5220216.467939635], [629719.8368994383, 5220216.49110637], [629719.9838387944, 5220216.499912936]], [[629700.4193814808, 5220046.440180257], [629700.5616301721, 5220046.390888763], [629700.6982215396, 5220046.327586789], [629700.8277796933, 5220046.250911979], [629700.9489995884, 5220046.161636682], [629701.0606601718, 5220046.060660171], [629737.440949671, 5220009.680370672], [629779.5968015483, 5220021.444794452], [629779.7403576795, 5220021.477357731], [629779.8864143083, 5220021.495693248], [629780.0335648294, 5220021.49962442], [629780.1803921029, 5220021.48911339], [629780.3254821018, 5220021.464261385], [629780.46743753, 5220021.42530774], [629780.6048912794, 5220021.372627605], [629780.736519595, 5220021.306728314], [629780.8610548244, 5220021.228244515], [629780.977297625, 5220021.137932051], [629781.0841285154, 5220021.036660679], [629781.1805186555, 5220020.925405697], [629781.2655397556, 5220020.805238553], [629781.338373016, 5220020.677316521], [629781.3983170126, 5220020.542871562], [629781.444794452, 5220020.403198452], [629781.4773577311, 5220020.259642321], [629781.4956932475, 5220020.113585692], [629781.4996244204, 5220019.966435171], [629781.4891133903, 5220019.819607897], [629781.4642613842, 5220019.674517898], [629781.4253077407, 5220019.53256247], [629781.3726276043, 5220019.39510872], [629781.3067283138, 5220019.263480405], [629781.2282445153, 5220019.138945175], [629781.1379320507, 5220019.0227023745], [629781.0366606783, 5220018.915871484], [629780.9254056971, 5220018.819481345], [629780.805238553, 5220018.734460245], [629780.6773165214, 5220018.661626984], [629780.5428715615, 5220018.601682987], [629780.4031984517, 5220018.555205548], [629737.4031984517, 5220006.555205548], [629737.2626473204, 5220006.523173543], [629737.1196704169, 5220006.50478129], [629736.9755882551, 5220006.500198658], [629736.8317315564, 5220006.509467971], [629736.6894289606, 5220006.532503619], [629736.5499947532, 5220006.569092848], [629736.4147167283, 5220006.618897726], [629736.2848442937, 5220006.681458262], [629736.1615769324, 5220006.756196655], [629736.0460531234, 5220006.842422634], [629735.9393398282, 5220006.939339829], [629699.5215848726, 5220043.357094784], [629655.3253956868, 5220033.53571941], [629655.1636751578, 5220033.5089565925], [629655.0, 5220033.5], [629652.0, 5220033.5], [629651.9463687802, 5220033.502634733], [629651.8926865001, 5220033.503843654], [629651.8728909118, 5220033.506244469], [629651.8529742896, 5220033.50722291], [629651.7998595657, 5220033.5151017355], [629651.7465542774, 5220033.521566618], [629651.7270893373, 5220033.525896179], [629651.707364517, 5220033.528822079], [629651.6552778186, 5220033.541869118], [629651.6028628754, 5220033.5535277035], [629651.5839160266, 5220033.559744317], [629651.5645729841, 5220033.564589497], [629651.5140159294, 5220033.5826791], [629651.4629961213, 5220033.599419109], [629651.444749851, 5220033.607462899], [629651.4259748515, 5220033.614180701], [629651.3774343252, 5220033.63713866], [629651.3283010079, 5220033.6587988725], [629651.3109310248, 5220033.6685923785], [629651.2929048948, 5220033.677118103], [629651.2468483851, 5220033.7047233125], [629651.200074723, 5220033.731095137], [629651.1837483094, 5220033.742544043], [629651.1666446505, 5220033.752795582], [629651.1235157024, 5220033.78478219], [629651.0795521558, 5220033.815611649], [629651.0644265481, 5220033.828605693], [629651.0484100737, 5220033.84048432], [629651.0086240488, 5220033.876544272], [629650.9678940045, 5220033.911534468], [629650.9541148638, 5220033.925948517], [629650.9393398282, 5220033.939339829], [629650.9032798803, 5220033.97912585], [629650.8661755982, 5220034.017939805], [629650.8538756343, 5220034.033635035], [629650.84048432, 5220034.048410074], [629650.8084977187, 5220034.091539013], [629650.7753765407, 5220034.133802919], [629620.5655679568, 5220076.844221951], [629608.4992301766, 5220072.5855145], [629608.358182423, 5220072.5433925195], [629608.213685177, 5220072.515298466], [629608.0671300258, 5220072.501502899], [629607.9199283759, 5220072.50213868], [629607.7734978594, 5220072.517199683], [629607.6292486823, 5220072.546540864], [629607.4885700431, 5220072.589879651], [629607.352816754, 5220072.6467986675], [629607.2232961934, 5220072.716749753], [629607.1012557149, 5220072.799059239], [629606.9878706352, 5220072.8929344425], [629606.8842329147, 5220072.997471292], [629606.7913406411, 5220073.11166304], [629606.7100884177, 5220073.234409959], [629606.6412587482, 5220073.364529929], [629606.5855144996, 5220073.500769824], [629606.5433925197, 5220073.641817577], [629606.515298466, 5220073.786314823], [629606.5015028997, 5220073.9328699745], [629606.5021386796, 5220074.080071624], [629606.5171996829, 5220074.226502141], [629606.5465408638, 5220074.370751318], [629606.5898796507, 5220074.511429957], [629606.6467986675, 5220074.647183246], [629606.7167497529, 5220074.776703807], [629606.7990592396, 5220074.898744285], [629606.8929344423, 5220075.012129365], [629606.9974712915, 5220075.115767085], [629607.1116630402, 5220075.208659359], [629607.2344099595, 5220075.289911582], [629607.3645299294, 5220075.358741252], [629607.5007698234, 5220075.4144855], [629618.7648620959, 5220079.3900474785], [629559.6925141135, 5220162.906125661], [629555.4951415999, 5220161.583317353], [629542.538468619, 5220156.599981591], [629542.3986499445, 5220156.553943908], [629542.2549920531, 5220156.521832536], [629542.108878449, 5220156.503956724], [629541.9617162857, 5220156.500488627], [629541.8149228157, 5220156.511461644], [629541.66991174, 5220156.5367701], [629541.5280795947, 5220156.576170259], [629541.3907923009, 5220156.629282677], [629541.2593720104, 5220156.695595852], [629541.1350843721, 5220156.774471153], [629541.0191263442, 5220156.865148965], [629540.9126146658, 5220156.966756014], [629540.8165751026, 5220157.078313767], [629540.7319325681, 5220157.198747862], [629540.6595022161, 5220157.326898454], [629540.5999815906, 5220157.461531381], [629540.5539439078, 5220157.601350055], [629540.5218325356, 5220157.745007947], [629540.5039567241, 5220157.891121551], [629540.5004886272, 5220158.038283714], [629540.5114616445, 5220158.185077185], [629540.5367700999, 5220158.33008826], [629540.5761702592, 5220158.4719204055], [629540.6292826771, 5220158.609207699], [629540.6955958522, 5220158.74062799], [629540.7744711522, 5220158.864915628], [629540.8651489652, 5220158.9808736555], [629540.9667560138, 5220159.087385334], [629541.0783137669, 5220159.1834248975], [629541.1987478622, 5220159.268067432], [629541.3268984538, 5220159.340497783], [629541.461531381, 5220159.400018409], [629554.461531381, 5220164.400018409], [629554.5491329479, 5220164.430635838], [629557.8732224423, 5220165.478227679], [629505.7753765407, 5220239.133802919], [629505.6916629688, 5220239.266341897], [629505.6222390786, 5220239.4068939015], [629505.5678631194, 5220239.553923823], [629505.5291289864, 5220239.705825797], [629505.2928709302, 5220240.887116078], [629505.2559407277, 5220213.361379142], [629510.1888144141, 5220154.430705454], [629529.8701344425, 5220132.383803646], [629529.950025784, 5220132.286362607], [629530.021457064, 5220132.182560127], [629544.566499888, 5220109.0195090575], [629544.6318313096, 5220108.904502515], [629544.6867775153, 5220108.784187869], [629552.7527661858, 5220088.838858647], [629613.8685756323, 5220009.190065466], [629684.1795809038, 5219917.548987646], [629690.623311692, 5219909.151739061], [629745.641019132, 5219840.179733031], [629813.560062404, 5219755.024945804], [629860.0214135217, 5219696.7730892915], [629860.0287639257, 5219696.762883882], [629860.0371666863, 5219696.75298982], [629869.7790653867, 5219684.102968625], [629890.7349895026, 5219665.984810073], [629900.7148068153, 5219661.927275125], [629907.8954893713, 5219665.329704402], [629912.6094507808, 5219670.510296711], [629912.6881628071, 5219670.590542448], [629912.7726629721, 5219670.66466858], [629942.2999888412, 5219694.670241595], [629942.3336943543, 5219694.696851772], [629971.5993696083, 5219717.129311096], [629980.0468745425, 5219726.346579069], [629997.9425635333, 5219748.513876226], [629997.6542695474, 5219748.295719623], [629997.31953851, 5219748.090673582], [629996.9663212675, 5219747.919424272], [629996.5980194949, 5219747.783620918], [629996.2181801397, 5219747.684571382], [629995.8304612624, 5219747.623229563], [629995.4385968078, 5219747.6001862185], [629995.046360645, 5219747.615663266], [629994.6575302223, 5219747.669511654], [629994.2758501896, 5219747.761212795], [629993.9049963341, 5219747.889883555], [629993.548540181, 5219748.0542847635], [629993.2099145983, 5219748.2528331475], [629992.892380735, 5219748.483616579], [629992.5989966162, 5219748.744412486], [629992.3325876911, 5219749.032709263], [629976.9325876911, 5219767.432709264], [629976.929196104, 5219767.436766996], [629774.929196104, 5220009.436766996], [629774.6927420951, 5220009.75010108], [629774.4881387877, 5220010.08510292], [629774.3173566236, 5220010.438546266], [629774.1820403283, 5220010.807027265], [629774.0834930717, 5220011.186997244], [629774.0226639179, 5220011.574796884], [629774.0001386848, 5220011.966691462], [629774.0161343026, 5220012.3589068195], [629774.0704967249, 5220012.747665708], [629774.1627024119, 5220013.129224167], [629774.2918633723, 5220013.49990758], [629774.4567357155, 5220013.856146064], [629774.6557316307, 5220014.194508846], [629774.8869346785, 5220014.5117373075], [629775.1481182472, 5220014.804776367], [629775.4367669959, 5220015.070803896], [629775.7501010799, 5220015.307257905], [629776.0851029203, 5220015.511861213], [629776.4385462664, 5220015.682643376], [629776.8070272655, 5220015.817959672], [629777.1869972443, 5220015.916506928], [629777.5747968839, 5220015.977336082], [629777.9666914621, 5220015.999861315], [629778.3589068196, 5220015.983865697], [629778.7476657083, 5220015.929503275], [629779.1292241674, 5220015.837297588], [629779.4999075807, 5220015.708136627], [629779.8561460639, 5220015.543264285], [629780.1945088458, 5220015.3442683695], [629780.511737308, 5220015.113065322], [629780.8047763668, 5220014.851881753], [629781.070803896, 5220014.563233004], [629983.0691095757, 5219772.565262833], [629998.4674123089, 5219754.167290736], [629998.7042803767, 5219753.854269547], [629998.9093264181, 5219753.51953851], [629999.0805757277, 5219753.166321267], [629999.216379081, 5219752.798019495], [629999.3154286175, 5219752.418180139], [629999.3767704362, 5219752.030461262], [629999.3998137815, 5219751.638596808], [629999.3843367336, 5219751.246360645], [629999.3304883449, 5219750.857530222], [629999.2387872048, 5219750.475850189], [629999.1101164455, 5219750.104996334], [629998.9542518029, 5219749.767049239], [630012.9978715354, 5219767.16280818], [630019.1472365824, 5219779.672968311], [630031.6322571468, 5219805.647299768], [630031.1897049798, 5219810.866949537], [630027.8430596429, 5219815.560565477], [630026.6921910228, 5219816.06351617], [630026.4761894798, 5219816.170599085], [630026.2715068671, 5219816.297990001], [630026.0800466812, 5219816.444504214], [630025.9035894534, 5219816.608779179], [630025.7437761913, 5219816.789287181], [629980.9830071063, 5219872.54723902], [629964.7294317543, 5219891.21979356], [629964.6097669542, 5219891.3683526665], [629949.3484628263, 5219911.869038348], [629922.4494883604, 5219943.480386784], [629922.3012568341, 5219943.672792622], [629900.031442259, 5219975.68301307], [629858.7223427307, 5220032.51780726], [629828.7708230203, 5220072.203028807], [629811.2708731877, 5220094.437655081], [629798.7613679767, 5220109.3491033], [629788.3823650847, 5220120.276595392], [629788.3592763642, 5220120.152850906], [629788.3182229883, 5220120.011488428], [629788.2635113497, 5220119.874830583], [629788.1956683514, 5220119.744193462], [629788.1153473586, 5220119.62083517], [629788.0233219063, 5220119.5059437165], [629787.9204782501, 5220119.400625568], [629787.8078068305, 5220119.305894997], [629787.6863927348, 5220119.22266431], [629787.5574052472, 5220119.151735063], [629787.4220865876, 5220119.093790345], [629787.2817399489, 5220119.049388194], [629785.3817399489, 5220118.549388194], [629785.3638034376, 5220118.54478625], [629625.4324778324, 5220078.5619548485], [629623.506090832, 5220077.882053554], [629652.7763238339, 5220036.5], [629654.8353416563, 5220036.5], [629699.6746043132, 5220046.46428059], [629699.8230198611, 5220046.489522752], [629699.9732181372, 5220046.499760891], [629700.123686188, 5220046.494891878], [629700.2729083428, 5220046.474964757], [629700.4193814808, 5220046.440180257]], [[629505.705710959, 5220251.323620807], [629505.8320502944, 5220251.248075441], [629505.9503765304, 5220251.160510426], [629506.0595501211, 5220251.061769062], [629506.1585196648, 5220250.952802281], [629506.2463320307, 5220250.834659493], [629506.322141538, 5220250.708478478], [629506.3852180995, 5220250.575474428], [629506.4349542535, 5220250.436928244], [629506.4351787684, 5220250.436035892], [629529.3387229445, 5220260.320444177], [629529.4636006787, 5220260.3678594725], [629595.6589209232, 5220282.1823425535], [629595.769776542, 5220282.214205374], [629643.2736792812, 5220293.910941217], [629631.9807680574, 5220304.818701659], [629631.7706460678, 5220305.048634998], [629592.7890662382, 5220353.444268644], [629557.8163042165, 5220396.496954335], [629530.4161518832, 5220428.368679176], [629530.2537282035, 5220428.57931473], [629518.6007883752, 5220445.479515352], [629518.5549467468, 5220445.548412046], [629514.6428345774, 5220451.644452227], [629514.4949199412, 5220451.908947316], [629513.9318524073, 5220453.076795117], [629510.2911267525, 5220443.188043125], [629510.272667726, 5220443.140422311], [629506.8508714847, 5220434.740089075], [629505.3045837717, 5220420.941183776], [629503.5227919669, 5220382.539244486], [629502.4775859907, 5220318.642415523], [629505.1508304753, 5220251.492139783], [629505.2910964432, 5220251.471483218], [629505.4339253113, 5220251.435865183], [629505.5725752414, 5220251.3864189815], [629505.705710959, 5220251.323620807]], [[629705.5202130374, 5220214.503815005], [629705.5032216363, 5220214.5243693525], [629661.4888088998, 5220268.350266553], [629661.4349314058, 5220268.418544161], [629653.6845305004, 5220278.599743118], [629653.5510974511, 5220278.793270899], [629645.6958916273, 5220291.417751551], [629596.5430749536, 5220279.31500884], [629530.4660650479, 5220257.539514601], [629507.0434843709, 5220247.431107416], [629508.4084429968, 5220240.606314287], [629560.8780165281, 5220166.425193087], [629707.1701893215, 5220212.529392998], [629705.5202130374, 5220214.503815005]], [[629624.6361965624, 5220081.45521375], [629784.6272140982, 5220121.452968134], [629786.5182600511, 5220121.950611806], [629786.6622830542, 5220121.981043772], [629786.7538572088, 5220121.991163461], [629774.6969833653, 5220134.68519534], [629761.4511935033, 5220147.165460803], [629761.3035073328, 5220147.316907814], [629745.6451114669, 5220164.796108277], [629745.524848064, 5220164.940982567], [629734.7182072381, 5220179.00478618], [629726.2680481813, 5220187.848363037], [629726.1426744822, 5220187.989926006], [629726.0283595753, 5220188.140560465], [629718.1073165222, 5220199.441626318], [629709.2508079733, 5220210.039648574], [629562.6973081991, 5220163.8530910695], [629621.7053849711, 5220080.427879082], [629624.5007698234, 5220081.4144855], [629624.6361965624, 5220081.45521375]], [[629451.0094960504, 5220477.416858437], [629450.9578087581, 5220477.739996783], [629450.6717867273, 5220480.802839562], [629439.1773136915, 5220508.968511269], [629424.0244576868, 5220524.906328407], [629400.0686614792, 5220540.381749206], [629399.9932360612, 5220540.433806987], [629213.7233689955, 5220677.581161312], [629198.6321931672, 5220687.751644334], [629198.5372215613, 5220687.821220525], [629198.4479990936, 5220687.898030703], [629194.0872487554, 5220691.960754176], [629201.1749334917, 5220650.32690671], [629226.7737278701, 5220546.178021946], [629255.6767094118, 5220530.515976622], [629255.8572709595, 5220530.400738049], [629340.0397637514, 5220467.786871675], [629340.0801827289, 5220467.75572691], [629393.2548274524, 5220425.321310069], [629476.2179831372, 5220373.097838459], [629471.9111714808, 5220388.9605115], [629471.8951325044, 5220389.025243546], [629454.5686818786, 5220466.270700711], [629454.4785281878, 5220466.310316978], [629454.2646749951, 5220466.430557273], [629454.0636371739, 5220466.571179857], [629453.8773508281, 5220466.730830456], [629453.7076099974, 5220466.90797155], [629453.5560493785, 5220467.100897172], [629453.424128583, 5220467.307749341], [629453.3131180806, 5220467.526535961], [629453.2240869629, 5220467.755149995], [629453.1578926481, 5220467.991389766], [629451.0094960504, 5220477.416858437]], [[629247.9597394473, 5220445.78477719], [629256.7675602515, 5220402.695790741], [629257.769940243, 5220398.967866673], [629306.3833622385, 5220365.013006367], [629356.4842862096, 5220332.82432711], [629356.5650221847, 5220332.768645154], [629407.2967513418, 5220295.274786905], [629437.3677858016, 5220279.185783495], [629437.5490591039, 5220279.071430121], [629494.5375776503, 5220237.144868301], [629502.2828954159, 5220248.11505761], [629499.4895972799, 5220318.281008064], [629493.4234560352, 5220332.067202473], [629487.299378468, 5220341.068029774], [629487.2088190721, 5220341.219602081], [629487.1366976949, 5220341.380765586], [629482.5867735269, 5220353.399812938], [629482.5674976648, 5220353.45382881], [629477.4211740142, 5220368.795575364], [629391.5856793658, 5220422.827120825], [629391.4491351099, 5220422.924122032], [629338.2288748936, 5220465.394940937], [629254.1530126899, 5220527.929496837], [629227.6178431192, 5220542.308464207], [629238.9927055776, 5220488.748748161], [629239.0176261988, 5220488.589947754], [629242.0867508315, 5220458.620872257], [629247.8523804079, 5220446.11228178], [629247.9154974391, 5220445.951623188], [629247.9597394473, 5220445.78477719]], [[629190.8438201867, 5220703.106533084], [629189.9755170549, 5220702.696311546], [629190.5259768139, 5220702.287935675], [629190.8438201867, 5220703.106533084]], [[629491.5402751919, 5220434.723888626], [629491.4276830342, 5220434.794636806], [629491.321798949, 5220434.8750784565], [629481.6129307894, 5220442.954136687], [629471.9154207994, 5220450.2233488755], [629471.8463771277, 5220450.278349809], [629462.7237782382, 5220457.995008252], [629462.6364324305, 5220458.0750184525], [629462.5556722948, 5220458.16167134], [629458.3718931442, 5220463.022119945], [629474.8150977483, 5220389.714384602], [629480.109201542, 5220370.2153574275], [629485.4026184415, 5220354.435110014], [629489.8795502076, 5220342.608878872], [629495.981176121, 5220333.6410497585], [629496.0530601743, 5220333.524253285], [629496.11397624, 5220333.401379501], [629499.5894073615, 5220325.502953276], [629500.5235613855, 5220382.6108164685], [629500.524972757, 5220382.655806114], [629502.3100760197, 5220421.129115363], [629502.3177940974, 5220421.226634998], [629503.634617105, 5220432.977821938], [629500.33280043, 5220431.91939808], [629500.1984807376, 5220431.883116949], [629500.0613772052, 5220431.85943739], [629499.9226694164, 5220431.848563131], [629499.7835507578, 5220431.850587729], [629499.6452181507, 5220431.865493767], [629499.5088617534, 5220431.893152999], [629499.375654722, 5220431.933327455], [629491.7819986038, 5220434.61361612], [629491.6586905827, 5220434.663389916], [629491.5402751919, 5220434.723888626]], [[630033.8709535847, 5219812.274002228], [630033.9569449555, 5219812.138633763], [630034.0279926858, 5219811.994858393], [630034.0766121198, 5219811.862486313], [630034.9489156071, 5219814.107221306], [630032.7461459888, 5219813.851526683], [630033.8709535847, 5219812.274002228]], [[630235.4422494005, 5219483.104789362], [630235.4995639106, 5219483.0670439005], [630256.1679166525, 5219468.767129077], [630273.9819034198, 5219461.652292379], [630243.866508835, 5219549.357335672], [630239.5664300487, 5219552.756392774], [630216.3749770403, 5219560.225194876], [630214.9557943209, 5219558.220330927], [630203.4181286223, 5219505.959386217], [630215.6746712913, 5219495.484207587], [630235.4422494005, 5219483.104789362]], [[630352.9383797848, 5219447.835942269], [630345.5623988569, 5219526.1659708405], [630345.5607821216, 5219526.184350302], [630344.1531720655, 5219543.398667545], [630314.8532114134, 5219632.973812096], [630314.8175921596, 5219633.101566048], [630314.7933968037, 5219633.231966924], [630310.908632828, 5219660.951935947], [630301.7197957633, 5219652.085068332], [630290.0608152009, 5219640.359887302], [630267.5288173256, 5219609.0417659], [630254.842275184, 5219583.21456623], [630254.7869364062, 5219583.112152912], [630245.9337703837, 5219568.147184482], [630242.0065229128, 5219554.6516557755], [630246.0723665367, 5219551.437753116], [630246.1800018545, 5219551.344015225], [630246.2782404537, 5219551.240471362], [630246.3661928534, 5219551.1280590445], [630246.443062707, 5219551.0077960845], [630246.5081540125, 5219550.880771379], [630246.5608774142, 5219550.748135046], [630278.1584599896, 5219458.726516671], [630298.9605923078, 5219443.638634648], [630299.0618077258, 5219443.558349945], [630299.1557394743, 5219443.469653715], [630353.3260692277, 5219387.71441638], [630353.4017567778, 5219387.630397323], [630375.3439914868, 5219361.344441399], [630383.9357384862, 5219354.393571627], [630365.0622110426, 5219397.429711453], [630365.014241276, 5219397.553779157], [630364.9774514961, 5219397.681608753], [630352.9733083231, 5219447.62602618], [630352.9383797848, 5219447.835942269]], [[630227.2804477508, 5219575.585458642], [630221.6918363494, 5219567.717677121], [630218.1945233805, 5219562.790947138], [630239.2750272698, 5219556.001975714], [630242.7961138157, 5219568.101779688], [630233.577079861, 5219574.14457963], [630227.2804477508, 5219575.585458642]], [[630258.8298433301, 5219718.263130859], [630253.4916805918, 5219695.541922723], [630240.4711376139, 5219637.794228405], [630240.4573539101, 5219637.7381498385], [630231.397645091, 5219603.718196659], [630228.2917808992, 5219578.431576765], [630234.508773186, 5219577.008921996], [630234.6371461651, 5219576.973481284], [630234.761869743, 5219576.926794081], [630234.8819607836, 5219576.869228399], [630234.9964726672, 5219576.801238], [630244.0551060069, 5219570.863575845], [630252.1752723706, 5219584.589516709], [630264.8915085829, 5219610.477167422], [630264.9513854631, 5219610.587200241], [630265.0202347003, 5219610.691853214], [630287.6953315466, 5219642.208873576], [630287.7687004654, 5219642.302749578], [630287.8492886674, 5219642.390506309], [630299.6034050225, 5219654.211363319], [630299.6254827724, 5219654.233112381], [630310.3942668865, 5219664.624566973], [630309.1522746244, 5219673.514371408], [630283.32298166, 5219745.9680145895], [630283.319728904, 5219745.9772337545], [630274.7724342901, 5219770.456459761], [630258.8298433301, 5219718.263130859]]]]}}]}