{"type": "FeatureCollection", "name": "siret3_study_area", "crs": {"type": "name", "properties": {"name": "urn:ogc:def:crs:EPSG::32635"}}, "features": [{"type": "Feature", "properties": {"name": "study area, 311 tiles"}, "geometry": {"type": "Polygon", "coordinates": [[[629196.8, 5220454.4], [629196.8, 5220505.6], [629145.6, 5220505.6], [629145.6, 5220556.8], [629094.4, 5220556.8], [629094.4, 5220608.0], [629043.2, 5220608.0], [629043.2, 5220659.2], [628992.0, 5220659.2], [628992.0, 5220710.4], [628992.0, 5220761.6], [628992.0, 5220812.8], [629043.2, 5220812.8], [629043.2, 5220864.0], [629094.4, 5220864.0], [629094.4, 5220915.2], [629145.6, 5220915.2], [629196.8, 5220915.2], [629196.8, 5220966.4], [629248.0, 5220966.4], [629248.0, 5220915.2], [629248.0, 5220864.0], [629248.0, 5220812.8], [629299.2, 5220812.8], [629299.2, 5220761.6], [629350.4, 5220761.6], [629350.4, 5220710.4], [629350.4, 5220659.2], [629401.6, 5220659.2], [629452.8, 5220659.2], [629452.8, 5220608.0], [629504.0, 5220608.0], [629504.0, 5220556.8], [629504.0, 5220505.6], [629555.2, 5220505.6], [629555.2, 5220454.4], [629606.4, 5220454.4], [629606.4, 5220403.2], [629606.4, 5220352.0], [629657.6, 5220352.0], [629657.6, 5220300.8], [629708.8, 5220300.8], [629708.8, 5220249.6], [629760.0, 5220249.6], [629760.0, 5220198.4], [629811.2, 5220198.4], [629811.2, 5220147.2], [629862.4, 5220147.2], [629862.4, 5220096.0], [629913.6, 5220096.0], [629913.6, 5220044.8], [629913.6, 5219993.6], [629964.8, 5219993.6], [629964.8, 5219942.4], [630016.0, 5219942.4], [630016.0, 5219891.2], [630067.2, 5219891.2], [630118.4, 5219891.2], [630169.6, 5219891.2], [630169.6, 5219840.0], [630220.8, 5219840.0], [630272.0, 5219840.0], [630323.2, 5219840.0], [630374.4, 5219840.0], [630425.6, 5219840.0], [630425.6, 5219788.8], [630476.8, 5219788.8], [630476.8, 5219840.0], [630476.8, 5219891.2], [630528.0, 5219891.2], [630579.2, 5219891.2], [630579.2, 5219942.4], [630630.4, 5219942.4], [630630.4, 5219891.2], [630681.6, 5219891.2], [630681.6, 5219840.0], [630732.8, 5219840.0], [630732.8, 5219788.8], [630732.8, 5219737.6], [630732.8, 5219686.4], [630681.6, 5219686.4], [630681.6, 5219635.2], [630630.4, 5219635.2], [630630.4, 5219584.0], [630579.2, 5219584.0], [630579.2, 5219532.8], [630579.2, 5219481.6], [630528.0, 5219481.6], [630528.0, 5219430.4], [630476.8, 5219430.4], [630476.8, 5219379.2], [630425.6, 5219379.2], [630425.6, 5219328.0], [630374.4, 5219328.0], [630374.4, 5219276.8], [630323.2, 5219276.8], [630323.2, 5219225.6], [630272.0, 5219225.6], [630220.8, 5219225.6], [630220.8, 5219174.4], [630169.6, 5219174.4], [630169.6, 5219225.6], [630118.4, 5219225.6], [630118.4, 5219276.8], [630118.4, 5219328.0], [630067.2, 5219328.0], [630067.2, 5219379.2], [630016.0, 5219379.2], [630016.0, 5219430.4], [629964.8, 5219430.4], [629964.8, 5219481.6], [629913.6, 5219481.6], [629913.6, 5219532.8], [629913.6, 5219584.0], [629862.4, 5219584.0], [629862.4, 5219635.2], [629811.2, 5219635.2], [629811.2, 5219686.4], [629760.0, 5219686.4], [629760.0, 5219737.6], [629708.8, 5219737.6], [629708.8, 5219788.8], [629657.6, 5219788.8], [629657.6, 5219840.0], [629657.6, 5219891.2], [629606.4, 5219891.2], [629606.4, 5219942.4], [629555.2, 5219942.4], [629555.2, 5219993.6], [629504.0, 5219993.6], [629504.0, 5220044.8], [629504.0, 5220096.0], [629452.8, 5220096.0], [629452.8, 5220147.2], [629401.6, 5220147.2], [629401.6, 5220198.4], [629401.6, 5220249.6], [629350.4, 5220249.6], [629350.4, 5220300.8], [629299.2, 5220300.8], [629299.2, 5220352.0], [629248.0, 5220352.0], [629248.0, 5220403.2], [629196.8, 5220403.2], [629196.8, 5220454.4]]]}}]}