{"type":"FeatureCollection","features":[{"type":"Feature","id":1,"properties":{"vineyard_id":"V01","outline_area_m2":2614.32,"row_count":25,"row_length_m":910.09,"canopy_count":399,"canopy_area_m2":237.11,"interrow_area_m2":2068.03,"plant_count":399,"disrupted_rows":0},"geometry":{"type":"Polygon","coordinates":[[[28.7086745,47.1216598],[28.7087164,47.1216211],[28.7087269,47.1216208],[28.7093479,47.1216115],[28.7093623,47.1220609],[28.7093622,47.1220686],[28.7093587,47.122071],[28.7093551,47.1220721],[28.708688,47.1220821],[28.7086745,47.1216598]]]}},{"type":"Feature","id":2,"properties":{"vineyard_id":"V02","outline_area_m2":2614.87,"row_count":26,"row_length_m":1031.49,"canopy_count":251,"canopy_area_m2":299.06,"interrow_area_m2":1996.36,"plant_count":251,"disrupted_rows":5},"geometry":{"type":"Polygon","coordinates":[[[28.7034973,47.1286431],[28.7035164,47.1286097],[28.7035251,47.1286094],[28.7041678,47.1285998],[28.7041713,47.1286084],[28.7041842,47.1290111],[28.7041842,47.1290216],[28.7041812,47.1290304],[28.7041731,47.1290443],[28.7041712,47.129047],[28.7041642,47.1290568],[28.704161,47.1290598],[28.7041568,47.1290607],[28.703511,47.1290703],[28.7034973,47.1286431]]]}}]}