{"type":"FeatureCollection","features":[{"type":"Feature","id":1,"properties":{"interrow_id":"siret3_r021_c012#IR001","vineyard_id":"V01","interrow_cover":"bare_soil","tile":"siret3_r021_c012","area_m2":7.46},"geometry":{"type":"Polygon","coordinates":[[[28.7093623,47.1220609],[28.7093473,47.1220722],[28.7093147,47.1220727],[28.7093614,47.1220316],[28.7093623,47.1220609]]]}},{"type":"Feature","id":2,"properties":{"interrow_id":"siret3_r021_c012#IR002","vineyard_id":"V01","interrow_cover":"bare_soil","tile":"siret3_r021_c012","area_m2":21.58},"geometry":{"type":"Polygon","coordinates":[[[28.7093611,47.122023],[28.7093045,47.1220729],[28.7092676,47.1220734],[28.70936,47.1219882],[28.7093611,47.122023]]]}},{"type":"Feature","id":3,"properties":{"interrow_id":"siret3_r021_c012#IR003","vineyard_id":"V01","interrow_cover":"bare_soil","tile":"siret3_r021_c012","area_m2":32.11},"geometry":{"type":"Polygon","coordinates":[[[28.7092223,47.1220741],[28.7093587,47.1219485],[28.7093597,47.1219794],[28.7092577,47.1220736],[28.7092223,47.1220741]]]}},{"type":"Feature","id":4,"properties":{"interrow_id":"siret3_r021_c012#IR004","vineyard_id":"V01","interrow_cover":"bare_soil","tile":"siret3_r021_c012","area_m2":51.74},"geometry":{"type":"Polygon","coordinates":[[[28.7091719,47.1220749],[28.7093573,47.1219034],[28.7093584,47.1219397],[28.7092123,47.1220743],[28.7091719,47.1220749]]]}},{"type":"Feature","id":5,"properties":{"interrow_id":"siret3_r021_c012#IR005","vineyard_id":"V01","interrow_cover":"bare_soil","tile":"siret3_r021_c012","area_m2":60.56},"geometry":{"type":"Polygon","coordinates":[[[28.7091261,47.1220755],[28.7093559,47.1218608],[28.709357,47.1218946],[28.709162,47.122075],[28.7091261,47.1220755]]]}},{"type":"Feature","id":6,"properties":{"interrow_id":"siret3_r021_c012#IR006","vineyard_id":"V01","interrow_cover":"bare_soil","tile":"siret3_r021_c012","area_m2":74.67},"geometry":{"type":"Polygon","coordinates":[[[28.7090781,47.1220763],[28.7093546,47.1218191],[28.7093556,47.1218519],[28.7091162,47.1220757],[28.7090781,47.1220763]]]}},{"type":"Feature","id":7,"properties":{"interrow_id":"siret3_r021_c012#IR007","vineyard_id":"V01","interrow_cover":"bare_soil","tile":"siret3_r021_c012","area_m2":95.68},"geometry":{"type":"Polygon","coordinates":[[[28.7090254,47.1220771],[28.7093532,47.1217761],[28.7093543,47.1218103],[28.7090681,47.1220764],[28.7090254,47.1220771]]]}},{"type":"Feature","id":8,"properties":{"interrow_id":"siret3_r021_c012#IR008","vineyard_id":"V01","interrow_cover":"bare_soil","tile":"siret3_r021_c012","area_m2":98.41},"geometry":{"type":"Polygon","coordinates":[[[28.7089791,47.1220777],[28.7093519,47.1217354],[28.7093529,47.1217673],[28.7090154,47.1220772],[28.7089791,47.1220777]]]}},{"type":"Feature","id":9,"properties":{"interrow_id":"siret3_r021_c012#IR009","vineyard_id":"V01","interrow_cover":"bare_soil","tile":"siret3_r021_c012","area_m2":162.89},"geometry":{"type":"Polygon","coordinates":[[[28.7089181,47.1220787],[28.7093501,47.1216793],[28.7093516,47.1217266],[28.7089691,47.1220779],[28.7089181,47.1220787]]]}},{"type":"Feature","id":10,"properties":{"interrow_id":"siret3_r021_c012#IR010","vineyard_id":"V01","interrow_cover":"bare_soil","tile":"siret3_r021_c012","area_m2":179.49},"geometry":{"type":"Polygon","coordinates":[[[28.7088587,47.1220795],[28.7093484,47.1216254],[28.7093498,47.1216705],[28.7089081,47.1220788],[28.7088587,47.1220795]]]}},{"type":"Feature","id":11,"properties":{"interrow_id":"siret3_r021_c012#IR011","vineyard_id":"V01","interrow_cover":"bare_soil","tile":"siret3_r021_c012","area_m2":122.25},"geometry":{"type":"Polygon","coordinates":[[[28.7088175,47.1220802],[28.709322,47.1216119],[28.7093479,47.1216115],[28.7093481,47.1216166],[28.7088488,47.1220797],[28.7088175,47.1220802]]]}},{"type":"Feature","id":12,"properties":{"interrow_id":"siret3_r021_c012#IR012","vineyard_id":"V01","interrow_cover":"bare_soil","tile":"siret3_r021_c012","area_m2":134.59},"geometry":{"type":"Polygon","coordinates":[[[28.7087736,47.1220808],[28.7092766,47.1216126],[28.709312,47.121612],[28.7088075,47.1220803],[28.7087736,47.1220808]]]}},{"type":"Feature","id":13,"properties":{"interrow_id":"siret3_r021_c012#IR013","vineyard_id":"V01","interrow_cover":"bare_soil","tile":"siret3_r021_c012","area_m2":139.26},"geometry":{"type":"Polygon","coordinates":[[[28.7087298,47.1220815],[28.7092287,47.1216133],[28.7092666,47.1216127],[28.7087636,47.122081],[28.7087298,47.1220815]]]}},{"type":"Feature","id":14,"properties":{"interrow_id":"siret3_r021_c012#IR014","vineyard_id":"V01","interrow_cover":"bare_soil","tile":"siret3_r021_c012","area_m2":131.78},"geometry":{"type":"Polygon","coordinates":[[[28.708688,47.1220821],[28.7086879,47.1220796],[28.7091856,47.1216139],[28.7092188,47.1216134],[28.7087199,47.1220816],[28.708688,47.1220821]]]}},{"type":"Feature","id":15,"properties":{"interrow_id":"siret3_r021_c012#IR015","vineyard_id":"V01","interrow_cover":"bare_soil","tile":"siret3_r021_c012","area_m2":123.37},"geometry":{"type":"Polygon","coordinates":[[[28.7086867,47.1220408],[28.7091417,47.1216146],[28.7091757,47.1216141],[28.7086876,47.1220707],[28.7086867,47.1220408]]]}},{"type":"Feature","id":16,"properties":{"interrow_id":"siret3_r021_c012#IR016","vineyard_id":"V01","interrow_cover":"bare_soil","tile":"siret3_r021_c012","area_m2":116.7},"geometry":{"type":"Polygon","coordinates":[[[28.7086854,47.1220007],[28.7090966,47.1216152],[28.7091318,47.1216147],[28.7086864,47.1220319],[28.7086854,47.1220007]]]}},{"type":"Feature","id":17,"properties":{"interrow_id":"siret3_r021_c012#IR017","vineyard_id":"V01","interrow_cover":"bare_soil","tile":"siret3_r021_c012","area_m2":120.75},"geometry":{"type":"Polygon","coordinates":[[[28.7086839,47.1219549],[28.7090465,47.121616],[28.7090866,47.1216154],[28.7086851,47.1219918],[28.7086839,47.1219549]]]}},{"type":"Feature","id":18,"properties":{"interrow_id":"siret3_r021_c012#IR018","vineyard_id":"V01","interrow_cover":"bare_soil","tile":"siret3_r021_c012","area_m2":101.88},"geometry":{"type":"Polygon","coordinates":[[[28.7086825,47.1219107],[28.7089975,47.1216167],[28.7090365,47.1216161],[28.7086836,47.1219461],[28.7086825,47.1219107]]]}},{"type":"Feature","id":19,"properties":{"interrow_id":"siret3_r021_c012#IR019","vineyard_id":"V01","interrow_cover":"bare_soil","tile":"siret3_r021_c012","area_m2":82.46},"geometry":{"type":"Polygon","coordinates":[[[28.7086812,47.1218694],[28.7089497,47.1216174],[28.7089875,47.1216169],[28.7086822,47.1219018],[28.7086812,47.1218694]]]}},{"type":"Feature","id":20,"properties":{"interrow_id":"siret3_r021_c012#IR020","vineyard_id":"V01","interrow_cover":"bare_soil","tile":"siret3_r021_c012","area_m2":66.2},"geometry":{"type":"Polygon","coordinates":[[[28.7086799,47.121829],[28.7089045,47.1216181],[28.7089397,47.1216176],[28.7086809,47.1218605],[28.7086799,47.121829]]]}},{"type":"Feature","id":21,"properties":{"interrow_id":"siret3_r021_c012#IR021","vineyard_id":"V01","interrow_cover":"bare_soil","tile":"siret3_r021_c012","area_m2":55.52},"geometry":{"type":"Polygon","coordinates":[[[28.7086785,47.1217859],[28.7088606,47.1216188],[28.7088946,47.1216183],[28.7086796,47.1218201],[28.7086785,47.1217859]]]}},{"type":"Feature","id":22,"properties":{"interrow_id":"siret3_r021_c012#IR022","vineyard_id":"V01","interrow_cover":"bare_soil","tile":"siret3_r021_c012","area_m2":43.87},"geometry":{"type":"Polygon","coordinates":[[[28.7088505,47.1216189],[28.7086782,47.1217771],[28.7086772,47.1217463],[28.7088109,47.1216195],[28.7088505,47.1216189]]]}},{"type":"Feature","id":23,"properties":{"interrow_id":"siret3_r021_c012#IR023","vineyard_id":"V01","interrow_cover":"bare_soil","tile":"siret3_r021_c012","area_m2":28.11},"geometry":{"type":"Polygon","coordinates":[[[28.708676,47.1217077],[28.7087676,47.1216202],[28.708801,47.1216197],[28.7086769,47.1217374],[28.708676,47.1217077]]]}},{"type":"Feature","id":24,"properties":{"interrow_id":"siret3_r021_c012#IR024","vineyard_id":"V01","interrow_cover":"bare_soil","tile":"siret3_r021_c012","area_m2":16.7},"geometry":{"type":"Polygon","coordinates":[[[28.7086748,47.1216692],[28.7087269,47.1216208],[28.7087577,47.1216203],[28.7086757,47.1216986],[28.7086748,47.1216692]]]}},{"type":"Feature","id":25,"properties":{"interrow_id":"siret3_r006_c004#IR025","vineyard_id":"V02","interrow_cover":"bare_soil","tile":"siret3_r006_c004","area_m2":15.72},"geometry":{"type":"Polygon","coordinates":[[[28.7041289,47.1290611],[28.7041828,47.1289679],[28.7041842,47.1290111],[28.7041548,47.1290608],[28.7041289,47.1290611]]]}},{"type":"Feature","id":26,"properties":{"interrow_id":"siret3_r006_c004#IR026","vineyard_id":"V02","interrow_cover":"bare_soil","tile":"siret3_r006_c004","area_m2":30.1},"geometry":{"type":"Polygon","coordinates":[[[28.7040918,47.1290617],[28.704181,47.1289103],[28.7041824,47.128954],[28.7041203,47.1290613],[28.7040918,47.1290617]]]}},{"type":"Feature","id":27,"properties":{"interrow_id":"siret3_r006_c004#IR027","vineyard_id":"V02","interrow_cover":"bare_soil","tile":"siret3_r006_c004","area_m2":49.01},"geometry":{"type":"Polygon","coordinates":[[[28.7040519,47.1290623],[28.704179,47.1288481],[28.7041805,47.1288966],[28.7040832,47.1290618],[28.7040519,47.1290623]]]}},{"type":"Feature","id":28,"properties":{"interrow_id":"siret3_r006_c004#IR028","vineyard_id":"V02","interrow_cover":"bare_soil","tile":"siret3_r006_c004","area_m2":57.56},"geometry":{"type":"Polygon","coordinates":[[[28.704018,47.1290628],[28.704177,47.1287871],[28.7041786,47.1288344],[28.7040433,47.1290624],[28.704018,47.1290628]]]}},{"type":"Feature","id":29,"properties":{"interrow_id":"siret3_r006_c004#IR029","vineyard_id":"V02","interrow_cover":"bare_soil","tile":"siret3_r006_c004","area_m2":72.69},"geometry":{"type":"Polygon","coordinates":[[[28.703982,47.1290633],[28.7041751,47.1287272],[28.7041766,47.1287731],[28.7040094,47.1290629],[28.703982,47.1290633]]]}},{"type":"Feature","id":30,"properties":{"interrow_id":"siret3_r006_c004#IR030","vineyard_id":"V02","interrow_cover":"bare_soil","tile":"siret3_r006_c004","area_m2":86.18},"geometry":{"type":"Polygon","coordinates":[[[28.7039428,47.1290639],[28.7041734,47.1286728],[28.7041747,47.1287132],[28.7039734,47.1290635],[28.7039428,47.1290639]]]}},{"type":"Feature","id":31,"properties":{"interrow_id":"siret3_r006_c004#IR031","vineyard_id":"V02","interrow_cover":"bare_soil","tile":"siret3_r006_c004","area_m2":107.24},"geometry":{"type":"Polygon","coordinates":[[[28.7039062,47.1290645],[28.7041713,47.1286084],[28.704173,47.1286591],[28.7039342,47.129064],[28.7039062,47.1290645]]]}},{"type":"Feature","id":32,"properties":{"interrow_id":"siret3_r006_c004#IR032","vineyard_id":"V02","interrow_cover":"bare_soil","tile":"siret3_r006_c004","area_m2":101.95},"geometry":{"type":"Polygon","coordinates":[[[28.7038713,47.129065],[28.7041416,47.1286002],[28.7041678,47.1285998],[28.7038976,47.1290646],[28.7038713,47.129065]]]}},{"type":"Feature","id":33,"properties":{"interrow_id":"siret3_r006_c004#IR033","vineyard_id":"V02","interrow_cover":"bare_soil","tile":"siret3_r006_c004","area_m2":102.85},"geometry":{"type":"Polygon","coordinates":[[[28.7038377,47.1290655],[28.7041051,47.1286008],[28.704133,47.1286003],[28.7038627,47.1290651],[28.7038377,47.1290655]]]}},{"type":"Feature","id":34,"properties":{"interrow_id":"siret3_r006_c004#IR034","vineyard_id":"V02","interrow_cover":"bare_soil","tile":"siret3_r006_c004","area_m2":120.77},"geometry":{"type":"Polygon","coordinates":[[[28.7037971,47.1290661],[28.7040663,47.1286013],[28.7040965,47.1286009],[28.7038291,47.1290656],[28.7037971,47.1290661]]]}},{"type":"Feature","id":35,"properties":{"interrow_id":"siret3_r006_c004#IR035","vineyard_id":"V02","interrow_cover":"bare_soil","tile":"siret3_r006_c004","area_m2":104.58},"geometry":{"type":"Polygon","coordinates":[[[28.7037623,47.1290666],[28.7040301,47.1286019],[28.7040578,47.1286015],[28.7037885,47.1290662],[28.7037623,47.1290666]]]}},{"type":"Feature","id":36,"properties":{"interrow_id":"siret3_r006_c004#IR036","vineyard_id":"V02","interrow_cover":"bare_soil","tile":"siret3_r006_c004","area_m2":109.25},"geometry":{"type":"Polygon","coordinates":[[[28.7037249,47.1290672],[28.7039942,47.1286024],[28.7040216,47.128602],[28.7037538,47.1290667],[28.7037249,47.1290672]]]}},{"type":"Feature","id":37,"properties":{"interrow_id":"siret3_r006_c004#IR037","vineyard_id":"V02","interrow_cover":"bare_soil","tile":"siret3_r006_c004","area_m2":108.99},"geometry":{"type":"Polygon","coordinates":[[[28.7036887,47.1290677],[28.7039571,47.128603],[28.7039856,47.1286025],[28.7037164,47.1290673],[28.7036887,47.1290677]]]}},{"type":"Feature","id":38,"properties":{"interrow_id":"siret3_r006_c004#IR038","vineyard_id":"V02","interrow_cover":"bare_soil","tile":"siret3_r006_c004","area_m2":112.51},"geometry":{"type":"Polygon","coordinates":[[[28.7036495,47.1290683],[28.7039212,47.1286035],[28.7039486,47.1286031],[28.7036801,47.1290678],[28.7036495,47.1290683]]]}},{"type":"Feature","id":39,"properties":{"interrow_id":"siret3_r006_c004#IR039","vineyard_id":"V02","interrow_cover":"mixed","tile":"siret3_r006_c004","area_m2":106.5},"geometry":{"type":"Polygon","coordinates":[[[28.7036138,47.1290688],[28.703885,47.128604],[28.7039126,47.1286036],[28.703641,47.1290684],[28.7036138,47.1290688]]]}},{"type":"Feature","id":40,"properties":{"interrow_id":"siret3_r006_c004#IR040","vineyard_id":"V02","interrow_cover":"mixed","tile":"siret3_r006_c004","area_m2":104.45},"geometry":{"type":"Polygon","coordinates":[[[28.7035791,47.1290693],[28.7038487,47.1286046],[28.7038764,47.1286042],[28.7036052,47.1290689],[28.7035791,47.1290693]]]}},{"type":"Feature","id":41,"properties":{"interrow_id":"siret3_r006_c004#IR041","vineyard_id":"V02","interrow_cover":"mixed","tile":"siret3_r006_c004","area_m2":109.89},"geometry":{"type":"Polygon","coordinates":[[[28.7035421,47.1290699],[28.703812,47.1286051],[28.7038402,47.1286047],[28.7035705,47.1290695],[28.7035421,47.1290699]]]}},{"type":"Feature","id":42,"properties":{"interrow_id":"siret3_r006_c004#IR042","vineyard_id":"V02","interrow_cover":"mixed","tile":"siret3_r006_c004","area_m2":101.87},"geometry":{"type":"Polygon","coordinates":[[[28.703511,47.1290703],[28.7035107,47.1290623],[28.7037784,47.1286056],[28.7038035,47.1286052],[28.7035335,47.12907],[28.703511,47.1290703]]]}},{"type":"Feature","id":43,"properties":{"interrow_id":"siret3_r006_c004#IR043","vineyard_id":"V02","interrow_cover":"bare_soil","tile":"siret3_r006_c004","area_m2":102.47},"geometry":{"type":"Polygon","coordinates":[[[28.7035088,47.1290017],[28.7037405,47.1286062],[28.7037698,47.1286057],[28.7035103,47.1290485],[28.7035088,47.1290017]]]}},{"type":"Feature","id":44,"properties":{"interrow_id":"siret3_r006_c004#IR044","vineyard_id":"V02","interrow_cover":"bare_soil","tile":"siret3_r006_c004","area_m2":75.31},"geometry":{"type":"Polygon","coordinates":[[[28.7035071,47.1289479],[28.703707,47.1286067],[28.7037319,47.1286063],[28.7035084,47.1289879],[28.7035071,47.1289479]]]}},{"type":"Feature","id":45,"properties":{"interrow_id":"siret3_r006_c004#IR045","vineyard_id":"V02","interrow_cover":"bare_soil","tile":"siret3_r006_c004","area_m2":66.92},"geometry":{"type":"Polygon","coordinates":[[[28.7035054,47.1288959],[28.7036699,47.1286072],[28.7036984,47.1286068],[28.7035066,47.1289342],[28.7035054,47.1288959]]]}},{"type":"Feature","id":46,"properties":{"interrow_id":"siret3_r006_c004#IR046","vineyard_id":"V02","interrow_cover":"bare_soil","tile":"siret3_r006_c004","area_m2":64.22},"geometry":{"type":"Polygon","coordinates":[[[28.7035033,47.1288305],[28.7036308,47.1286078],[28.7036614,47.1286074],[28.703505,47.1288818],[28.7035033,47.1288305]]]}},{"type":"Feature","id":47,"properties":{"interrow_id":"siret3_r006_c004#IR047","vineyard_id":"V02","interrow_cover":"bare_soil","tile":"siret3_r006_c004","area_m2":41.27},"geometry":{"type":"Polygon","coordinates":[[[28.7035015,47.1287729],[28.7035959,47.1286083],[28.7036223,47.1286079],[28.7035029,47.1288164],[28.7035015,47.1287729]]]}},{"type":"Feature","id":48,"properties":{"interrow_id":"siret3_r006_c004#IR048","vineyard_id":"V02","interrow_cover":"bare_soil","tile":"siret3_r006_c004","area_m2":27.82},"geometry":{"type":"Polygon","coordinates":[[[28.7034997,47.1287167],[28.7035615,47.1286088],[28.7035873,47.1286085],[28.703501,47.1287588],[28.7034997,47.1287167]]]}},{"type":"Feature","id":49,"properties":{"interrow_id":"siret3_r006_c004#IR049","vineyard_id":"V02","interrow_cover":"bare_soil","tile":"siret3_r006_c004","area_m2":16.27},"geometry":{"type":"Polygon","coordinates":[[[28.7034978,47.1286587],[28.7035251,47.1286094],[28.703553,47.128609],[28.7034992,47.1287026],[28.7034978,47.1286587]]]}}]}