{"type":"FeatureCollection","crs":{"type":"name","properties":{"name":"urn:ogc:def:crs:EPSG::32635"}},"features":[{"type":"Feature","properties":{"length_m":1461.52,"mock":true},"geometry":{"type":"LineString","coordinates":[[629504.7,5220250.75],[629244.7494,5220871.8825],[629241.4768,5220873.3835],[629233.6886,5220891.823],[629234.985,5220895.012],[629236.9971,5220903.7404],[629229.0279,5220902.8579],[629229.0671,5220909.0303],[629231.4685,5220909.9922],[629218.3756,5220888.3643],[629205.3838,5220867.1266],[629504.7,5220250.75]]}}]}