{"type":"FeatureCollection","features":[{"type":"Feature","id":1,"properties":{"row_id":"V01-R01","vineyard_id":"V01","row_structure":"regular","length_m":1.1,"plant_count":1,"max_gap_m":0.07,"tile_structures":{"siret3_r021_c012":"regular"}},"geometry":{"type":"MultiLineString","coordinates":[[[28.7093624,47.1220648],[28.7093527,47.1220722]]]}},{"type":"Feature","id":2,"properties":{"row_id":"V01-R02","vineyard_id":"V01","row_structure":"regular","length_m":6.4,"plant_count":3,"max_gap_m":0.48,"tile_structures":{"siret3_r021_c012":"regular"}},"geometry":{"type":"MultiLineString","coordinates":[[[28.7093612,47.1220273],[28.7093096,47.1220728]]]}},{"type":"Feature","id":3,"properties":{"row_id":"V01-R03","vineyard_id":"V01","row_structure":"regular","length_m":12.4,"plant_count":6,"max_gap_m":1.17,"tile_structures":{"siret3_r021_c012":"regular"}},"geometry":{"type":"MultiLineString","coordinates":[[[28.7093599,47.1219838],[28.7092626,47.1220735]]]}},{"type":"Feature","id":4,"properties":{"row_id":"V01-R04","vineyard_id":"V01","row_structure":"regular","length_m":18,"plant_count":9,"max_gap_m":2.37,"tile_structures":{"siret3_r021_c012":"regular"}},"geometry":{"type":"MultiLineString","coordinates":[[[28.7093586,47.1219441],[28.7092173,47.1220742]]]}},{"type":"Feature","id":5,"properties":{"row_id":"V01-R05","vineyard_id":"V01","row_structure":"regular","length_m":24.3,"plant_count":10,"max_gap_m":2.57,"tile_structures":{"siret3_r021_c012":"regular"}},"geometry":{"type":"MultiLineString","coordinates":[[[28.7093571,47.121899],[28.709167,47.1220749]]]}},{"type":"Feature","id":6,"properties":{"row_id":"V01-R06","vineyard_id":"V01","row_structure":"regular","length_m":30.18,"plant_count":14,"max_gap_m":1.62,"tile_structures":{"siret3_r021_c012":"regular"}},"geometry":{"type":"MultiLineString","coordinates":[[[28.7093558,47.1218563],[28.7091211,47.1220756]]]}},{"type":"Feature","id":7,"properties":{"row_id":"V01-R07","vineyard_id":"V01","row_structure":"regular","length_m":36.07,"plant_count":18,"max_gap_m":1.29,"tile_structures":{"siret3_r021_c012":"regular"}},"geometry":{"type":"MultiLineString","coordinates":[[[28.7093544,47.1218147],[28.7090731,47.1220763]]]}},{"type":"Feature","id":8,"properties":{"row_id":"V01-R08","vineyard_id":"V01","row_structure":"regular","length_m":42.3,"plant_count":16,"max_gap_m":1.75,"tile_structures":{"siret3_r021_c012":"regular"}},"geometry":{"type":"MultiLineString","coordinates":[[[28.7093531,47.1217717],[28.7090204,47.1220771]]]}},{"type":"Feature","id":9,"properties":{"row_id":"V01-R09","vineyard_id":"V01","row_structure":"regular","length_m":48.03,"plant_count":23,"max_gap_m":1.4,"tile_structures":{"siret3_r021_c012":"regular"}},"geometry":{"type":"MultiLineString","coordinates":[[[28.7093518,47.121731],[28.7089741,47.1220778]]]}},{"type":"Feature","id":10,"properties":{"row_id":"V01-R10","vineyard_id":"V01","row_structure":"regular","length_m":55.79,"plant_count":27,"max_gap_m":1.9,"tile_structures":{"siret3_r021_c012":"regular"}},"geometry":{"type":"MultiLineString","coordinates":[[[28.70935,47.1216749],[28.7089131,47.1220787]]]}},{"type":"Feature","id":11,"properties":{"row_id":"V01-R11","vineyard_id":"V01","row_structure":"regular","length_m":63.29,"plant_count":31,"max_gap_m":2.87,"tile_structures":{"siret3_r021_c012":"regular"}},"geometry":{"type":"MultiLineString","coordinates":[[[28.7093482,47.121621],[28.7088537,47.1220796]]]}},{"type":"Feature","id":12,"properties":{"row_id":"V01-R12","vineyard_id":"V01","row_structure":"regular","length_m":64.61,"plant_count":22,"max_gap_m":3.72,"tile_structures":{"siret3_r021_c012":"regular"}},"geometry":{"type":"MultiLineString","coordinates":[[[28.709317,47.121612],[28.7088124,47.1220802]]]}},{"type":"Feature","id":13,"properties":{"row_id":"V01-R13","vineyard_id":"V01","row_structure":"regular","length_m":64.54,"plant_count":31,"max_gap_m":2.85,"tile_structures":{"siret3_r021_c012":"regular"}},"geometry":{"type":"MultiLineString","coordinates":[[[28.7092716,47.1216126],[28.7087686,47.1220809]]]}},{"type":"Feature","id":14,"properties":{"row_id":"V01-R14","vineyard_id":"V01","row_structure":"regular","length_m":64.35,"plant_count":27,"max_gap_m":2.48,"tile_structures":{"siret3_r021_c012":"regular"}},"geometry":{"type":"MultiLineString","coordinates":[[[28.7092237,47.1216134],[28.7087248,47.1220815]]]}},{"type":"Feature","id":15,"properties":{"row_id":"V01-R15","vineyard_id":"V01","row_structure":"regular","length_m":63.45,"plant_count":26,"max_gap_m":2.58,"tile_structures":{"siret3_r021_c012":"regular"}},"geometry":{"type":"MultiLineString","coordinates":[[[28.7091807,47.121614],[28.7086878,47.1220751]]]}},{"type":"Feature","id":16,"properties":{"row_id":"V01-R16","vineyard_id":"V01","row_structure":"regular","length_m":58,"plant_count":24,"max_gap_m":3.83,"tile_structures":{"siret3_r021_c012":"regular"}},"geometry":{"type":"MultiLineString","coordinates":[[[28.7091368,47.1216146],[28.7086865,47.1220364]]]}},{"type":"Feature","id":17,"properties":{"row_id":"V01-R17","vineyard_id":"V01","row_structure":"regular","length_m":52.38,"plant_count":24,"max_gap_m":2.92,"tile_structures":{"siret3_r021_c012":"regular"}},"geometry":{"type":"MultiLineString","coordinates":[[[28.7090916,47.1216153],[28.7086852,47.1219963]]]}},{"type":"Feature","id":18,"properties":{"row_id":"V01-R18","vineyard_id":"V01","row_structure":"regular","length_m":46.02,"plant_count":18,"max_gap_m":3.18,"tile_structures":{"siret3_r021_c012":"regular"}},"geometry":{"type":"MultiLineString","coordinates":[[[28.7090415,47.1216161],[28.7086838,47.1219505]]]}},{"type":"Feature","id":19,"properties":{"row_id":"V01-R19","vineyard_id":"V01","row_structure":"regular","length_m":39.85,"plant_count":20,"max_gap_m":2.57,"tile_structures":{"siret3_r021_c012":"regular"}},"geometry":{"type":"MultiLineString","coordinates":[[[28.7089925,47.1216168],[28.7086824,47.1219062]]]}},{"type":"Feature","id":20,"properties":{"row_id":"V01-R20","vineyard_id":"V01","row_structure":"regular","length_m":34.01,"plant_count":14,"max_gap_m":3.06,"tile_structures":{"siret3_r021_c012":"regular"}},"geometry":{"type":"MultiLineString","coordinates":[[[28.7089447,47.1216175],[28.708681,47.1218649]]]}},{"type":"Feature","id":21,"properties":{"row_id":"V01-R21","vineyard_id":"V01","row_structure":"regular","length_m":28.36,"plant_count":9,"max_gap_m":1.54,"tile_structures":{"siret3_r021_c012":"regular"}},"geometry":{"type":"MultiLineString","coordinates":[[[28.7088996,47.1216182],[28.7086797,47.1218245]]]}},{"type":"Feature","id":22,"properties":{"row_id":"V01-R22","vineyard_id":"V01","row_structure":"regular","length_m":22.53,"plant_count":12,"max_gap_m":2.17,"tile_structures":{"siret3_r021_c012":"regular"}},"geometry":{"type":"MultiLineString","coordinates":[[[28.7088555,47.1216188],[28.7086784,47.1217815]]]}},{"type":"Feature","id":23,"properties":{"row_id":"V01-R23","vineyard_id":"V01","row_structure":"regular","length_m":16.74,"plant_count":6,"max_gap_m":0.92,"tile_structures":{"siret3_r021_c012":"regular"}},"geometry":{"type":"MultiLineString","coordinates":[[[28.7088059,47.1216196],[28.7086771,47.1217419]]]}},{"type":"Feature","id":24,"properties":{"row_id":"V01-R24","vineyard_id":"V01","row_structure":"regular","length_m":11.33,"plant_count":5,"max_gap_m":1.74,"tile_structures":{"siret3_r021_c012":"regular"}},"geometry":{"type":"MultiLineString","coordinates":[[[28.7087627,47.1216202],[28.7086758,47.1217031]]]}},{"type":"Feature","id":25,"properties":{"row_id":"V01-R25","vineyard_id":"V01","row_structure":"regular","length_m":6.06,"plant_count":3,"max_gap_m":0.38,"tile_structures":{"siret3_r021_c012":"regular"}},"geometry":{"type":"MultiLineString","coordinates":[[[28.7087219,47.1216208],[28.7086746,47.1216648]]]}},{"type":"Feature","id":26,"properties":{"row_id":"V02-R01","vineyard_id":"V02","row_structure":"regular","length_m":5.13,"plant_count":2,"max_gap_m":0.01,"tile_structures":{"siret3_r006_c004":"regular"}},"geometry":{"type":"MultiLineString","coordinates":[[[28.7041844,47.1290179],[28.7041591,47.1290607]]]}},{"type":"Feature","id":27,"properties":{"row_id":"V02-R02","vineyard_id":"V02","row_structure":"regular","length_m":11.98,"plant_count":4,"max_gap_m":1.97,"tile_structures":{"siret3_r006_c004":"regular"}},"geometry":{"type":"MultiLineString","coordinates":[[[28.7041826,47.1289609],[28.7041246,47.1290612]]]}},{"type":"Feature","id":28,"properties":{"row_id":"V02-R03","vineyard_id":"V02","row_structure":"regular","length_m":18.97,"plant_count":4,"max_gap_m":3.97,"tile_structures":{"siret3_r006_c004":"regular"}},"geometry":{"type":"MultiLineString","coordinates":[[[28.7041808,47.1289035],[28.7040875,47.1290618]]]}},{"type":"Feature","id":29,"properties":{"row_id":"V02-R04","vineyard_id":"V02","row_structure":"regular","length_m":26.52,"plant_count":8,"max_gap_m":1.16,"tile_structures":{"siret3_r006_c004":"regular"}},"geometry":{"type":"MultiLineString","coordinates":[[[28.7041788,47.1288412],[28.7040476,47.1290624]]]}},{"type":"Feature","id":30,"properties":{"row_id":"V02-R05","vineyard_id":"V02","row_structure":"regular","length_m":33.77,"plant_count":13,"max_gap_m":2.21,"tile_structures":{"siret3_r006_c004":"regular"}},"geometry":{"type":"MultiLineString","coordinates":[[[28.7041768,47.1287801],[28.7040137,47.1290629]]]}},{"type":"Feature","id":31,"properties":{"row_id":"V02-R06","vineyard_id":"V02","row_structure":"disrupted","length_m":40.98,"plant_count":12,"max_gap_m":5.05,"tile_structures":{"siret3_r006_c004":"disrupted"}},"geometry":{"type":"MultiLineString","coordinates":[[[28.7041749,47.1287202],[28.7039777,47.1290634]]]}},{"type":"Feature","id":32,"properties":{"row_id":"V02-R07","vineyard_id":"V02","row_structure":"disrupted","length_m":47.69,"plant_count":14,"max_gap_m":11.33,"tile_structures":{"siret3_r006_c004":"disrupted"}},"geometry":{"type":"MultiLineString","coordinates":[[[28.7041732,47.128666],[28.7039385,47.129064]]]}},{"type":"Feature","id":33,"properties":{"row_id":"V02-R08","vineyard_id":"V02","row_structure":"disrupted","length_m":55.38,"plant_count":10,"max_gap_m":9.25,"tile_structures":{"siret3_r006_c004":"disrupted"}},"geometry":{"type":"MultiLineString","coordinates":[[[28.7041711,47.1286014],[28.7039019,47.1290645]]]}},{"type":"Feature","id":34,"properties":{"row_id":"V02-R09","vineyard_id":"V02","row_structure":"disrupted","length_m":55.58,"plant_count":9,"max_gap_m":12.9,"tile_structures":{"siret3_r006_c004":"disrupted"}},"geometry":{"type":"MultiLineString","coordinates":[[[28.7041373,47.1286003],[28.703867,47.129065]]]}},{"type":"Feature","id":35,"properties":{"row_id":"V02-R10","vineyard_id":"V02","row_structure":"regular","length_m":55.49,"plant_count":18,"max_gap_m":1.23,"tile_structures":{"siret3_r006_c004":"regular"}},"geometry":{"type":"MultiLineString","coordinates":[[[28.7041008,47.1286008],[28.7038334,47.1290655]]]}},{"type":"Feature","id":36,"properties":{"row_id":"V02-R11","vineyard_id":"V02","row_structure":"regular","length_m":55.55,"plant_count":13,"max_gap_m":1.62,"tile_structures":{"siret3_r006_c004":"regular"}},"geometry":{"type":"MultiLineString","coordinates":[[[28.7040621,47.1286014],[28.7037928,47.1290661]]]}},{"type":"Feature","id":37,"properties":{"row_id":"V02-R12","vineyard_id":"V02","row_structure":"regular","length_m":55.51,"plant_count":19,"max_gap_m":2.44,"tile_structures":{"siret3_r006_c004":"regular"}},"geometry":{"type":"MultiLineString","coordinates":[[[28.7040259,47.1286019],[28.7037581,47.1290667]]]}},{"type":"Feature","id":38,"properties":{"row_id":"V02-R13","vineyard_id":"V02","row_structure":"regular","length_m":55.55,"plant_count":19,"max_gap_m":3.14,"tile_structures":{"siret3_r006_c004":"regular"}},"geometry":{"type":"MultiLineString","coordinates":[[[28.7039899,47.1286025],[28.7037206,47.1290672]]]}},{"type":"Feature","id":39,"properties":{"row_id":"V02-R14","vineyard_id":"V02","row_structure":"regular","length_m":55.52,"plant_count":20,"max_gap_m":2.86,"tile_structures":{"siret3_r006_c004":"regular"}},"geometry":{"type":"MultiLineString","coordinates":[[[28.7039528,47.128603],[28.7036844,47.1290678]]]}},{"type":"Feature","id":40,"properties":{"row_id":"V02-R15","vineyard_id":"V02","row_structure":"regular","length_m":55.62,"plant_count":18,"max_gap_m":5.01,"tile_structures":{"siret3_r006_c004":"regular"}},"geometry":{"type":"MultiLineString","coordinates":[[[28.7039169,47.1286036],[28.7036452,47.1290683]]]}},{"type":"Feature","id":41,"properties":{"row_id":"V02-R16","vineyard_id":"V02","row_structure":"regular","length_m":55.61,"plant_count":8,"max_gap_m":0.06,"tile_structures":{"siret3_r006_c004":"regular"}},"geometry":{"type":"MultiLineString","coordinates":[[[28.7038807,47.1286041],[28.7036095,47.1290689]]]}},{"type":"Feature","id":42,"properties":{"row_id":"V02-R17","vineyard_id":"V02","row_structure":"regular","length_m":55.56,"plant_count":1,"max_gap_m":0,"tile_structures":{"siret3_r006_c004":"regular"}},"geometry":{"type":"MultiLineString","coordinates":[[[28.7038444,47.1286046],[28.7035748,47.1290694]]]}},{"type":"Feature","id":43,"properties":{"row_id":"V02-R18","vineyard_id":"V02","row_structure":"regular","length_m":55.57,"plant_count":4,"max_gap_m":0.14,"tile_structures":{"siret3_r006_c004":"regular"}},"geometry":{"type":"MultiLineString","coordinates":[[[28.7038077,47.1286052],[28.7035378,47.1290699]]]}},{"type":"Feature","id":44,"properties":{"row_id":"V02-R19","vineyard_id":"V02","row_structure":"regular","length_m":53.84,"plant_count":5,"max_gap_m":0.81,"tile_structures":{"siret3_r006_c004":"regular"}},"geometry":{"type":"MultiLineString","coordinates":[[[28.7037741,47.1286057],[28.7035105,47.1290554]]]}},{"type":"Feature","id":45,"properties":{"row_id":"V02-R20","vineyard_id":"V02","row_structure":"regular","length_m":46.52,"plant_count":14,"max_gap_m":1.99,"tile_structures":{"siret3_r006_c004":"regular"}},"geometry":{"type":"MultiLineString","coordinates":[[[28.7037362,47.1286062],[28.7035086,47.1289948]]]}},{"type":"Feature","id":46,"properties":{"row_id":"V02-R21","vineyard_id":"V02","row_structure":"regular","length_m":40.02,"plant_count":14,"max_gap_m":1.58,"tile_structures":{"siret3_r006_c004":"regular"}},"geometry":{"type":"MultiLineString","coordinates":[[[28.7037027,47.1286067],[28.7035069,47.1289411]]]}},{"type":"Feature","id":47,"properties":{"row_id":"V02-R22","vineyard_id":"V02","row_structure":"regular","length_m":33.58,"plant_count":13,"max_gap_m":2.32,"tile_structures":{"siret3_r006_c004":"regular"}},"geometry":{"type":"MultiLineString","coordinates":[[[28.7036657,47.1286073],[28.7035052,47.1288888]]]}},{"type":"Feature","id":48,"properties":{"row_id":"V02-R23","vineyard_id":"V02","row_structure":"disrupted","length_m":25.73,"plant_count":6,"max_gap_m":6.77,"tile_structures":{"siret3_r006_c004":"disrupted"}},"geometry":{"type":"MultiLineString","coordinates":[[[28.7036266,47.1286079],[28.7035031,47.1288235]]]}},{"type":"Feature","id":49,"properties":{"row_id":"V02-R24","vineyard_id":"V02","row_structure":"regular","length_m":18.8,"plant_count":1,"max_gap_m":0,"tile_structures":{"siret3_r006_c004":"regular"}},"geometry":{"type":"MultiLineString","coordinates":[[[28.7035916,47.1286084],[28.7035013,47.1287658]]]}},{"type":"Feature","id":50,"properties":{"row_id":"V02-R25","vineyard_id":"V02","row_structure":"regular","length_m":12.03,"plant_count":1,"max_gap_m":0,"tile_structures":{"siret3_r006_c004":"regular"}},"geometry":{"type":"MultiLineString","coordinates":[[[28.7035573,47.1286089],[28.7034995,47.1287097]]]}},{"type":"Feature","id":51,"properties":{"row_id":"V02-R26","vineyard_id":"V02","row_structure":"regular","length_m":4.99,"plant_count":1,"max_gap_m":0,"tile_structures":{"siret3_r006_c004":"regular"}},"geometry":{"type":"MultiLineString","coordinates":[[[28.7035208,47.1286095],[28.7034976,47.1286514]]]}}]}