{"type":"FeatureCollection","features":[{"type":"Feature","id":1,"properties":{"type":"gap","vineyard_id":"V02","row_id":"V02-R08","gap_length_m":7.09,"tile":"siret3_r006_c004","target_id":"T003","route_order":1},"geometry":{"type":"Point","coordinates":[28.7041305,47.1286713]}},{"type":"Feature","id":2,"properties":{"type":"gap","vineyard_id":"V02","row_id":"V02-R09","gap_length_m":12.68,"tile":"siret3_r006_c004","target_id":"T006","route_order":2},"geometry":{"type":"Point","coordinates":[28.7040878,47.1286855]}},{"type":"Feature","id":3,"properties":{"type":"gap","vineyard_id":"V02","row_id":"V02-R09","gap_length_m":7.81,"tile":"siret3_r006_c004","target_id":"T007","route_order":3},"geometry":{"type":"Point","coordinates":[28.7039904,47.1288528]}},{"type":"Feature","id":4,"properties":{"type":"gap","vineyard_id":"V02","row_id":"V02-R08","gap_length_m":9.25,"tile":"siret3_r006_c004","target_id":"T004","route_order":4},"geometry":{"type":"Point","coordinates":[28.7040084,47.1288813]}},{"type":"Feature","id":5,"properties":{"type":"gap","vineyard_id":"V02","row_id":"V02-R06","gap_length_m":5.05,"tile":"siret3_r006_c004","target_id":"T001","route_order":5},"geometry":{"type":"Point","coordinates":[28.7040375,47.1289594]}},{"type":"Feature","id":6,"properties":{"type":"gap","vineyard_id":"V02","row_id":"V02-R09","gap_length_m":12.9,"tile":"siret3_r006_c004","target_id":"T008","route_order":6},"geometry":{"type":"Point","coordinates":[28.7039322,47.128953]}},{"type":"Feature","id":7,"properties":{"type":"gap","vineyard_id":"V02","row_id":"V02-R08","gap_length_m":7.75,"tile":"siret3_r006_c004","target_id":"T005","route_order":7},"geometry":{"type":"Point","coordinates":[28.7039345,47.1290085]}},{"type":"Feature","id":8,"properties":{"type":"gap","vineyard_id":"V02","row_id":"V02-R07","gap_length_m":11.33,"tile":"siret3_r006_c004","target_id":"T002","route_order":8},"geometry":{"type":"Point","coordinates":[28.7039664,47.1290167]}},{"type":"Feature","id":9,"properties":{"type":"gap","vineyard_id":"V02","row_id":"V02-R15","gap_length_m":5.01,"tile":"siret3_r006_c004","target_id":"T009","route_order":9},"geometry":{"type":"Point","coordinates":[28.7037876,47.1288247]}},{"type":"Feature","id":10,"properties":{"type":"gap","vineyard_id":"V02","row_id":"V02-R23","gap_length_m":6.77,"tile":"siret3_r006_c004","target_id":"T010","route_order":10},"geometry":{"type":"Point","coordinates":[28.7036103,47.1286363]}}]}