{"type": "FeatureCollection", "features": [{"type": "Feature", "properties": {"name": "Cojușna", "osm_relation_id": 19100156, "admin": "comuna Cojușna, raionul Strășeni, Republica Moldova", "source": "© OpenStreetMap contributors, ODbL 1.0"}, "geometry": {"type": "Polygon", "coordinates": [[[28.5883061, 47.0926193], [28.5898919, 47.0918904], [28.5927211, 47.0907397], [28.5936239, 47.0901739], [28.5948895, 47.089341], [28.5975323, 47.0876625], [28.597979, 47.0879804], [28.5984073, 47.0885526], [28.5990494, 47.0883682], [28.6005473, 47.0897899], [28.601479, 47.0904979], [28.601978, 47.0900668], [28.6027354, 47.0904406], [28.6040737, 47.0883643], [28.6069589, 47.0854366], [28.6074402, 47.084692], [28.6078611, 47.0840314], [28.6090019, 47.0836356], [28.610122, 47.0831093], [28.6106687, 47.0830095], [28.6116956, 47.0825633], [28.6127305, 47.081946], [28.6134076, 47.0815024], [28.6135874, 47.0813639], [28.613861, 47.0811998], [28.6139491, 47.0813318], [28.6146985, 47.0816652], [28.6151289, 47.0815675], [28.6155821, 47.0813213], [28.6160299, 47.0809681], [28.6164769, 47.0802251], [28.6167114, 47.0799792], [28.6177589, 47.0789987], [28.618531, 47.078286], [28.6195497, 47.0775774], [28.6199469, 47.0771584], [28.6204404, 47.0763804], [28.6207928, 47.0756924], [28.6214331, 47.074485], [28.6216585, 47.0740011], [28.6227533, 47.0743719], [28.6234676, 47.0746241], [28.6257383, 47.0753575], [28.6269187, 47.0739337], [28.6261753, 47.0732479], [28.6252844, 47.0729197], [28.6279597, 47.0695711], [28.6286193, 47.0686325], [28.6295618, 47.0673764], [28.629751, 47.0671482], [28.6302169, 47.0667953], [28.6311073, 47.0662703], [28.639111, 47.070505], [28.6395107, 47.0706755], [28.641295, 47.0702798], [28.64297, 47.068838], [28.6435741, 47.0687457], [28.6442787, 47.068755], [28.6445944, 47.0687667], [28.6454242, 47.068496], [28.6458625, 47.0683823], [28.6463737, 47.0683498], [28.6474903, 47.0685491], [28.6475874, 47.0686434], [28.6477156, 47.0687679], [28.6482975, 47.0695882], [28.6486713, 47.0699966], [28.6487207, 47.0700506], [28.6490059, 47.0703072], [28.6492429, 47.0704593], [28.6497455, 47.0707218], [28.6497957, 47.070748], [28.6505245, 47.0711287], [28.6508753, 47.0713809], [28.6509239, 47.0714159], [28.6510151, 47.0714815], [28.6518767, 47.072504], [28.6519104, 47.0726126], [28.6519213, 47.0726478], [28.65211, 47.0732563], [28.6521483, 47.0733795], [28.6521653, 47.0734346], [28.6521751, 47.0742286], [28.652194, 47.0744292], [28.6522266, 47.074564], [28.6524783, 47.0747722], [28.6527622, 47.075061], [28.6528382, 47.0752338], [28.6528802, 47.0754301], [28.6528903, 47.0755406], [28.6529009, 47.075862], [28.6530216, 47.0760804], [28.6535226, 47.0769871], [28.6535947, 47.0771743], [28.6536082, 47.0772093], [28.6538557, 47.077852], [28.6539179, 47.0781183], [28.6539304, 47.0781722], [28.6540452, 47.07906], [28.6540471, 47.0790958], [28.6540908, 47.0799469], [28.6541248, 47.0800113], [28.6541418, 47.0800435], [28.654158, 47.0800742], [28.6543523, 47.0802026], [28.6546758, 47.0803645], [28.6549595, 47.080565], [28.6550296, 47.0806597], [28.655057, 47.0807055], [28.655181, 47.0809127], [28.6554101, 47.0812954], [28.6556514, 47.0817785], [28.6556861, 47.0818492], [28.6557774, 47.0818317], [28.656329, 47.0818555], [28.6565881, 47.0818862], [28.6570152, 47.0819367], [28.6574945, 47.0820011], [28.6583965, 47.0822541], [28.6584489, 47.0822702], [28.6590861, 47.0824795], [28.659374, 47.0824835], [28.6594263, 47.0824842], [28.6597859, 47.0825576], [28.6605362, 47.0829675], [28.6605786, 47.0829674], [28.6614088, 47.0829656], [28.6626117, 47.0831021], [28.6628848, 47.0831331], [28.6643595, 47.0832901], [28.6662418, 47.0833906], [28.6681623, 47.0834932], [28.6685988, 47.0830844], [28.6687938, 47.0829017], [28.6700721, 47.0829489], [28.6713744, 47.082992], [28.6725475, 47.0830573], [28.6728075, 47.0830717], [28.674044, 47.0831406], [28.6741228, 47.0831449], [28.6756062, 47.0830099], [28.6756689, 47.0830038], [28.6770249, 47.0828721], [28.6770786, 47.0828672], [28.6784904, 47.0827767], [28.6785475, 47.0827733], [28.6794218, 47.0827536], [28.6799526, 47.0826605], [28.6800111, 47.0826503], [28.6813188, 47.082421], [28.681371, 47.0824119], [28.6815145, 47.0823867], [28.6817557, 47.0823444], [28.6827197, 47.082251], [28.6827981, 47.0822434], [28.6836711, 47.0821651], [28.6841102, 47.0820683], [28.6843282, 47.0821476], [28.6857505, 47.082036], [28.6859137, 47.0820238], [28.6864103, 47.0819865], [28.6864913, 47.0819805], [28.6867001, 47.0819648], [28.6870376, 47.0819139], [28.6878454, 47.0818397], [28.6879517, 47.0818302], [28.6882103, 47.081807], [28.6882252, 47.0818542], [28.6883922, 47.0818366], [28.6884973, 47.0818226], [28.6886343, 47.0818043], [28.6888937, 47.0817697], [28.6889178, 47.0817673], [28.6890939, 47.0817597], [28.6896379, 47.0816949], [28.6896803, 47.0817442], [28.6897441, 47.0817421], [28.6900038, 47.0817335], [28.6901448, 47.0817286], [28.6901397, 47.0817054], [28.6905555, 47.0816935], [28.6909726, 47.0816122], [28.691072, 47.0815769], [28.6910463, 47.0815306], [28.6910835, 47.0815276], [28.6913062, 47.0814985], [28.6916113, 47.0814044], [28.6917391, 47.081365], [28.6918434, 47.0813542], [28.6919652, 47.0813416], [28.6922518, 47.0813103], [28.6923648, 47.0813029], [28.6925144, 47.0812931], [28.6925549, 47.0812934], [28.6925884, 47.0812904], [28.6926596, 47.0812842], [28.6931872, 47.0812376], [28.6933341, 47.081221], [28.693838, 47.0811641], [28.6942938, 47.0811127], [28.6943707, 47.0811245], [28.6950907, 47.0810743], [28.6963701, 47.0811769], [28.6965751, 47.0811963], [28.6967118, 47.0811981], [28.6967935, 47.0811807], [28.6970675, 47.0810626], [28.6972967, 47.081203], [28.6975465, 47.0813351], [28.6977759, 47.0814314], [28.7025879, 47.0856866], [28.7031813, 47.0854939], [28.7033097, 47.085673], [28.7035835, 47.0855584], [28.7035133, 47.0854538], [28.7039644, 47.085288], [28.7038539, 47.0847525], [28.704011, 47.0847368], [28.7040486, 47.0846486], [28.7048156, 47.0843285], [28.7045934, 47.0840833], [28.7054656, 47.0836549], [28.705683, 47.0839136], [28.7076657, 47.0834953], [28.7077285, 47.0835229], [28.7081377, 47.0834997], [28.7082824, 47.083718], [28.7084261, 47.0836771], [28.7086285, 47.0834146], [28.7111166, 47.08279], [28.7113645, 47.0828413], [28.7120999, 47.0828486], [28.7124654, 47.0828522], [28.7135314, 47.0826476], [28.7133611, 47.0825028], [28.7133412, 47.0824059], [28.7135004, 47.0823075], [28.7140292, 47.0822023], [28.7142585, 47.0822093], [28.7147537, 47.0824682], [28.714611, 47.0826612], [28.714659, 47.0827508], [28.7150465, 47.0826756], [28.7159114, 47.082813], [28.7158775, 47.0828847], [28.7158579, 47.0829261], [28.7158233, 47.0829993], [28.7152265, 47.0832588], [28.7147138, 47.0835076], [28.7144177, 47.0836754], [28.7142573, 47.0837663], [28.7141988, 47.0838025], [28.713712, 47.0841192], [28.7134648, 47.0843078], [28.7134289, 47.0843352], [28.7133046, 47.0843467], [28.7132593, 47.0843509], [28.7132291, 47.0843798], [28.7123114, 47.0852585], [28.7114113, 47.0861594], [28.7113023, 47.0862685], [28.7112949, 47.0862751], [28.7112594, 47.0863087], [28.7111683, 47.0864008], [28.7109759, 47.0865951], [28.7109731, 47.086631], [28.7107962, 47.0868127], [28.7102891, 47.0872906], [28.7102395, 47.0872452], [28.7101292, 47.087278], [28.7098801, 47.0875156], [28.7097181, 47.0876699], [28.709665, 47.0877205], [28.7095837, 47.087798], [28.7093608, 47.0880105], [28.7092641, 47.0881028], [28.7091736, 47.088189], [28.708851, 47.0884965], [28.7087795, 47.0885647], [28.7086884, 47.0886516], [28.708598, 47.0887378], [28.7085075, 47.088824], [28.7083851, 47.0889407], [28.7082467, 47.0890726], [28.7081913, 47.0891256], [28.7081084, 47.0892045], [28.70797, 47.0893364], [28.7076935, 47.0896001], [28.7075552, 47.0897319], [28.707525, 47.0897177], [28.7074244, 47.0898419], [28.7073103, 47.0899503], [28.7071732, 47.0900804], [28.7070363, 47.0902104], [28.7068893, 47.09035], [28.7072463, 47.0905111], [28.7072815, 47.0905271], [28.7073392, 47.0905372], [28.7083215, 47.0911026], [28.7088289, 47.091424], [28.7088638, 47.0914502], [28.7088828, 47.0914324], [28.7091231, 47.0915987], [28.7094177, 47.0918025], [28.7095729, 47.0919099], [28.7096659, 47.0919407], [28.7096698, 47.0920621], [28.7096514, 47.09234], [28.7097089, 47.0926305], [28.7097933, 47.0928721], [28.7098293, 47.0930621], [28.7098926, 47.0931918], [28.7100321, 47.0932423], [28.7099703, 47.0934972], [28.7099384, 47.0938043], [28.7098805, 47.0938806], [28.709797, 47.0939647], [28.7094709, 47.0943474], [28.7089039, 47.095006], [28.7085117, 47.0957313], [28.7080967, 47.0964988], [28.7075682, 47.0971605], [28.7073824, 47.0972794], [28.707312, 47.097418], [28.7074609, 47.0975814], [28.707409, 47.0977406], [28.707272, 47.0979262], [28.7062811, 47.0989966], [28.705859, 47.0992466], [28.7055784, 47.0997262], [28.7053228, 47.0998687], [28.704473, 47.1006954], [28.7041242, 47.1010745], [28.7033541, 47.1018629], [28.7029743, 47.1020111], [28.7028154, 47.1020731], [28.70162, 47.1032413], [28.7000234, 47.1046799], [28.6985178, 47.1059406], [28.6977049, 47.1066566], [28.6966274, 47.107833], [28.696022, 47.1082773], [28.6933735, 47.1102209], [28.6913667, 47.1112932], [28.6912791, 47.1113373], [28.6891137, 47.1124288], [28.6889823, 47.1124934], [28.6878463, 47.113052], [28.687258, 47.1133563], [28.6858275, 47.1141018], [28.6856944, 47.1141712], [28.6843856, 47.1148533], [28.6820199, 47.1160189], [28.6810015, 47.116454], [28.6797536, 47.1169871], [28.6784366, 47.1175497], [28.6772788, 47.118682], [28.6769817, 47.1189725], [28.6741675, 47.1208002], [28.6729972, 47.121591], [28.6714236, 47.1226723], [28.6716522, 47.1228364], [28.6713007, 47.1235011], [28.669906, 47.1245148], [28.6685506, 47.1254312], [28.6672066, 47.1263824], [28.6672544, 47.1264174], [28.6674149, 47.1265346], [28.6667921, 47.1269145], [28.6666807, 47.1269911], [28.6655354, 47.127778], [28.6658607, 47.1280022], [28.666314, 47.1283145], [28.6663994, 47.1283587], [28.6664758, 47.1283982], [28.6672803, 47.128814], [28.664708, 47.1304812], [28.6636618, 47.1311618], [28.6635328, 47.1312457], [28.6630458, 47.1309343], [28.6616568, 47.1298412], [28.6612215, 47.1295278], [28.660966, 47.1293454], [28.6608994, 47.1293919], [28.6578958, 47.1271743], [28.6574948, 47.1264325], [28.6572546, 47.126453], [28.6570747, 47.1263829], [28.6565104, 47.1259695], [28.6563016, 47.1258682], [28.6562374, 47.1257822], [28.6559677, 47.125517], [28.6557843, 47.1254189], [28.655131, 47.1253431], [28.6550808, 47.1252851], [28.6539028, 47.1240039], [28.6525203, 47.1229854], [28.6525861, 47.1228231], [28.6519445, 47.1224713], [28.6513152, 47.1221371], [28.6498354, 47.1211956], [28.6437291, 47.1168463], [28.6373479, 47.1123505], [28.6370689, 47.1120763], [28.629871, 47.1069787], [28.6272555, 47.1051639], [28.6259313, 47.1041367], [28.6239604, 47.1031287], [28.6170278, 47.0977531], [28.6132318, 47.0950631], [28.6120861, 47.0959428], [28.609743, 47.0951212], [28.6078627, 47.095021], [28.6070164, 47.0946144], [28.6056573, 47.0946028], [28.6035316, 47.0961888], [28.5999658, 47.0963488], [28.5991442, 47.0961565], [28.5956882, 47.0962697], [28.5883061, 47.0926193]]]}}]}