{"type": "FeatureCollection", "features": [{"type": "Feature", "properties": {"name": "Sireți", "osm_relation_id": 19100171, "admin": "comuna Sireți, raionul Strășeni, Republica Moldova", "source": "© OpenStreetMap contributors, ODbL 1.0"}, "geometry": {"type": "Polygon", "coordinates": [[[28.6903063, 47.1243555], [28.6916687, 47.1240249], [28.6929616, 47.1237226], [28.6920654, 47.1228903], [28.6932138, 47.1221624], [28.6949185, 47.1211045], [28.6988212, 47.1184815], [28.7012559, 47.1175024], [28.7035944, 47.1164314], [28.7057278, 47.1155308], [28.7108786, 47.1131831], [28.7173227, 47.1102098], [28.720692, 47.1074811], [28.724317, 47.1043631], [28.7267614, 47.1024029], [28.729042, 47.1004166], [28.7303558, 47.0993163], [28.7311306, 47.0986734], [28.7339179, 47.0960071], [28.7356883, 47.0938965], [28.7364929, 47.094176], [28.7358949, 47.0947828], [28.7344719, 47.096373], [28.7344336, 47.0964105], [28.7344152, 47.0964286], [28.7345261, 47.0964734], [28.7346148, 47.0965086], [28.7347039, 47.0965492], [28.736074, 47.0978298], [28.7372089, 47.098834], [28.7386915, 47.1001772], [28.7408244, 47.1021315], [28.7411147, 47.1023889], [28.7417834, 47.1031523], [28.7414737, 47.1032452], [28.7429245, 47.1052711], [28.7421948, 47.1054199], [28.7415862, 47.1054583], [28.7420297, 47.1056259], [28.743316, 47.1079001], [28.74415, 47.1080224], [28.7449488, 47.1094854], [28.7454788, 47.1111865], [28.7444364, 47.1115442], [28.7449672, 47.1128787], [28.7453296, 47.1129498], [28.7456141, 47.1129266], [28.7467329, 47.1124945], [28.7479874, 47.1137625], [28.7488998, 47.1146847], [28.7521581, 47.1177508], [28.7531831, 47.1187153], [28.7542587, 47.1198595], [28.7558737, 47.1215661], [28.7584297, 47.1242072], [28.7587268, 47.1244052], [28.7588061, 47.1243671], [28.7610661, 47.1242619], [28.7616191, 47.1239512], [28.7618987, 47.1238962], [28.7622431, 47.1240421], [28.7638179, 47.1254008], [28.764413, 47.1253446], [28.7653403, 47.1254592], [28.7656574, 47.1255343], [28.7662368, 47.1256715], [28.7663092, 47.1256887], [28.7659667, 47.1266432], [28.7656365, 47.1272274], [28.7649484, 47.1280256], [28.7637759, 47.1292027], [28.7631885, 47.1301146], [28.7630237, 47.1304417], [28.7629417, 47.1306044], [28.7627884, 47.1307866], [28.7624945, 47.1310563], [28.7619536, 47.1314081], [28.7617354, 47.1315501], [28.7613392, 47.131808], [28.7607607, 47.1322254], [28.7598168, 47.1334214], [28.7597955, 47.133439], [28.7597591, 47.1334848], [28.7596818, 47.1335498], [28.7595732, 47.1336411], [28.758675, 47.1343965], [28.7586368, 47.1344287], [28.7575827, 47.1353151], [28.7568944, 47.1358939], [28.7547869, 47.1376662], [28.7472869, 47.1439727], [28.7473419, 47.1440083], [28.7490629, 47.1452842], [28.7496298, 47.1456021], [28.7504974, 47.1462117], [28.7505333, 47.1463291], [28.7506799, 47.1464371], [28.751272, 47.1467351], [28.7567638, 47.1507505], [28.7580162, 47.1516923], [28.7583058, 47.1519402], [28.7570571, 47.1520998], [28.7500971, 47.1525706], [28.7484954, 47.1526909], [28.7436454, 47.1529911], [28.7424371, 47.1531335], [28.7393993, 47.1536091], [28.7359289, 47.1543698], [28.7337957, 47.1550569], [28.731704, 47.1558021], [28.7293183, 47.1568473], [28.7270826, 47.1580672], [28.7249385, 47.1593552], [28.7218482, 47.161408], [28.7157671, 47.1653756], [28.7152548, 47.1657176], [28.7139924, 47.1665595], [28.7123018, 47.1674398], [28.7116869, 47.1676801], [28.7105651, 47.1679875], [28.7098727, 47.1681318], [28.7090416, 47.1681901], [28.705373, 47.1681368], [28.6975781, 47.1675053], [28.6948825, 47.1671681], [28.6936601, 47.1668894], [28.6927373, 47.1664892], [28.6924239, 47.1657563], [28.692008, 47.1634596], [28.6919848, 47.1623562], [28.6919087, 47.158731], [28.6919454, 47.1552569], [28.6921036, 47.1502712], [28.6921954, 47.1427769], [28.690992, 47.132684], [28.6910122, 47.1313733], [28.6909386, 47.1304548], [28.6904841, 47.1273256], [28.6903063, 47.1243555]]]}}]}