{"type":"FeatureCollection","features":[{"type":"Feature","id":1,"properties":{"farm_id":"F01","vineyard_ids":["V01","V02","V03"],"n_blocks":3,"area_m2":41397.98,"n_parcels":48,"cadastral_codes":["80371110019","80371110020","80371110021","80371110022","80371110023","80371110037","80371110038","80371110040","80371110041","80371110180","80371110181","80371110182","80371110183","80371110184","80371110185","80371110186","80371110187","80371110188","80371110189","80371110190","80371110191","80371110192","80371110193","80371110194","80371110195","80371110196","80371110197","80371110198","80371110199","80371110200","80371110201","80371110202","80371110203","80371110204","80371110205","80371110206","80371110207","80371110208","80371110209","80371110210","80371110211","80371110212","80371110213","80371110214","80371110215","80371110216","80371110217","80372090189"],"landuse_counts":{"Teren pentru grădini":38,"Teren pentru obținerea producției agricole":8,"Cale de comunicaţie":1,"Nu este indicat":1},"label_point":[28.702931,47.1279197]},"geometry":{"type":"Polygon","coordinates":[[[28.7009425,47.1273908],[28.7009357,47.1273729],[28.7009432,47.1273592],[28.7009949,47.1273026],[28.7010155,47.1272852],[28.7010968,47.1271919],[28.7011094,47.1271707],[28.7011104,47.1271493],[28.7011624,47.1271119],[28.7011697,47.1270901],[28.7011639,47.1270693],[28.7012688,47.1270087],[28.7012869,47.1270146],[28.701312,47.1270166],[28.7013363,47.1270121],[28.7013563,47.1270016],[28.7014154,47.1269341],[28.7014339,47.1269189],[28.7014881,47.1268601],[28.7015098,47.1268425],[28.7015522,47.1267962],[28.702036,47.1267886],[28.7020625,47.1267843],[28.7020842,47.1267736],[28.702087,47.1267743],[28.7020918,47.1268182],[28.7021005,47.12683],[28.7021193,47.1268422],[28.7021371,47.1268475],[28.7021611,47.1268492],[28.7021774,47.1268632],[28.702199,47.1268723],[28.7022321,47.1268746],[28.702246,47.1268873],[28.7022619,47.1268949],[28.7022803,47.1268989],[28.7023054,47.1268985],[28.7023431,47.1269089],[28.7023857,47.1269367],[28.7024183,47.1269505],[28.7024443,47.1269558],[28.7024613,47.1269675],[28.7024852,47.1269773],[28.7025247,47.126983],[28.7025538,47.1269808],[28.7025726,47.1269996],[28.7026018,47.1270151],[28.7026328,47.1270198],[28.7026629,47.1270148],[28.7026765,47.127037],[28.7027007,47.1270516],[28.7027322,47.1270566],[28.70277,47.127049],[28.7027753,47.1270668],[28.702788,47.1270813],[28.7028204,47.1270951],[28.7028381,47.1271089],[28.7028643,47.1271203],[28.7028975,47.1271254],[28.7029282,47.1271199],[28.7029477,47.1271087],[28.7029803,47.1270757],[28.7029853,47.1270787],[28.702989,47.1270916],[28.7029978,47.1271031],[28.703022,47.1271171],[28.703053,47.1271217],[28.7030847,47.127121],[28.7031022,47.1271177],[28.7031391,47.1271235],[28.7031534,47.1271366],[28.7031689,47.1271446],[28.7031871,47.1271492],[28.7032128,47.1271493],[28.7032167,47.1271642],[28.7032325,47.1271756],[28.7033994,47.1272265],[28.7035649,47.1272815],[28.7035757,47.1272981],[28.7035998,47.1273122],[28.7036308,47.1273169],[28.703658,47.1273124],[28.7037479,47.1273423],[28.7037605,47.1273535],[28.7037763,47.1273611],[28.7038137,47.1273723],[28.7038413,47.1273733],[28.7040995,47.127459],[28.7041164,47.1274721],[28.7041348,47.1274792],[28.7041446,47.1274928],[28.7041637,47.1275049],[28.7041949,47.1275115],[28.7042283,47.1275092],[28.7043479,47.1275625],[28.7045142,47.1276289],[28.7045553,47.1276494],[28.7045748,47.1276638],[28.7045984,47.1276708],[28.704754,47.127748],[28.7045486,47.1281246],[28.7045394,47.1281332],[28.7042159,47.1281386],[28.7041978,47.1281419],[28.7041817,47.1281485],[28.7041691,47.128158],[28.7041592,47.1281737],[28.7041689,47.1285321],[28.7041584,47.1285771],[28.7041714,47.1286116],[28.704184,47.1290062],[28.7041787,47.1290419],[28.7041858,47.1290625],[28.7041971,47.1294138],[28.7041893,47.1294447],[28.7041771,47.1294676],[28.7041712,47.1294705],[28.7041527,47.1294548],[28.704118,47.1294444],[28.7041124,47.1294226],[28.7040928,47.1294052],[28.704039,47.1293864],[28.7040377,47.1293706],[28.7040307,47.1293578],[28.7039924,47.1293242],[28.7039706,47.1293143],[28.703942,47.129311],[28.7038758,47.1292907],[28.7038522,47.1292748],[28.7038474,47.1292565],[28.7038344,47.1292414],[28.7038067,47.1292286],[28.7037941,47.1292168],[28.7037779,47.1292086],[28.7037285,47.1291949],[28.7036935,47.1291924],[28.7036748,47.1291959],[28.7036427,47.1292085],[28.7036083,47.1292051],[28.7035891,47.1292071],[28.7035664,47.1292156],[28.7035517,47.1292274],[28.7035431,47.1292281],[28.7035172,47.1292079],[28.7035154,47.1292025],[28.7035134,47.1291433],[28.7035221,47.1291239],[28.7035215,47.1291064],[28.7035112,47.1290903],[28.7034926,47.1290782],[28.7034622,47.1290713],[28.7033179,47.1290732],[28.7032934,47.129063],[28.7032757,47.1290599],[28.7032041,47.1290627],[28.7030471,47.1289466],[28.7030385,47.1289275],[28.7030268,47.1289164],[28.7029413,47.1288748],[28.702912,47.1288569],[28.7028935,47.1288394],[28.7028687,47.1288257],[28.7028451,47.1288191],[28.702816,47.1288183],[28.7027593,47.1287952],[28.7027346,47.1287794],[28.7026855,47.1287667],[28.702609,47.128735],[28.7025873,47.128732],[28.7025715,47.1287246],[28.7025534,47.1287206],[28.7025028,47.1287239],[28.7024813,47.1287072],[28.7024647,47.1286994],[28.7024455,47.1286955],[28.7024162,47.1286963],[28.7023843,47.1286866],[28.7023949,47.128663],[28.7023923,47.1286449],[28.7023793,47.1286289],[28.7023398,47.1286],[28.7023398,47.1285834],[28.7023309,47.1285673],[28.7023139,47.1285547],[28.7022337,47.1285166],[28.7022234,47.128494],[28.7022131,47.1284831],[28.702172,47.1284643],[28.702308,47.1282247],[28.7023121,47.1282029],[28.7023069,47.1281901],[28.7022965,47.1281789],[28.7022818,47.1281703],[28.7022641,47.128165],[28.7022448,47.1281634],[28.7022162,47.1281681],[28.7021324,47.1281691],[28.7021257,47.1279719],[28.7021225,47.1279589],[28.7021139,47.1279472],[28.7020954,47.127935],[28.7020651,47.1279281],[28.7020336,47.1279316],[28.7020125,47.1279415],[28.70179,47.1281737],[28.7016335,47.1281761],[28.7019017,47.1278895],[28.701909,47.1278679],[28.7018966,47.1278396],[28.7018746,47.1278239],[28.7018405,47.1278169],[28.7018054,47.1277998],[28.7017524,47.1277809],[28.7017271,47.1277754],[28.7017027,47.1277755],[28.7017029,47.1277541],[28.7016944,47.1277379],[28.7016724,47.1277227],[28.701649,47.1277166],[28.7015922,47.1277174],[28.7015637,47.1277272],[28.701535,47.1277492],[28.7015166,47.1277735],[28.7014494,47.1278432],[28.7014464,47.1278401],[28.7014424,47.1277551],[28.7014281,47.1277355],[28.701402,47.1277229],[28.7013767,47.1277198],[28.7009402,47.1277257],[28.7009382,47.1277075],[28.7009724,47.1276901],[28.7009849,47.1276775],[28.7009907,47.1276647],[28.7009908,47.1276514],[28.7009821,47.1276347],[28.7009696,47.1276244],[28.7009402,47.1276089],[28.700991,47.1275511],[28.7009946,47.1275295],[28.7009864,47.1275125],[28.7010033,47.1274846],[28.7010056,47.1274715],[28.7010022,47.1274586],[28.7009935,47.1274469],[28.7009802,47.1274374],[28.7009377,47.1274193],[28.7009425,47.1273908]],[[28.7027822,47.1273797],[28.7027903,47.1273964],[28.7028071,47.1274098],[28.7028301,47.1274177],[28.7028558,47.127419],[28.7028802,47.1274135],[28.7028955,47.1274053],[28.7029092,47.1273904],[28.7030111,47.1272089],[28.7030128,47.1271869],[28.702999,47.1271671],[28.702979,47.1271559],[28.7029542,47.1271508],[28.7029285,47.1271527],[28.7029058,47.1271612],[28.7028803,47.1271843],[28.70287,47.1272],[28.7028341,47.1272372],[28.702806,47.1272452],[28.7027888,47.1272578],[28.7027798,47.1272739],[28.7027822,47.1273797]],[[28.7026025,47.1276451],[28.7025982,47.1276629],[28.7026045,47.1276804],[28.7026203,47.1276948],[28.7026368,47.1277021],[28.7026607,47.1277062],[28.7026791,47.1277051],[28.7027149,47.1276971],[28.7027361,47.1276869],[28.7027499,47.1276719],[28.7027829,47.1276128],[28.7027854,47.1275998],[28.7027801,47.1275828],[28.7027657,47.1275685],[28.7027444,47.1275589],[28.7027194,47.1275556],[28.7026945,47.127559],[28.702678,47.1275656],[28.7026644,47.1275754],[28.7026025,47.1276451]]]}},{"type":"Feature","id":2,"properties":{"farm_id":"F02","vineyard_ids":["V04"],"n_blocks":1,"area_m2":337.8,"n_parcels":2,"cadastral_codes":["80371130298","80371130299"],"landuse_counts":{"Teren pentru grădini":2},"label_point":[28.7056899,47.1265052]},"geometry":{"type":"Polygon","coordinates":[[[28.7055352,47.1262762],[28.7056209,47.1262761],[28.7058426,47.1267256],[28.7058409,47.1267316],[28.7057592,47.1267317],[28.7057222,47.1266641],[28.7055352,47.1262762]]]}},{"type":"Feature","id":3,"properties":{"farm_id":"F03","vineyard_ids":["V05"],"n_blocks":1,"area_m2":42.7,"n_parcels":1,"cadastral_codes":["80372170062"],"landuse_counts":{"Pentru construcţii":1},"label_point":[28.7070099,47.1262324]},"geometry":{"type":"Polygon","coordinates":[[[28.7069411,47.1262138],[28.7069551,47.126211],[28.7070586,47.126218],[28.7070922,47.1262391],[28.7071051,47.1262517],[28.7070686,47.1262524],[28.7069638,47.1262456],[28.7069177,47.1262313],[28.7069411,47.1262138]]]}},{"type":"Feature","id":4,"properties":{"farm_id":"F04","vineyard_ids":["V06"],"n_blocks":1,"area_m2":114.4,"n_parcels":1,"cadastral_codes":["80371130333"],"landuse_counts":{"Teren pentru grădini":1},"label_point":[28.7043004,47.1262003]},"geometry":{"type":"Polygon","coordinates":[[[28.704217,47.1262018],[28.7042252,47.1261792],[28.7042215,47.1261638],[28.7042314,47.1261468],[28.7042306,47.1261281],[28.7042444,47.1261166],[28.7042614,47.1261255],[28.7044076,47.1262388],[28.7044084,47.126265],[28.7044311,47.1262911],[28.7044237,47.1262912],[28.7043796,47.1262554],[28.7043576,47.1262456],[28.7043007,47.1262409],[28.7042706,47.1262443],[28.704217,47.1262018]]]}},{"type":"Feature","id":5,"properties":{"farm_id":"F05","vineyard_ids":["V07"],"n_blocks":1,"area_m2":157.48,"n_parcels":1,"cadastral_codes":["80371130098"],"landuse_counts":{"Teren pentru obținerea producției agricole":1},"label_point":[28.7035831,47.1258073]},"geometry":{"type":"Polygon","coordinates":[[[28.7034084,47.1258464],[28.7034097,47.125825],[28.7035536,47.1257699],[28.7035808,47.125775],[28.7036,47.1257747],[28.7036628,47.1257542],[28.7036815,47.1257586],[28.7037159,47.1257567],[28.7037188,47.1257596],[28.7037178,47.125797],[28.7037215,47.1258111],[28.7036425,47.1258426],[28.7034084,47.1258464]]]}},{"type":"Feature","id":6,"properties":{"farm_id":"F06","vineyard_ids":["V08","V09"],"n_blocks":2,"area_m2":761.3,"n_parcels":2,"cadastral_codes":["80372170073","80372170074"],"landuse_counts":{"Pentru construcţii":1,"Teren pentru grădini":1},"label_point":[28.7071694,47.125678]},"geometry":{"type":"Polygon","coordinates":[[[28.7067776,47.1256323],[28.7068039,47.1256188],[28.7068202,47.1255983],[28.706918,47.1256127],[28.7069424,47.125611],[28.7069728,47.125603],[28.7070908,47.1256207],[28.7071476,47.1256322],[28.7072272,47.1256397],[28.7072572,47.1256329],[28.7072791,47.1256174],[28.7072873,47.125601],[28.7072894,47.1255694],[28.7073108,47.1255697],[28.7074475,47.1255909],[28.7074515,47.125632],[28.7074455,47.1256553],[28.707453,47.1256791],[28.7074561,47.1257861],[28.7074036,47.12579],[28.7071131,47.125741],[28.7070919,47.1257397],[28.7068033,47.1256941],[28.7067787,47.1256873],[28.7067776,47.1256323]]]}},{"type":"Feature","id":7,"properties":{"farm_id":"F07","vineyard_ids":["V10","V11"],"n_blocks":2,"area_m2":1881.5,"n_parcels":2,"cadastral_codes":["80371130098","80371130386"],"landuse_counts":{"Teren pentru obținerea producției agricole":2},"label_point":[28.7034632,47.1253971]},"geometry":{"type":"Polygon","coordinates":[[[28.702834,47.1257171],[28.7028366,47.1256946],[28.7028678,47.1256614],[28.7029968,47.1256088],[28.7030979,47.1255696],[28.7031261,47.1255618],[28.7031476,47.1255504],[28.7031687,47.1255444],[28.7031848,47.125536],[28.7033519,47.1254724],[28.703382,47.1254559],[28.7033953,47.1254355],[28.703423,47.125417],[28.7034351,47.1254023],[28.7034385,47.1253856],[28.7034335,47.1253694],[28.7034345,47.1253473],[28.7034436,47.1253232],[28.7034335,47.1252987],[28.7034567,47.1252798],[28.7034646,47.1252626],[28.7034596,47.1252405],[28.7034433,47.1252247],[28.7034302,47.1252013],[28.7034458,47.1251868],[28.7034537,47.1251711],[28.7034822,47.1251612],[28.7035136,47.1251401],[28.7035291,47.1251075],[28.703527,47.1250801],[28.7035504,47.1250581],[28.703586,47.1250456],[28.7036257,47.125027],[28.7036386,47.1250166],[28.7036498,47.1250008],[28.7036833,47.1249854],[28.7036965,47.1250039],[28.70371,47.1250136],[28.7037397,47.1250225],[28.7037728,47.1250214],[28.7037927,47.1250414],[28.7038203,47.1250516],[28.7038166,47.1250668],[28.7038185,47.1250796],[28.7038332,47.1250986],[28.703856,47.1251099],[28.7038478,47.125116],[28.703764,47.125149],[28.7037455,47.1251599],[28.7037311,47.1251358],[28.7037128,47.1251233],[28.7036888,47.1251165],[28.7036566,47.1251177],[28.7036301,47.1251258],[28.7036107,47.1251373],[28.7035992,47.125153],[28.7035969,47.1251662],[28.7036075,47.1251966],[28.7036181,47.1252077],[28.703633,47.1252163],[28.7036572,47.1252225],[28.7036934,47.1252213],[28.7037173,47.1252157],[28.7037361,47.1252047],[28.7037569,47.1252235],[28.70379,47.1252326],[28.7038019,47.1252485],[28.7038306,47.1252632],[28.7038474,47.1252814],[28.70384,47.1253087],[28.7038229,47.1253218],[28.7038142,47.1253381],[28.703817,47.1253597],[28.703837,47.1253796],[28.703819,47.1253973],[28.7038138,47.1254164],[28.7034507,47.1255558],[28.7034135,47.1255762],[28.703404,47.1255877],[28.7033981,47.1256029],[28.7030864,47.1257143],[28.7030453,47.1257167],[28.7030194,47.1257236],[28.702997,47.1257343],[28.7029708,47.1257303],[28.7029513,47.1257313],[28.7029101,47.1257446],[28.7028745,47.1257383],[28.7028404,47.1257451],[28.7028398,47.1257288],[28.702834,47.1257171]]]}},{"type":"Feature","id":8,"properties":{"farm_id":"F08","vineyard_ids":["V12"],"n_blocks":1,"area_m2":70.31,"n_parcels":1,"cadastral_codes":["80372170086"],"landuse_counts":{"Teren  pentru amplasarea construcțiilor locative":1},"label_point":[28.7087254,47.1247082]},"geometry":{"type":"Polygon","coordinates":[[[28.7086471,47.1247066],[28.7086768,47.1246892],[28.7086935,47.1246634],[28.7087194,47.1246543],[28.7087648,47.124675],[28.708771,47.1246808],[28.7087732,47.1247728],[28.7087492,47.1247622],[28.7086471,47.1247066]]]}},{"type":"Feature","id":9,"properties":{"farm_id":"F09","vineyard_ids":["V13","V16"],"n_blocks":2,"area_m2":49282.77,"n_parcels":29,"cadastral_codes":["80371140011","80371140012","80371140013","80371140018","80371140019","80371140020","80371140021","80371140022","80371140023","80371140024","80371140026","80371140027","80371140028","80371140029","80371140042","80371140043","80371140044","80371140045","80371140048","80371140049","80371140050","80371140064","80371140065","80371140066","80371140067","80371140068","80371140487","80371140492","80371140520"],"landuse_counts":{"Teren pentru grădini":26,"Nu este indicat":2,"Teren pentru obținerea producției agricole":1},"label_point":[28.7092321,47.1221831]},"geometry":{"type":"MultiPolygon","coordinates":[[[[28.7075126,47.1229251],[28.7075215,47.1229114],[28.7075231,47.1228932],[28.7075112,47.1228647],[28.7075023,47.1228532],[28.7074889,47.122844],[28.7074676,47.1228365],[28.70745,47.1228232],[28.7074271,47.1228157],[28.7073954,47.1228154],[28.7073634,47.122826],[28.7073624,47.1227798],[28.7075941,47.1225612],[28.7076934,47.1225575],[28.7077228,47.1225499],[28.7077553,47.122527],[28.7078059,47.1224768],[28.7078413,47.1224564],[28.7078654,47.1224195],[28.7080117,47.1222779],[28.7080184,47.1222613],[28.7080183,47.1222026],[28.7081257,47.1220997],[28.7081394,47.1220818],[28.7086321,47.1216236],[28.7086893,47.1216218],[28.7087075,47.1216185],[28.7087236,47.1216117],[28.7087502,47.1215932],[28.7088008,47.121541],[28.7088863,47.1214606],[28.7089039,47.1214486],[28.7089223,47.1214267],[28.7089543,47.1214008],[28.7089689,47.121383],[28.7090135,47.1213455],[28.7090323,47.1213232],[28.7092156,47.1211533],[28.7096331,47.1211468],[28.7096374,47.1211661],[28.7096522,47.1211816],[28.709674,47.1211916],[28.7096998,47.121195],[28.7097469,47.121192],[28.7097656,47.121187],[28.7097813,47.1211783],[28.7098191,47.121144],[28.7098589,47.1211435],[28.709877,47.1211602],[28.7099052,47.1211698],[28.7099242,47.1211707],[28.7099486,47.1211663],[28.7099643,47.1211589],[28.7100001,47.1211305],[28.710021,47.1211048],[28.7103237,47.1208183],[28.7103333,47.120814],[28.7103773,47.1208306],[28.7104,47.120834],[28.7104175,47.1208441],[28.7104351,47.120849],[28.7104603,47.1208499],[28.7104806,47.1208456],[28.7105346,47.1208618],[28.7105925,47.1208694],[28.7106338,47.1208819],[28.7106535,47.1208832],[28.7106742,47.1208801],[28.7106972,47.1208958],[28.7107149,47.1209008],[28.7107401,47.1209017],[28.7107852,47.1209249],[28.7108035,47.1209301],[28.7108297,47.1209309],[28.7108534,47.120925],[28.7108729,47.1209321],[28.710901,47.1209371],[28.7109338,47.1209367],[28.7109304,47.1209448],[28.7109155,47.1209556],[28.7108762,47.1209971],[28.7107393,47.1211273],[28.7103513,47.1214854],[28.7103063,47.1215304],[28.7102989,47.1215473],[28.7103001,47.1215606],[28.7103069,47.1215731],[28.7103289,47.1215892],[28.7103595,47.1215962],[28.7104582,47.1215955],[28.7104655,47.1216141],[28.710482,47.121631],[28.7105255,47.1216588],[28.7105578,47.1216695],[28.7105907,47.1216678],[28.7106136,47.1216588],[28.7106862,47.1215929],[28.7106969,47.1215921],[28.7106978,47.1216218],[28.7106844,47.1216393],[28.7106688,47.1216499],[28.7106256,47.1216922],[28.7106203,47.1217049],[28.7106218,47.1217223],[28.710633,47.121738],[28.7106521,47.1217497],[28.7106763,47.1217555],[28.7107021,47.1217546],[28.7107045,47.1218042],[28.7107098,47.1218172],[28.7107205,47.1218285],[28.7107475,47.121841],[28.7107774,47.1218444],[28.7108101,47.1218615],[28.7107141,47.1219553],[28.7107097,47.1219682],[28.7107102,47.1219847],[28.7107194,47.1220027],[28.7106603,47.1220511],[28.7106264,47.1220541],[28.7106019,47.1220619],[28.7105556,47.1220989],[28.7101093,47.1225191],[28.7100758,47.1225467],[28.710014,47.1226078],[28.7099915,47.1226242],[28.709651,47.1229423],[28.7096402,47.1229572],[28.7096068,47.1229882],[28.7095601,47.1229926],[28.7095424,47.1229989],[28.7095282,47.1230085],[28.7094061,47.1231266],[28.7093981,47.123142],[28.7093975,47.1231739],[28.7093777,47.1231962],[28.7093587,47.1232104],[28.7091966,47.1233637],[28.7091759,47.1233581],[28.7091502,47.1233576],[28.7090497,47.1233281],[28.7090162,47.123315],[28.7089916,47.1233138],[28.7089691,47.1233186],[28.7088733,47.1233028],[28.7088521,47.1233031],[28.7088334,47.1232905],[28.70881,47.123283],[28.708759,47.1232818],[28.708727,47.1232917],[28.7087117,47.1232776],[28.708696,47.1232703],[28.708626,47.1232551],[28.7085942,47.1232554],[28.7085804,47.1232444],[28.7085581,47.1232359],[28.7085244,47.1232346],[28.7084901,47.1232285],[28.7084584,47.1232175],[28.7084306,47.1232133],[28.7084098,47.1232149],[28.7083901,47.1232077],[28.7083557,47.123201],[28.7083181,47.1231961],[28.7082969,47.1231967],[28.7082638,47.1231807],[28.7082467,47.1231757],[28.7081478,47.1231571],[28.7081193,47.1231564],[28.7080707,47.123139],[28.708037,47.1231316],[28.7080094,47.1231306],[28.7079878,47.1231254],[28.7079643,47.1231252],[28.707937,47.1231146],[28.7079066,47.1231073],[28.7078874,47.1231058],[28.7078678,47.1230893],[28.7078453,47.1230812],[28.70782,47.1230796],[28.7077957,47.1230831],[28.707772,47.1230795],[28.707752,47.1230809],[28.7077263,47.1230729],[28.7076816,47.1230672],[28.7076782,47.1230502],[28.7076695,47.1230385],[28.7076562,47.123029],[28.7076395,47.1230226],[28.7076144,47.1230196],[28.7075054,47.1230209],[28.7075186,47.1230047],[28.7075222,47.1229916],[28.7075139,47.1229681],[28.7075196,47.1229449],[28.7075126,47.1229251]]],[[[28.7110369,47.1209111],[28.71101,47.120904],[28.7109858,47.1209045],[28.7110768,47.1208108],[28.7110987,47.1207937],[28.7111094,47.1207778],[28.7111785,47.1207087],[28.7111854,47.1207073],[28.7111877,47.1207237],[28.7111991,47.1207392],[28.7112129,47.1207483],[28.71123,47.1207543],[28.7112488,47.1207566],[28.711274,47.1207539],[28.7112908,47.1207476],[28.7113056,47.1207374],[28.7113213,47.1207152],[28.7113222,47.1207019],[28.7113173,47.1206889],[28.7113071,47.1206776],[28.7112868,47.1206665],[28.7112682,47.1206622],[28.7112437,47.1206619],[28.7112499,47.1206533],[28.7113306,47.1205823],[28.7113607,47.1205502],[28.711559,47.1203706],[28.7115891,47.1203397],[28.7117102,47.1202322],[28.7117423,47.1201989],[28.7117526,47.1201937],[28.7117878,47.1201884],[28.7118131,47.1201732],[28.7120861,47.1199119],[28.7120936,47.1198996],[28.7120948,47.1198819],[28.712089,47.1198692],[28.7120733,47.1198551],[28.7120569,47.1198478],[28.7120317,47.1198438],[28.7120123,47.1198454],[28.7119931,47.1198513],[28.7120516,47.1197955],[28.7120641,47.1197777],[28.7120677,47.1197642],[28.7120652,47.1197506],[28.7120568,47.1197382],[28.7120433,47.119728],[28.71208,47.1196906],[28.7121073,47.1196705],[28.7121488,47.1196294],[28.7121652,47.1196188],[28.7121361,47.119645],[28.7121179,47.1196738],[28.7121175,47.1196869],[28.7121227,47.1196995],[28.7121424,47.1197167],[28.7121652,47.1197245],[28.712187,47.1197262],[28.7123242,47.1197238],[28.7123493,47.1197181],[28.712369,47.1197061],[28.7124103,47.1196648],[28.7126331,47.119463],[28.712652,47.1194353],[28.7126525,47.1193987],[28.7126979,47.1193564],[28.7127053,47.1193442],[28.7127073,47.1193311],[28.7126982,47.1193102],[28.7126811,47.1192972],[28.7126333,47.1192842],[28.7126139,47.1192829],[28.7125887,47.1192871],[28.7125679,47.1192976],[28.712529,47.1193322],[28.7125111,47.1193437],[28.7123679,47.1194717],[28.7123541,47.1194887],[28.7123329,47.119503],[28.7123197,47.1195194],[28.7122864,47.1195223],[28.7122611,47.1195331],[28.7122786,47.1195132],[28.712317,47.1194832],[28.7123872,47.1194161],[28.71246,47.1193511],[28.7124787,47.1193388],[28.7125246,47.1192948],[28.7125351,47.1192762],[28.7125345,47.1192602],[28.7125494,47.1192408],[28.7126151,47.1191805],[28.712639,47.1191537],[28.7126452,47.1191093],[28.712991,47.1187931],[28.7130295,47.1187923],[28.71302,47.118809],[28.7130204,47.1188268],[28.7130309,47.118843],[28.7130554,47.1188574],[28.713074,47.1188615],[28.7130935,47.1188617],[28.7131123,47.118858],[28.7131333,47.1188476],[28.7132385,47.1187523],[28.713251,47.118735],[28.713271,47.11872],[28.713299,47.1186912],[28.7133035,47.1186781],[28.7133036,47.1186563],[28.7133363,47.118619],[28.7133417,47.1186023],[28.7133395,47.1185894],[28.713332,47.1185776],[28.7133027,47.1185581],[28.71343,47.1184427],[28.7134527,47.118418],[28.7134706,47.1184059],[28.7134981,47.1183771],[28.7135604,47.1183246],[28.7136245,47.1183234],[28.7136661,47.1183566],[28.7136827,47.1183634],[28.7137031,47.1183667],[28.7137008,47.1183804],[28.713707,47.1183978],[28.713718,47.118409],[28.7137377,47.1184202],[28.7137473,47.1184347],[28.7137599,47.1184443],[28.7137689,47.1184585],[28.7138016,47.1184917],[28.7138021,47.1185119],[28.7138213,47.1185408],[28.7138574,47.1185658],[28.7136582,47.1187447],[28.7136364,47.1187706],[28.7136287,47.1187867],[28.7135455,47.1188594],[28.7133267,47.1190616],[28.7133171,47.1190819],[28.7133179,47.1191457],[28.713213,47.1192442],[28.7132045,47.1192501],[28.7131231,47.1192535],[28.713105,47.1192601],[28.7130857,47.1192723],[28.7126806,47.1196548],[28.7126275,47.1196968],[28.7126181,47.1197094],[28.7126134,47.1197239],[28.7121826,47.120118],[28.7121751,47.1201303],[28.7121739,47.120148],[28.7121797,47.1201607],[28.7121907,47.1201717],[28.7122059,47.1201801],[28.7122305,47.1201858],[28.7123418,47.1201854],[28.7123354,47.1202056],[28.7123417,47.1202326],[28.7123198,47.1202498],[28.7122934,47.1202781],[28.7122715,47.1202937],[28.7121865,47.1203783],[28.7121272,47.1204287],[28.7121169,47.1204422],[28.7120907,47.1204628],[28.7120644,47.1204924],[28.7120499,47.1205014],[28.7120232,47.1205262],[28.7120141,47.1205461],[28.7120159,47.120627],[28.7120013,47.1206453],[28.7119887,47.1206505],[28.7119041,47.1206528],[28.7118853,47.1206579],[28.7118655,47.1206703],[28.71184,47.1206958],[28.7118341,47.1207173],[28.7118438,47.1207381],[28.7118747,47.120758],[28.7118746,47.1207625],[28.7118523,47.1207794],[28.7118118,47.1208219],[28.711497,47.1211183],[28.7113595,47.1211207],[28.7113354,47.1211131],[28.7113163,47.1211115],[28.7112973,47.1211137],[28.7112746,47.1211217],[28.7112492,47.1211221],[28.711263,47.1211029],[28.7113421,47.1210248],[28.7113782,47.120982],[28.7113817,47.1209691],[28.7113795,47.1209561],[28.711372,47.120944],[28.7113547,47.1209312],[28.7113376,47.1209251],[28.7113094,47.1209219],[28.7112938,47.1209116],[28.7112709,47.1209043],[28.7112457,47.1209035],[28.7112202,47.1209085],[28.7112003,47.1208875],[28.7111842,47.1208804],[28.7111657,47.1208767],[28.7111402,47.1208778],[28.7111085,47.120889],[28.7110741,47.1208925],[28.7110369,47.1209111]]],[[[28.7121654,47.1196185],[28.7121818,47.1195998],[28.7121952,47.119592],[28.7121883,47.1196024],[28.7121654,47.1196185]]],[[[28.7073834,47.1229162],[28.707376,47.1229279],[28.7073668,47.1229342],[28.7073665,47.1229279],[28.7073834,47.1229162]]]]}},{"type":"Feature","id":10,"properties":{"farm_id":"F10","vineyard_ids":["V14"],"n_blocks":1,"area_m2":204.08,"n_parcels":1,"cadastral_codes":["80372170136"],"landuse_counts":{"Pentru construcţii":1},"label_point":[28.7117178,47.1219797]},"geometry":{"type":"Polygon","coordinates":[[[28.7116287,47.1220077],[28.7116225,47.1219957],[28.7116054,47.1219789],[28.7115769,47.121963],[28.7115741,47.1219572],[28.7115992,47.1219388],[28.7116157,47.1219361],[28.711636,47.1219278],[28.7116676,47.1219293],[28.711686,47.1219251],[28.7117045,47.1219166],[28.7117299,47.1219161],[28.71175,47.1219105],[28.7118488,47.1219755],[28.711834,47.1219906],[28.7118292,47.1220034],[28.71183,47.1220166],[28.7118401,47.1220332],[28.7118379,47.1220347],[28.7116466,47.1220379],[28.7116301,47.1220284],[28.7116287,47.1220077]]]}},{"type":"Feature","id":11,"properties":{"farm_id":"F11","vineyard_ids":["V15"],"n_blocks":1,"area_m2":57.67,"n_parcels":1,"cadastral_codes":["80372170179"],"landuse_counts":{"Pentru construcţii":1},"label_point":[28.7139618,47.1201204]},"geometry":{"type":"Polygon","coordinates":[[[28.7139021,47.1201472],[28.7139249,47.1200967],[28.71396,47.1200919],[28.7139861,47.1200768],[28.7140227,47.1200612],[28.7140219,47.1200735],[28.714006,47.120106],[28.7140014,47.120127],[28.7139849,47.1201596],[28.7139014,47.1201609],[28.7139021,47.1201472]]]}},{"type":"Feature","id":12,"properties":{"farm_id":"F12","vineyard_ids":["V17"],"n_blocks":1,"area_m2":149.75,"n_parcels":1,"cadastral_codes":["80371140236"],"landuse_counts":{"Teren pentru grădini":1},"label_point":[28.7174663,47.1182097]},"geometry":{"type":"Polygon","coordinates":[[[28.7173672,47.1181827],[28.7173932,47.1181757],[28.7174154,47.1181589],[28.7174396,47.118173],[28.7174719,47.1181779],[28.7175035,47.1181715],[28.7175263,47.1181561],[28.7175357,47.1181351],[28.7175321,47.1180791],[28.7175349,47.118062],[28.7175268,47.1180006],[28.7175302,47.1179952],[28.7175342,47.1180053],[28.7175347,47.1180582],[28.7175393,47.1180743],[28.7175483,47.1182047],[28.717551,47.1182489],[28.7175481,47.1182633],[28.7173777,47.1182659],[28.7173672,47.1181827]]]}},{"type":"Feature","id":13,"properties":{"farm_id":"F13","vineyard_ids":["V18","V22"],"n_blocks":2,"area_m2":2387.24,"n_parcels":4,"cadastral_codes":["80371140072","80371140073","80371140074","80371150067"],"landuse_counts":{"Teren pentru grădini":4},"label_point":[28.7112548,47.1181047]},"geometry":{"type":"MultiPolygon","coordinates":[[[[28.7107747,47.1183634],[28.7112479,47.1178982],[28.7112844,47.1178954],[28.7113133,47.117884],[28.7114254,47.1177821],[28.711432,47.1177795],[28.7114241,47.1177996],[28.7114277,47.1178174],[28.7114387,47.1178347],[28.7114554,47.1178478],[28.7114644,47.1178696],[28.7114853,47.1178854],[28.7115022,47.117891],[28.7115207,47.1178932],[28.7116728,47.1178912],[28.7113808,47.1181955],[28.7112304,47.1183579],[28.7110833,47.1183603],[28.7110518,47.1183493],[28.7110185,47.1183483],[28.711017,47.1183274],[28.7110012,47.1183083],[28.7109817,47.1182972],[28.7109511,47.1182916],[28.7109321,47.1182933],[28.7109146,47.1182986],[28.7108903,47.1183157],[28.7108554,47.1183157],[28.7108315,47.1183221],[28.710817,47.1183308],[28.7107829,47.1183637],[28.7107747,47.1183634]]],[[[28.7117413,47.1178539],[28.7117404,47.117839],[28.7117346,47.1178264],[28.7116929,47.1177876],[28.7116673,47.1177745],[28.7116294,47.1177706],[28.7115161,47.1176747],[28.7115205,47.117671],[28.7115452,47.1176706],[28.7115635,47.117666],[28.7115939,47.1176467],[28.711621,47.117622],[28.7116308,47.1176077],[28.7116335,47.11759],[28.7116265,47.1175738],[28.7116554,47.1175703],[28.7116769,47.1175603],[28.7116911,47.1175454],[28.7116961,47.1175292],[28.7117179,47.1175146],[28.7117271,47.1175177],[28.7117812,47.1175592],[28.7117995,47.1175647],[28.7118294,47.1175665],[28.7119175,47.1176385],[28.7119209,47.1176523],[28.7119259,47.1178225],[28.7118932,47.1178289],[28.7118598,47.1178449],[28.7118385,47.1178447],[28.7118191,47.1178487],[28.7117847,47.1178651],[28.7117598,47.1178564],[28.7117413,47.1178539]]]]}},{"type":"Feature","id":14,"properties":{"farm_id":"F14","vineyard_ids":["V19"],"n_blocks":1,"area_m2":2056.11,"n_parcels":10,"cadastral_codes":["80371140206","80371140207","80371140208","80371140209","80371140210","80371140211","80371140212","80371140213","80371140214","80371140506"],"landuse_counts":{"Teren pentru grădini":10},"label_point":[28.7166409,47.1177978]},"geometry":{"type":"Polygon","coordinates":[[[28.7161439,47.1182832],[28.7161448,47.1182813],[28.7164981,47.1178237],[28.7165057,47.1178188],[28.7165637,47.1178161],[28.716586,47.1178082],[28.7166024,47.1177952],[28.716642,47.1177438],[28.716648,47.117724],[28.7166428,47.1175515],[28.7167945,47.1173551],[28.7171227,47.1173491],[28.7167706,47.1178127],[28.7167293,47.1178216],[28.7167145,47.1178306],[28.7167004,47.1178452],[28.7166563,47.117906],[28.7166552,47.117956],[28.7166507,47.1179684],[28.7164088,47.1182794],[28.7161439,47.1182832]]]}},{"type":"Feature","id":15,"properties":{"farm_id":"F15","vineyard_ids":["V21"],"n_blocks":1,"area_m2":981.34,"n_parcels":3,"cadastral_codes":["80371140169","80371140170","80371140171"],"landuse_counts":{"Teren pentru grădini":3},"label_point":[28.7149123,47.1176903]},"geometry":{"type":"Polygon","coordinates":[[[28.7146257,47.1179686],[28.7146302,47.1179555],[28.7146302,47.1179205],[28.7146583,47.1178915],[28.7146662,47.1178752],[28.7146658,47.1178622],[28.7146571,47.1178429],[28.7147668,47.1177327],[28.714786,47.117718],[28.7148133,47.1176859],[28.7151201,47.1173791],[28.7153156,47.1173764],[28.7149208,47.1177665],[28.7146381,47.1180573],[28.7146089,47.1180595],[28.7145908,47.118065],[28.7145615,47.1180874],[28.7145372,47.1180821],[28.7145116,47.118083],[28.7146257,47.1179686]]]}},{"type":"Feature","id":16,"properties":{"farm_id":"F16","vineyard_ids":["V20"],"n_blocks":1,"area_m2":618.69,"n_parcels":2,"cadastral_codes":["80371140162","80371140163"],"landuse_counts":{"Teren pentru grădini":2},"label_point":[28.7130783,47.1177324]},"geometry":{"type":"Polygon","coordinates":[[[28.7126891,47.1175532],[28.7127724,47.1174966],[28.712807,47.1175146],[28.7128651,47.1175534],[28.712886,47.1175626],[28.7130447,47.1176597],[28.7130591,47.1176722],[28.7131027,47.1176992],[28.7131219,47.1177075],[28.7131768,47.1177407],[28.7132432,47.1177848],[28.7134346,47.1178996],[28.7135243,47.1179581],[28.7134945,47.1179685],[28.7134824,47.1179782],[28.7134736,47.1179919],[28.7134655,47.1179906],[28.7132819,47.1178786],[28.7132493,47.1178681],[28.7132049,47.1178674],[28.7126891,47.1175532]]]}},{"type":"Feature","id":17,"properties":{"farm_id":"F17","vineyard_ids":["V23"],"n_blocks":1,"area_m2":323.98,"n_parcels":2,"cadastral_codes":["80371140075","80371140076"],"landuse_counts":{"Teren pentru grădini":2},"label_point":[28.7121013,47.1175267]},"geometry":{"type":"Polygon","coordinates":[[[28.7119152,47.1174567],[28.7119141,47.1174268],[28.7120739,47.1174247],[28.7122047,47.1175231],[28.7122102,47.1175401],[28.7122189,47.1175513],[28.7122721,47.1175894],[28.7122752,47.1175944],[28.7122653,47.1176155],[28.7122181,47.1176465],[28.7121844,47.1176571],[28.7120889,47.1175842],[28.7119215,47.1174656],[28.7119152,47.1174567]]]}},{"type":"Feature","id":18,"properties":{"farm_id":"F18","vineyard_ids":["V24"],"n_blocks":1,"area_m2":676.69,"n_parcels":1,"cadastral_codes":["80371140160"],"landuse_counts":{"Teren pentru grădini":1},"label_point":[28.7137146,47.1173472]},"geometry":{"type":"Polygon","coordinates":[[[28.7134109,47.1171794],[28.7134249,47.1171546],[28.7135111,47.1171134],[28.713525,47.117121],[28.7137362,47.1172839],[28.7137621,47.117307],[28.7137821,47.117319],[28.7137958,47.1173341],[28.7138383,47.1173627],[28.7138725,47.1173931],[28.7138919,47.1174036],[28.7139373,47.1174382],[28.7139411,47.1174678],[28.7139476,47.1174798],[28.714023,47.1175414],[28.7140176,47.1175547],[28.7140178,47.1175668],[28.7139962,47.1175884],[28.7139926,47.1175903],[28.7139658,47.1175872],[28.7139424,47.1175895],[28.7137156,47.1174126],[28.713694,47.1174033],[28.7136537,47.1173981],[28.7135676,47.1173303],[28.7135691,47.1173114],[28.7135573,47.1172913],[28.7134121,47.1171841],[28.7134109,47.1171794]]]}},{"type":"Feature","id":19,"properties":{"farm_id":"F19","vineyard_ids":["V25"],"n_blocks":1,"area_m2":347.95,"n_parcels":1,"cadastral_codes":["80371140078"],"landuse_counts":{"Teren pentru grădini":1},"label_point":[28.7123902,47.1172321]},"geometry":{"type":"Polygon","coordinates":[[[28.7121451,47.1170953],[28.7121693,47.1170928],[28.7121863,47.1170866],[28.7122318,47.1170555],[28.7122539,47.117076],[28.7124848,47.1172484],[28.712549,47.1173013],[28.7125797,47.1173211],[28.7125854,47.1173308],[28.7125886,47.1173874],[28.712595,47.1173993],[28.7126111,47.1174157],[28.7125658,47.1174165],[28.7121451,47.1170953]]]}},{"type":"Feature","id":20,"properties":{"farm_id":"F20","vineyard_ids":["V26"],"n_blocks":1,"area_m2":779.44,"n_parcels":2,"cadastral_codes":["80371140081","80371140082"],"landuse_counts":{"Teren pentru grădini":2},"label_point":[28.7128709,47.1168451]},"geometry":{"type":"Polygon","coordinates":[[[28.7125716,47.1167356],[28.7126266,47.1166601],[28.7126511,47.1166546],[28.7126667,47.1166476],[28.7126845,47.116633],[28.7126936,47.1166179],[28.7127012,47.1166166],[28.712899,47.1167761],[28.7131043,47.1169361],[28.7132504,47.1170565],[28.7132534,47.1171443],[28.7130295,47.1169595],[28.7130126,47.1169528],[28.7129936,47.1169498],[28.7128921,47.116951],[28.7128614,47.1169367],[28.7128426,47.1169338],[28.7128218,47.1169349],[28.7125716,47.1167356]]]}},{"type":"Feature","id":21,"properties":{"farm_id":"F21","vineyard_ids":["V27","V28"],"n_blocks":2,"area_m2":3755.04,"n_parcels":4,"cadastral_codes":["80371140148","80371140149","80371140150","80371140152"],"landuse_counts":{"Teren pentru grădini":4},"label_point":[28.7151127,47.1165548]},"geometry":{"type":"Polygon","coordinates":[[[28.7145833,47.1164654],[28.7147114,47.1164635],[28.7147413,47.1164814],[28.7147591,47.116486],[28.7147781,47.116487],[28.7148081,47.1164803],[28.7148341,47.1164616],[28.7148859,47.1164597],[28.7149091,47.1164529],[28.7149269,47.1164406],[28.7149365,47.1164246],[28.7149351,47.1164031],[28.7149173,47.116382],[28.7149298,47.1163628],[28.7149301,47.1163448],[28.7149439,47.1163304],[28.7149488,47.1163176],[28.7151192,47.1162115],[28.7151488,47.1162039],[28.7151934,47.1161836],[28.7152227,47.1161939],[28.715254,47.1161949],[28.7153194,47.1162502],[28.7153749,47.1162918],[28.7154031,47.1163034],[28.7154444,47.1163059],[28.7154593,47.1163218],[28.7155332,47.116377],[28.7155492,47.1163938],[28.7155679,47.1164047],[28.7156084,47.116437],[28.7156358,47.1164474],[28.7156764,47.1164494],[28.7157354,47.1164992],[28.7156956,47.1165144],[28.7156757,47.1165367],[28.715641,47.1165414],[28.71561,47.1165568],[28.7155677,47.1165878],[28.7155571,47.1166095],[28.7155216,47.1166296],[28.7155021,47.1166512],[28.7154158,47.116708],[28.7153954,47.1166987],[28.7153769,47.1166941],[28.7153265,47.1166969],[28.7152927,47.1167117],[28.7152796,47.1167207],[28.7152689,47.1167359],[28.7152666,47.116757],[28.7152408,47.1167512],[28.7152152,47.1167527],[28.715185,47.1167648],[28.7151608,47.1167708],[28.7151457,47.1167794],[28.7151308,47.1167991],[28.71513,47.1168177],[28.7151216,47.1168398],[28.7151318,47.1168641],[28.7151269,47.1168777],[28.7151279,47.1168905],[28.7151461,47.1169165],[28.7149153,47.1169207],[28.7145887,47.1166435],[28.7145833,47.1164654]]]}},{"type":"Feature","id":22,"properties":{"farm_id":"F22","vineyard_ids":["V29"],"n_blocks":1,"area_m2":1292.18,"n_parcels":2,"cadastral_codes":["80371140089","80371140091"],"landuse_counts":{"Teren pentru grădini":2},"label_point":[28.7138218,47.1163305]},"geometry":{"type":"Polygon","coordinates":[[[28.7134195,47.1160417],[28.7134429,47.1160217],[28.713523,47.1160203],[28.7135367,47.1160241],[28.7138364,47.1162615],[28.7138522,47.116269],[28.7138705,47.1162732],[28.7139057,47.1162721],[28.7142044,47.116468],[28.7141995,47.1164838],[28.7142007,47.1164972],[28.7142173,47.1165193],[28.7141686,47.1165602],[28.7141255,47.1165706],[28.7140955,47.1165887],[28.7140843,47.1166012],[28.7140537,47.1166188],[28.7140343,47.116617],[28.7140032,47.1166196],[28.7139161,47.1165486],[28.7139104,47.1165405],[28.7139079,47.1165132],[28.7138968,47.1164967],[28.7134058,47.1161124],[28.7134102,47.1160951],[28.7134082,47.1160823],[28.713401,47.1160705],[28.7133813,47.1160536],[28.7134195,47.1160417]]]}},{"type":"Feature","id":23,"properties":{"farm_id":"F23","vineyard_ids":["V30"],"n_blocks":1,"area_m2":670.53,"n_parcels":2,"cadastral_codes":["80371140145","80371140146"],"landuse_counts":{"Teren pentru grădini":2},"label_point":[28.7157574,47.1161163]},"geometry":{"type":"Polygon","coordinates":[[[28.715457,47.1159916],[28.7157953,47.1159868],[28.7158653,47.1160386],[28.7158841,47.1160567],[28.7159169,47.1160771],[28.7159205,47.1160899],[28.7159274,47.1163518],[28.7154562,47.1159947],[28.715457,47.1159916]]]}},{"type":"Feature","id":24,"properties":{"farm_id":"F24","vineyard_ids":["V33"],"n_blocks":1,"area_m2":49.55,"n_parcels":1,"cadastral_codes":["80371150146"],"landuse_counts":{"Teren pentru grădini":1},"label_point":[28.7139787,47.1155245]},"geometry":{"type":"Polygon","coordinates":[[[28.7138842,47.1155486],[28.7139767,47.1154971],[28.7140136,47.1154968],[28.714042,47.1154877],[28.7140639,47.115509],[28.7140417,47.1155214],[28.7140174,47.1155301],[28.7139843,47.115552],[28.7138805,47.1155538],[28.7138842,47.1155486]]]}},{"type":"Feature","id":25,"properties":{"farm_id":"F25","vineyard_ids":["V34"],"n_blocks":1,"area_m2":481.52,"n_parcels":1,"cadastral_codes":["80371140098"],"landuse_counts":{"Teren pentru grădini":1},"label_point":[28.7150235,47.1154363]},"geometry":{"type":"Polygon","coordinates":[[[28.7147723,47.1152881],[28.7147812,47.1152755],[28.714784,47.1152583],[28.7147893,47.1152554],[28.7148176,47.1152593],[28.7148414,47.1152559],[28.7148709,47.1152577],[28.7148918,47.1152542],[28.7152245,47.1155279],[28.7152269,47.1155323],[28.7152204,47.1155551],[28.7152288,47.1155776],[28.7152312,47.1156731],[28.7152271,47.1156726],[28.7147994,47.1153151],[28.7147723,47.1152881]]]}},{"type":"Feature","id":26,"properties":{"farm_id":"F26","vineyard_ids":["V35","V36","V38","V39"],"n_blocks":4,"area_m2":2700.25,"n_parcels":4,"cadastral_codes":["80371140099","80371140100","80371140101","80371140103"],"landuse_counts":{"Teren pentru grădini":4},"label_point":[28.7155476,47.1152743]},"geometry":{"type":"Polygon","coordinates":[[[28.7150132,47.1151718],[28.7150247,47.1151516],[28.7150262,47.1151377],[28.7150312,47.1151344],[28.7150619,47.1151487],[28.7150813,47.1151512],[28.7151083,47.11515],[28.7151441,47.1151761],[28.7151668,47.115185],[28.7151991,47.1151867],[28.7152286,47.1151776],[28.7152482,47.11516],[28.7152533,47.1151382],[28.7152458,47.1151212],[28.7152138,47.1150885],[28.7152133,47.1150737],[28.7152806,47.1150722],[28.7153105,47.1150644],[28.7153245,47.1150553],[28.7153361,47.1150397],[28.7153386,47.1150266],[28.7153352,47.1150103],[28.7153683,47.1150015],[28.7153914,47.1149855],[28.7154516,47.1149555],[28.7155664,47.1150507],[28.7155862,47.1150619],[28.7156043,47.1150664],[28.7156301,47.1150676],[28.7156502,47.1150746],[28.7156694,47.1150766],[28.7156948,47.1150732],[28.7157118,47.1150663],[28.7157825,47.1150654],[28.7158813,47.1151463],[28.71589,47.1151585],[28.7158919,47.1152162],[28.7158719,47.1152344],[28.7158674,47.1152562],[28.7158751,47.1152731],[28.7158943,47.1152916],[28.7159003,47.1153689],[28.7159199,47.1153932],[28.7159667,47.1154321],[28.7159352,47.1154625],[28.7159265,47.1154785],[28.7159286,47.1154997],[28.715948,47.1155213],[28.715941,47.1155229],[28.7159235,47.1155183],[28.7159034,47.1155173],[28.7158693,47.1155242],[28.7157382,47.1155262],[28.7157047,47.1155109],[28.7156723,47.1155068],[28.7156468,47.1155116],[28.7156183,47.115528],[28.7154406,47.1155305],[28.7152233,47.1153484],[28.7152181,47.1153224],[28.7152055,47.1153071],[28.7151345,47.1152533],[28.7150132,47.1151718]]]}},{"type":"Feature","id":27,"properties":{"farm_id":"F27","vineyard_ids":["V31","V32","V37","V40","V41","V42","V43","V44"],"n_blocks":8,"area_m2":20738.28,"n_parcels":32,"cadastral_codes":["80371140105","80371140106","80371140107","80371140108","80371140109","80371140110","80371140112","80371140113","80371140116","80371140117","80371140127","80371140128","80371140130","80371140131","80371140132","80371140133","80371140134","80371140135","80371140243","80371140244","80371140245","80371140246","80371140290","80371150179","80371150180","80371150201","80371150202","80371150203","80371150204","80371150251","80371150252","80371150253"],"landuse_counts":{"Teren pentru grădini":31,"NEDETERMINAT":1},"label_point":[28.7167743,47.1145318]},"geometry":{"type":"MultiPolygon","coordinates":[[[[28.715558,47.1141429],[28.7155814,47.114125],[28.7155902,47.1141138],[28.7155937,47.1140903],[28.7156146,47.114079],[28.7156619,47.1140434],[28.715748,47.1139472],[28.7158122,47.1139081],[28.7158363,47.1138879],[28.7158494,47.1138661],[28.7158968,47.1138159],[28.7159183,47.1138068],[28.7160442,47.1137319],[28.7160546,47.1137113],[28.7160519,47.113694],[28.7160402,47.1136787],[28.7160492,47.1136667],[28.7160805,47.1136556],[28.716136,47.1136008],[28.7162387,47.113539],[28.7164452,47.113538],[28.7165144,47.1135848],[28.7165178,47.1136419],[28.7165249,47.1136545],[28.7165372,47.1136651],[28.7165596,47.1136744],[28.716579,47.1136771],[28.7165987,47.1136757],[28.7166179,47.1136706],[28.7166419,47.1136701],[28.7166847,47.1136998],[28.7167131,47.1137092],[28.7167559,47.1137126],[28.716781,47.1137093],[28.7168303,47.1136844],[28.7168467,47.113667],[28.7169482,47.1136655],[28.7170759,47.1137358],[28.7170911,47.1137618],[28.7170684,47.1137776],[28.7165744,47.1140523],[28.716559,47.1140662],[28.7165532,47.1140787],[28.7165541,47.1140961],[28.7165646,47.114112],[28.7165779,47.1141214],[28.7166007,47.1141292],[28.7166671,47.1141317],[28.7167714,47.1142394],[28.7167829,47.1142557],[28.7168015,47.1142702],[28.7171117,47.1145918],[28.7171263,47.1146007],[28.7171505,47.1146074],[28.7171701,47.1146079],[28.717189,47.1146044],[28.7172104,47.1145942],[28.7172304,47.1145722],[28.7172346,47.1145553],[28.7172265,47.1145347],[28.7168285,47.1141291],[28.7168356,47.1141282],[28.7168556,47.1141342],[28.7168757,47.1141356],[28.7169133,47.1141266],[28.7170326,47.1141252],[28.7170875,47.1141806],[28.7171058,47.1141931],[28.7171235,47.1141987],[28.7171428,47.1142006],[28.7171621,47.1141985],[28.7171848,47.1141899],[28.7171976,47.1141799],[28.7172071,47.1141635],[28.7172105,47.1141079],[28.7172056,47.1140913],[28.7171693,47.1140567],[28.717146,47.1140487],[28.7171261,47.1140471],[28.7170654,47.1139841],[28.7170776,47.1139586],[28.7171164,47.1139385],[28.7171444,47.1139387],[28.717163,47.1139347],[28.717179,47.1139271],[28.7171911,47.1139167],[28.7171999,47.1138955],[28.7171982,47.113839],[28.7172152,47.1138483],[28.71724,47.1138537],[28.7172658,47.1138521],[28.7172872,47.1138458],[28.71732,47.1138618],[28.7173654,47.1138994],[28.7173831,47.1139057],[28.7174073,47.113909],[28.717496,47.1139926],[28.7174952,47.1140127],[28.7175028,47.1140286],[28.717594,47.1141134],[28.7175963,47.1141307],[28.7176036,47.114143],[28.7179083,47.1144412],[28.7178985,47.1144519],[28.7178935,47.1144645],[28.7178944,47.1145227],[28.7178763,47.1145404],[28.7178718,47.1145577],[28.7178773,47.1145749],[28.7178969,47.1146007],[28.7179023,47.1146492],[28.7182406,47.1150067],[28.7182593,47.1150196],[28.7182906,47.115027],[28.7185191,47.115022],[28.718546,47.1150106],[28.718562,47.1149921],[28.7185645,47.1149748],[28.718554,47.1149545],[28.7185334,47.1149375],[28.7181919,47.1145816],[28.7181625,47.1145663],[28.7180011,47.1144355],[28.7180552,47.1143833],[28.718099,47.1143543],[28.7182999,47.1145173],[28.7183001,47.1145335],[28.7183082,47.1145501],[28.7183623,47.1145945],[28.7183862,47.1146243],[28.7185034,47.1147424],[28.7185513,47.1147974],[28.7185786,47.1148217],[28.7185842,47.1149863],[28.7185654,47.1150061],[28.7185625,47.1150295],[28.7185688,47.1150461],[28.7185871,47.1150635],[28.7185909,47.1152015],[28.7184293,47.1153343],[28.7184006,47.1153334],[28.7183815,47.1153369],[28.7183648,47.1153442],[28.7183355,47.1153652],[28.718293,47.115408],[28.7182894,47.1154215],[28.7182939,47.1154433],[28.718236,47.1154885],[28.718103,47.1154917],[28.7180792,47.1154989],[28.7180601,47.1155134],[28.7180514,47.1155006],[28.7180396,47.1154916],[28.7180346,47.1154732],[28.7180205,47.1154586],[28.7179886,47.1154423],[28.7179582,47.1154367],[28.7179239,47.1154425],[28.7178914,47.1154428],[28.7178579,47.1154559],[28.7178455,47.1154662],[28.7178381,47.1154785],[28.7178366,47.1155004],[28.7178409,47.1155141],[28.7178226,47.1155024],[28.7177989,47.1154962],[28.7177007,47.1154967],[28.7176813,47.1154899],[28.7176619,47.1154874],[28.717636,47.1154903],[28.7176134,47.115498],[28.7174091,47.1155009],[28.7173878,47.1154852],[28.7172477,47.1153534],[28.7172419,47.1152068],[28.7172385,47.1151934],[28.7171958,47.1151481],[28.7171007,47.1150644],[28.717085,47.1150457],[28.7171886,47.1150427],[28.7172167,47.1150318],[28.7172315,47.1150174],[28.7172371,47.1150001],[28.7172311,47.1148701],[28.7172278,47.1148569],[28.7172148,47.1148414],[28.7171941,47.1148306],[28.7171689,47.1148262],[28.7171431,47.1148287],[28.7171007,47.1148418],[28.7170834,47.1148326],[28.7170658,47.1148275],[28.7170404,47.1148264],[28.717022,47.11483],[28.7170013,47.1148401],[28.7169857,47.1148589],[28.7169847,47.1148805],[28.716996,47.1149004],[28.7169636,47.114902],[28.7169279,47.1149159],[28.7169103,47.1149277],[28.7168996,47.1149451],[28.7168654,47.1149642],[28.7168436,47.114963],[28.7168221,47.1149668],[28.7167926,47.1149447],[28.7167699,47.1149362],[28.7167377,47.1149349],[28.7167065,47.1149454],[28.716685,47.1149275],[28.7166694,47.1149066],[28.7166552,47.1148975],[28.7166377,47.1148916],[28.716612,47.1148897],[28.7165871,47.1148947],[28.716567,47.1149058],[28.7165567,47.1149175],[28.7165381,47.1149022],[28.7165049,47.1148638],[28.7164593,47.1148209],[28.716437,47.1148115],[28.716401,47.1148081],[28.7163222,47.1147215],[28.7163449,47.114707],[28.7163544,47.1146959],[28.7163592,47.1146791],[28.7163558,47.1146649],[28.7163727,47.114678],[28.7163833,47.1146934],[28.716412,47.1147197],[28.7164264,47.1147282],[28.7164438,47.1147334],[28.7164689,47.1147348],[28.7164984,47.1147274],[28.7165163,47.1147152],[28.7165303,47.1146956],[28.7165333,47.1146826],[28.7165305,47.1146695],[28.7165125,47.1146469],[28.7165298,47.1146379],[28.7165433,47.1146232],[28.7165477,47.114606],[28.7165439,47.1145845],[28.7165256,47.1145624],[28.7164422,47.1144804],[28.7164301,47.114464],[28.7164618,47.1144505],[28.7164736,47.1144393],[28.7164806,47.1144224],[28.7165031,47.114418],[28.7165187,47.1144109],[28.7165306,47.114401],[28.716538,47.1143892],[28.7165381,47.1143055],[28.716556,47.1142874],[28.7165611,47.1142709],[28.7165559,47.1142522],[28.7165356,47.1142294],[28.7165588,47.1142124],[28.7165681,47.1141915],[28.7165618,47.11417],[28.7165396,47.1141472],[28.7165182,47.1141367],[28.7164925,47.1141327],[28.7164448,47.1141337],[28.7164146,47.1141417],[28.7158703,47.1144441],[28.7158673,47.1144376],[28.7158594,47.1141881],[28.715856,47.1141742],[28.7158474,47.1141624],[28.7158288,47.1141503],[28.7158049,47.1141439],[28.7156631,47.1141449],[28.7156453,47.1141348],[28.7156206,47.114129],[28.7155945,47.1141302],[28.715558,47.1141429]],[[28.717367,47.1145048],[28.7174197,47.1145607],[28.7174329,47.1145698],[28.7174494,47.1145759],[28.7174776,47.1145787],[28.7175026,47.1145749],[28.7175237,47.1145649],[28.7175375,47.1145501],[28.717542,47.1145328],[28.7175336,47.1145117],[28.7174758,47.114455],[28.7174496,47.1144422],[28.7174306,47.1144392],[28.7174111,47.1144402],[28.717393,47.114445],[28.7173776,47.1144532],[28.7173665,47.1144641],[28.7173605,47.1144768],[28.7173602,47.1144901],[28.717367,47.1145048]],[[28.7172409,47.1143797],[28.7172608,47.1143927],[28.7172849,47.114399],[28.7173107,47.1143985],[28.7173342,47.1143912],[28.7173519,47.1143784],[28.7173609,47.1143619],[28.71736,47.1143443],[28.7173496,47.1143284],[28.7173303,47.1143157],[28.7173061,47.1143091],[28.71728,47.1143094],[28.7172561,47.1143167],[28.7172383,47.1143297],[28.7172292,47.1143464],[28.7172304,47.1143642],[28.7172409,47.1143797]]],[[[28.7180532,47.1155492],[28.7180621,47.1155628],[28.7180744,47.1155731],[28.7180905,47.1155804],[28.7181269,47.1155888],[28.718152,47.1156074],[28.7181553,47.1156304],[28.7181733,47.1156483],[28.7182014,47.1156584],[28.7182369,47.1156577],[28.7182357,47.115664],[28.7181971,47.1157037],[28.7181827,47.1157301],[28.7181836,47.115748],[28.718191,47.1157606],[28.7182055,47.1157727],[28.718202,47.1157782],[28.7181733,47.1157751],[28.7181534,47.1157766],[28.7181281,47.1157853],[28.7181027,47.1157884],[28.7180817,47.1157967],[28.7180616,47.1157904],[28.7180436,47.1157701],[28.718052,47.1157565],[28.7180536,47.1157395],[28.7180486,47.1157271],[28.7180369,47.1157142],[28.7179802,47.115686],[28.7179556,47.1156819],[28.7179335,47.1156837],[28.7179336,47.1156626],[28.717919,47.1156434],[28.7178988,47.1156328],[28.717874,47.1156274],[28.7178343,47.1156035],[28.7178385,47.1155894],[28.7178347,47.1155721],[28.7178473,47.1155597],[28.7178528,47.1155472],[28.717849,47.1155243],[28.7178941,47.1155501],[28.7179047,47.1155609],[28.7179322,47.1155791],[28.7179606,47.1155888],[28.7179861,47.1155893],[28.7180099,47.1155832],[28.7180246,47.1155747],[28.7180532,47.1155492]]]]}}]}