{"type":"FeatureCollection","features":[{"type":"Feature","id":1,"properties":{"length_m":15103.702,"duration_min":226.556,"speed_kmh":4,"baseline_length_m":69231.9,"outside_share":0.01245,"mock":false},"geometry":{"type":"LineString","coordinates":[[28.7073776,47.1230335],[28.7074097,47.1229307],[28.7075024,47.122833],[28.7075349,47.1228388],[28.7075479,47.1228265],[28.7079913,47.1224065],[28.7081433,47.122263],[28.708177,47.1222749],[28.7076893,47.1227365],[28.7081812,47.122271],[28.7083641,47.1223141],[28.7078034,47.1228428],[28.7083679,47.1223103],[28.7084757,47.1223359],[28.7082532,47.1225443],[28.708081,47.1227077],[28.7079885,47.1227954],[28.7080118,47.1227733],[28.7084782,47.1223335],[28.708733,47.1223734],[28.7087589,47.122349],[28.7087763,47.1223325],[28.7087211,47.1223847],[28.7091472,47.1224572],[28.7092757,47.1223373],[28.7096375,47.1219996],[28.7093411,47.1222763],[28.7093632,47.1222873],[28.7093439,47.1223174],[28.7093645,47.1223277],[28.7093024,47.1223968],[28.7092067,47.1224869],[28.7092448,47.1224948],[28.7092681,47.1224998],[28.7092496,47.1225409],[28.7088352,47.1229202],[28.708809,47.1229448],[28.7092818,47.1225027],[28.7093448,47.1224863],[28.70982,47.1220462],[28.7097817,47.1220856],[28.7097553,47.1220723],[28.7097356,47.1220817],[28.7093807,47.1224198],[28.7093876,47.1224232],[28.7094068,47.1224328],[28.7093471,47.122499],[28.7093963,47.122493],[28.7095681,47.1223317],[28.7098044,47.1221099],[28.7096773,47.1222293],[28.7094562,47.1224368],[28.7093901,47.1225073],[28.7094069,47.1225139],[28.7094003,47.1225295],[28.7096287,47.1223143],[28.7102648,47.1217194],[28.7102772,47.1217079],[28.7102913,47.1217139],[28.7103044,47.1217194],[28.7103316,47.1217309],[28.7103614,47.1217032],[28.7102911,47.1217685],[28.7102357,47.12182],[28.7102111,47.1218428],[28.7099832,47.1220548],[28.709848,47.1221801],[28.7096861,47.1223308],[28.7096598,47.1223553],[28.7095647,47.1224437],[28.7103316,47.1217309],[28.7103044,47.1217194],[28.7102913,47.1217139],[28.7102772,47.1217079],[28.7103788,47.1216132],[28.7103564,47.121602],[28.7102044,47.1217291],[28.7093755,47.1225058],[28.7086834,47.1223767],[28.7086196,47.1224389],[28.7086834,47.1223767],[28.7084211,47.1223031],[28.7088714,47.1218824],[28.7092591,47.1215177],[28.7092723,47.121548],[28.7092411,47.1215765],[28.7092972,47.1215252],[28.7093603,47.1215488],[28.7092936,47.1216115],[28.7093698,47.1215398],[28.7093975,47.1215544],[28.7093549,47.1215941],[28.7094056,47.1215469],[28.70975,47.1216049],[28.7097964,47.1215976],[28.7098792,47.1215205],[28.709793,47.1216099],[28.7099226,47.12164],[28.7098745,47.1216926],[28.7098647,47.1217018],[28.7099226,47.12164],[28.709413,47.12154],[28.7098073,47.121173],[28.7098318,47.1211502],[28.7098141,47.1211355],[28.7092534,47.1210689],[28.7089342,47.1213914],[28.7087405,47.1215859],[28.7087688,47.121595],[28.7089279,47.1214461],[28.7080125,47.1223074],[28.7077736,47.1225629],[28.7077472,47.1225612],[28.7075496,47.122738],[28.7075168,47.1227693],[28.7075041,47.1227919],[28.707527,47.1228033],[28.7074532,47.1228732],[28.7073744,47.1229672],[28.7073531,47.122918],[28.7073523,47.1228094],[28.7073888,47.1227783],[28.7073523,47.1228094],[28.7073606,47.1229471],[28.707375,47.1229852],[28.7073212,47.1229639],[28.7072372,47.1228972],[28.7064027,47.1233238],[28.7060133,47.1234853],[28.7051761,47.12391],[28.7041443,47.1244123],[28.7040139,47.1248634],[28.7039531,47.1249869],[28.7039068,47.1252875],[28.7038392,47.1252786],[28.7037421,47.1253092],[28.7038151,47.1252815],[28.7038294,47.1253],[28.7038105,47.1253073],[28.703787,47.1253165],[28.703802,47.1253344],[28.7037897,47.1253391],[28.7034715,47.125464],[28.70304,47.1256316],[28.7029487,47.125667],[28.7028651,47.1256993],[28.7028442,47.1257075],[28.7028592,47.1257257],[28.7028888,47.1257143],[28.7028965,47.1257235],[28.7029038,47.1257324],[28.702916,47.1257277],[28.7029678,47.1257075],[28.7030212,47.1256869],[28.7030942,47.1256584],[28.7032175,47.1256105],[28.7033239,47.1255691],[28.7036659,47.1254358],[28.7038016,47.1253828],[28.703877,47.1253927],[28.7034236,47.1269034],[28.7033858,47.1271817],[28.7042503,47.1274862],[28.7042206,47.1275185],[28.704219,47.1275217],[28.7042162,47.1275271],[28.7041831,47.1275189],[28.7041755,47.1275334],[28.7041699,47.1275442],[28.7039252,47.1279878],[28.7033137,47.1290602],[28.7033447,47.1290685],[28.7033496,47.1290597],[28.7033806,47.129068],[28.7034406,47.1289652],[28.703629,47.1286374],[28.7036751,47.1285569],[28.7041774,47.1276661],[28.7042058,47.1276735],[28.7042973,47.1275485],[28.7043108,47.1275594],[28.7036563,47.1287705],[28.703514,47.1290314],[28.7035364,47.1290375],[28.7035216,47.1290628],[28.7035546,47.1290668],[28.7035739,47.1290762],[28.7035747,47.1290755],[28.703591,47.1290663],[28.7036011,47.1290751],[28.703526,47.1292022],[28.7035263,47.1292112],[28.7035454,47.1292164],[28.7035737,47.1291682],[28.7036012,47.1291757],[28.7036334,47.1291217],[28.7038035,47.1288317],[28.7041141,47.1282876],[28.7041459,47.1282959],[28.7039941,47.1285833],[28.7040043,47.1285877],[28.7040174,47.1285875],[28.7041364,47.1283789],[28.7041592,47.1283851],[28.7041352,47.1284525],[28.7041616,47.1284594],[28.7041452,47.1284996],[28.704163,47.1285043],[28.7040711,47.1286812],[28.7039753,47.1288488],[28.703918,47.1289493],[28.7038569,47.1290521],[28.7038711,47.129058],[28.703881,47.129062],[28.7038938,47.1290504],[28.7039171,47.1290614],[28.7039428,47.1290272],[28.703951,47.129013],[28.7040254,47.1288859],[28.704148,47.1286761],[28.7041457,47.1286801],[28.7041688,47.1286864],[28.7041477,47.1287392],[28.7041707,47.1287448],[28.7040521,47.1289658],[28.7041322,47.1288277],[28.7041628,47.1288359],[28.7041315,47.1288898],[28.704164,47.1288986],[28.704135,47.128948],[28.7041672,47.1289568],[28.7041399,47.1290036],[28.7041698,47.1290117],[28.7041409,47.1290624],[28.7041709,47.1290704],[28.7040491,47.1292857],[28.7041709,47.1290704],[28.7041409,47.1290624],[28.7041698,47.1290117],[28.7041399,47.1290036],[28.7041672,47.1289568],[28.704135,47.128948],[28.704081,47.1290404],[28.7039447,47.1292731],[28.7039273,47.1293026],[28.7038939,47.1292934],[28.7038963,47.1292894],[28.7038714,47.1292826],[28.7039537,47.1291291],[28.7039223,47.1291823],[28.7039011,47.1292185],[28.7038792,47.1292126],[28.7038754,47.1292015],[28.7038359,47.1292021],[28.7038454,47.1291894],[28.7038579,47.1291724],[28.703876,47.1291409],[28.7038599,47.1291369],[28.7038503,47.1291344],[28.7038749,47.1290777],[28.7038591,47.1290709],[28.7038548,47.129069],[28.7038432,47.1290764],[28.7038219,47.1290695],[28.7038025,47.1290811],[28.7037758,47.1290725],[28.7037661,47.1290811],[28.703746,47.1290706],[28.703709,47.1291185],[28.7036581,47.1291918],[28.7036332,47.1291845],[28.7041459,47.1282959],[28.7041141,47.1282876],[28.7036012,47.1291757],[28.7035737,47.1291682],[28.7035454,47.1292164],[28.7035263,47.1292112],[28.7035567,47.1291503],[28.7036011,47.1290751],[28.703591,47.1290663],[28.7035747,47.1290755],[28.7035739,47.1290762],[28.7035546,47.1290668],[28.7035216,47.1290628],[28.7035364,47.1290375],[28.703514,47.1290314],[28.7037577,47.1286115],[28.7037307,47.1285939],[28.7038374,47.1284232],[28.7038429,47.1284032],[28.7040065,47.1281444],[28.704026,47.1281374],[28.7040519,47.1281235],[28.7040853,47.1281365],[28.7041477,47.1280253],[28.7041601,47.1280265],[28.7043975,47.1276041],[28.7044379,47.1275662],[28.7044732,47.1275813],[28.7041678,47.1281353],[28.704199,47.1281359],[28.7043665,47.1278366],[28.7043257,47.1279093],[28.704199,47.1281359],[28.7041678,47.1281353],[28.7044732,47.1275813],[28.704009,47.1273998],[28.7039346,47.1275168],[28.7037463,47.1278563],[28.7037894,47.1277792],[28.703937,47.1275127],[28.7039463,47.1274957],[28.7039956,47.127391],[28.7039338,47.127393],[28.7033759,47.1283874],[28.7034141,47.1283211],[28.7039032,47.1274474],[28.7039423,47.1273738],[28.7038824,47.1273574],[28.7038605,47.1273885],[28.7037147,47.1276596],[28.7036984,47.127681],[28.7036729,47.12767],[28.703662,47.1276815],[28.7036339,47.1276716],[28.7036773,47.1275982],[28.7036656,47.1276194],[28.7035485,47.1278223],[28.7035144,47.1278818],[28.7036193,47.1276988],[28.7035901,47.127691],[28.7033751,47.1280688],[28.7030588,47.1286261],[28.7030362,47.1286201],[28.7029836,47.128689],[28.7030362,47.1286201],[28.7030588,47.1286261],[28.7035858,47.1276984],[28.7035549,47.1276902],[28.7032926,47.1281494],[28.7032764,47.128145],[28.703262,47.1281409],[28.7032519,47.1281489],[28.7032273,47.1281425],[28.7032926,47.1280261],[28.7034188,47.1278015],[28.7034639,47.1277209],[28.7034836,47.1276858],[28.7036991,47.1272895],[28.7033425,47.1271712],[28.7031999,47.1274255],[28.7027342,47.1282466],[28.7027958,47.1282644],[28.7027818,47.1282889],[28.7028048,47.1282951],[28.7027669,47.128383],[28.7027989,47.1283916],[28.7027855,47.1284146],[28.7028088,47.128421],[28.7027288,47.1285772],[28.7027537,47.1285336],[28.702769,47.1285069],[28.7028088,47.128421],[28.7027855,47.1284146],[28.7027989,47.1283916],[28.7027669,47.128383],[28.702624,47.1286194],[28.7025974,47.1286123],[28.7025808,47.1286414],[28.702718,47.1284008],[28.7027906,47.1282638],[28.7027338,47.1282468],[28.702674,47.128352],[28.7025121,47.1286374],[28.7024954,47.1286331],[28.7024804,47.1286291],[28.702561,47.1284878],[28.7026637,47.1283073],[28.7033126,47.1271603],[28.7030035,47.1270839],[28.7029649,47.1271535],[28.7029029,47.1271347],[28.7028919,47.1271463],[28.7028797,47.1271592],[28.7028919,47.1271463],[28.7029029,47.1271347],[28.7028689,47.1271198],[28.7028355,47.1271055],[28.702699,47.1272539],[28.7026758,47.1272441],[28.7022354,47.1277122],[28.7022021,47.1277],[28.7026035,47.127259],[28.702577,47.1272477],[28.7021399,47.1277042],[28.7021106,47.1277136],[28.7019509,47.1278685],[28.7019192,47.1278546],[28.7018917,47.1278767],[28.7018013,47.1278375],[28.7018265,47.1278058],[28.7023529,47.1272296],[28.7022949,47.1272932],[28.7018265,47.1278058],[28.7018013,47.1278375],[28.7018917,47.1278767],[28.7019192,47.1278546],[28.7019509,47.1278685],[28.7021106,47.1277136],[28.7021399,47.1277042],[28.702577,47.1272477],[28.7026035,47.127259],[28.7022021,47.1277],[28.7022354,47.1277122],[28.7021887,47.1277938],[28.7021422,47.1278754],[28.7021711,47.127883],[28.7022253,47.1277861],[28.7022258,47.1277852],[28.7022335,47.1277714],[28.7022541,47.1277767],[28.7022026,47.1278686],[28.7021421,47.127981],[28.7021488,47.1279854],[28.7021726,47.1279851],[28.7022114,47.1279166],[28.7022777,47.1278],[28.7022809,47.1277941],[28.7023117,47.1277398],[28.7023458,47.1277488],[28.7022494,47.1279181],[28.7021433,47.1281045],[28.7021699,47.1281117],[28.7023237,47.1278432],[28.702344,47.127808],[28.702352,47.1277939],[28.7023794,47.1278011],[28.7024058,47.1278082],[28.7024162,47.1277902],[28.7023845,47.1278456],[28.7024058,47.1278082],[28.7023794,47.1278011],[28.7023712,47.1278153],[28.7023375,47.1278741],[28.7023125,47.1279176],[28.7022556,47.1280243],[28.7022689,47.1280286],[28.7022762,47.1280531],[28.7022961,47.1280569],[28.702346,47.1279702],[28.7022999,47.1280663],[28.7023295,47.1280657],[28.7023381,47.1280506],[28.7023745,47.1279868],[28.7024312,47.1278872],[28.7024426,47.1278672],[28.7024747,47.1278107],[28.7024825,47.1277973],[28.7025093,47.1278044],[28.7024339,47.1279375],[28.7023668,47.128056],[28.7025093,47.1278044],[28.7025143,47.1277955],[28.7025247,47.1277983],[28.7025482,47.1278045],[28.702518,47.1278681],[28.7024613,47.1279681],[28.7024045,47.1280681],[28.7023904,47.1281167],[28.7024105,47.1281276],[28.702424,47.1281387],[28.7024248,47.1281634],[28.7023548,47.1282266],[28.7022397,47.1284268],[28.7022972,47.1283267],[28.7024248,47.1281634],[28.7027931,47.127434],[28.7027666,47.1274325],[28.7026766,47.1275326],[28.7028153,47.1273837],[28.7030035,47.1270839],[28.7032494,47.1271456],[28.7030953,47.1274188],[28.7029676,47.1276461],[28.7029166,47.127737],[28.7024098,47.1286282],[28.7023778,47.1286201],[28.7023885,47.1286002],[28.702357,47.1285919],[28.7023691,47.1285708],[28.7023383,47.1285626],[28.7026134,47.128081],[28.7027182,47.1278965],[28.7027568,47.1278286],[28.702706,47.1279179],[28.7023383,47.1285626],[28.7023691,47.1285708],[28.702357,47.1285919],[28.7023885,47.1286002],[28.7025799,47.1282664],[28.7027153,47.1280288],[28.7027955,47.1278876],[28.7027965,47.1278858],[28.7028017,47.1278766],[28.7028379,47.1278124],[28.7028629,47.1277679],[28.7031041,47.1273377],[28.7031608,47.1272369],[28.7031927,47.1272452],[28.7032494,47.1271456],[28.703339,47.1271599],[28.7034865,47.1270317],[28.7064302,47.125507],[28.7066063,47.1253737],[28.7068122,47.1249688],[28.7073106,47.1246919],[28.7073721,47.1246806],[28.7074361,47.1246872],[28.7075673,47.1248721],[28.7100609,47.1226638],[28.7100437,47.1226371],[28.7099844,47.1226255],[28.7100998,47.1226431],[28.7108268,47.1220202],[28.711628,47.1213739],[28.7131019,47.1199651],[28.7142202,47.1189639],[28.7141269,47.118808],[28.7139179,47.1185476],[28.7136596,47.1183355],[28.713647,47.118329],[28.7134789,47.1184731],[28.7134026,47.1185442],[28.7134305,47.1185583],[28.7133397,47.1186415],[28.7134481,47.1185421],[28.7134796,47.1185132],[28.7135287,47.1184681],[28.7135905,47.1184114],[28.7135609,47.1183966],[28.7135963,47.1183638],[28.7136395,47.1183214],[28.7133926,47.1181259],[28.7140322,47.1175952],[28.7147859,47.1171286],[28.7151469,47.1169253],[28.7155885,47.1166556],[28.7155377,47.116617],[28.7150892,47.1162534],[28.7150751,47.1162419],[28.7151062,47.1162226],[28.7151188,47.1162334],[28.7153918,47.1164492],[28.715417,47.1164348],[28.7151536,47.1162164],[28.715183,47.1162004],[28.715224,47.1162352],[28.7152536,47.1162188],[28.7152676,47.1162304],[28.7153941,47.1163324],[28.7154243,47.116315],[28.7155313,47.1164007],[28.7154619,47.1163451],[28.7154243,47.116315],[28.7153941,47.1163324],[28.7152676,47.1162304],[28.7152536,47.1162188],[28.715224,47.1162352],[28.7154893,47.1164515],[28.7155233,47.1164792],[28.7156118,47.1165521],[28.7155815,47.1165694],[28.715417,47.1164348],[28.7153918,47.1164492],[28.7151188,47.1162334],[28.7151062,47.1162226],[28.7150751,47.1162419],[28.7150892,47.1162534],[28.7155377,47.116617],[28.7155885,47.1166556],[28.7151469,47.1169253],[28.7151028,47.1168977],[28.7149455,47.1167635],[28.7151193,47.1169118],[28.7151238,47.1169301],[28.7141024,47.1175437],[28.7140322,47.1175952],[28.7140003,47.1175749],[28.7139838,47.1175627],[28.7140088,47.1175471],[28.7139935,47.1175359],[28.7139011,47.1174677],[28.713926,47.1174525],[28.7137854,47.1173432],[28.713849,47.1173927],[28.713926,47.1174525],[28.7139011,47.1174677],[28.7139935,47.1175359],[28.7140088,47.1175471],[28.7139838,47.1175627],[28.7140003,47.1175749],[28.7140322,47.1175952],[28.7135433,47.1179869],[28.7134946,47.1179579],[28.7134781,47.1179477],[28.7134156,47.1179091],[28.7130703,47.1176964],[28.7127679,47.11751],[28.7127618,47.1175063],[28.7127099,47.1174674],[28.7148908,47.1162183],[28.7154034,47.1158703],[28.7158916,47.1156421],[28.7164033,47.1152931],[28.7168719,47.1150461],[28.7169601,47.1150128],[28.7171078,47.1149703],[28.717233,47.1148783],[28.7174157,47.1150446],[28.717455,47.1150355],[28.717464,47.115044],[28.717485,47.115034],[28.7174853,47.1150341],[28.7175151,47.115045],[28.7175507,47.1150727],[28.7175892,47.1151095],[28.7175151,47.115045],[28.7174853,47.1150341],[28.7172361,47.1147803],[28.7171873,47.1147866],[28.717167,47.1147589],[28.7171514,47.114766],[28.7171342,47.1147739],[28.7170143,47.1146471],[28.7165445,47.1141784],[28.7165316,47.11418],[28.7165225,47.1142005],[28.7165389,47.1142024],[28.7165604,47.1142336],[28.7165402,47.1142429],[28.7165632,47.114278],[28.7165417,47.1142879],[28.7166631,47.1144182],[28.7166818,47.1144384],[28.7167122,47.1144653],[28.7167823,47.1145406],[28.7168172,47.1145741],[28.7167985,47.1145855],[28.7167791,47.1145765],[28.716759,47.1145861],[28.7166962,47.114531],[28.7166078,47.1144435],[28.7166499,47.1144852],[28.7167219,47.1145606],[28.7167392,47.1145768],[28.7167195,47.1145867],[28.7166738,47.114552],[28.7169275,47.1148085],[28.7168966,47.1148228],[28.716917,47.1148435],[28.7168966,47.1148228],[28.7169275,47.1148085],[28.7167098,47.1145958],[28.7167422,47.1145797],[28.716759,47.1145861],[28.7167791,47.1145765],[28.7167985,47.1145855],[28.7168172,47.1145741],[28.7168381,47.1145849],[28.7168577,47.1145737],[28.7167716,47.1144891],[28.7166823,47.1143988],[28.7165932,47.1143084],[28.7165402,47.1142429],[28.7165604,47.1142336],[28.7165389,47.1142024],[28.7165222,47.1141915],[28.7165316,47.11418],[28.7165513,47.1141776],[28.7166041,47.1142336],[28.7166757,47.1143061],[28.71677,47.1144019],[28.7169566,47.1145831],[28.7169789,47.1145695],[28.7169375,47.1145277],[28.7169642,47.1145155],[28.71666,47.1142002],[28.7167335,47.1142772],[28.716933,47.1144785],[28.7169642,47.1145155],[28.7169375,47.1145277],[28.7169901,47.114578],[28.7171873,47.1147866],[28.7172361,47.1147803],[28.717485,47.115034],[28.717464,47.115044],[28.717455,47.1150355],[28.7174157,47.1150446],[28.717233,47.1148783],[28.7172171,47.1148942],[28.7172371,47.1149007],[28.7172579,47.114927],[28.7172383,47.1149367],[28.7173436,47.1150386],[28.7173046,47.115045],[28.7172979,47.1150381],[28.7172748,47.1150486],[28.7172451,47.1150512],[28.7172641,47.1150746],[28.717243,47.1150851],[28.7175871,47.1154142],[28.7175999,47.1154262],[28.7175741,47.1154393],[28.7175743,47.1154491],[28.7175552,47.1154589],[28.7175748,47.1154766],[28.7175839,47.1154848],[28.717566,47.1154942],[28.7175307,47.1154807],[28.7175067,47.1154951],[28.717444,47.1154465],[28.7175067,47.1154951],[28.7175307,47.1154807],[28.717566,47.1154942],[28.7175839,47.1154848],[28.7175059,47.1154143],[28.7174613,47.1153736],[28.7172456,47.115166],[28.7172659,47.1151558],[28.7172444,47.1151277],[28.7172666,47.1151166],[28.717243,47.1150851],[28.7172641,47.1150746],[28.7172451,47.1150512],[28.7172748,47.1150486],[28.7172979,47.1150381],[28.7173046,47.115045],[28.7173436,47.1150386],[28.7172383,47.1149367],[28.7172579,47.114927],[28.7172371,47.1149007],[28.7172171,47.1148942],[28.7170551,47.1149958],[28.7168177,47.115071],[28.7162571,47.1153832],[28.7158422,47.1156714],[28.7153031,47.1159278],[28.714746,47.1163096],[28.712772,47.1174288],[28.7124412,47.1176452],[28.7125909,47.1177182],[28.7134282,47.1181607],[28.7137068,47.1183687],[28.7137134,47.1183832],[28.7136951,47.1183871],[28.7137134,47.1183832],[28.7137545,47.1184196],[28.7137159,47.1184472],[28.7136887,47.1184206],[28.7136755,47.1184208],[28.713561,47.1185136],[28.7130356,47.1189814],[28.7130202,47.1189732],[28.7130356,47.1189814],[28.7127233,47.1192805],[28.712664,47.1192482],[28.7127174,47.1191709],[28.7126974,47.1191604],[28.7124665,47.1193667],[28.7123836,47.1194407],[28.7123409,47.1194788],[28.7123219,47.1194958],[28.7125747,47.11927],[28.7125626,47.1192638],[28.7125488,47.1192565],[28.7126833,47.1191364],[28.7126717,47.1191304],[28.7126572,47.1191231],[28.7129039,47.1188939],[28.7128663,47.1189289],[28.7128947,47.1189432],[28.7128091,47.1190215],[28.712678,47.1191413],[28.7125488,47.1192565],[28.7125626,47.1192638],[28.7125747,47.11927],[28.7126974,47.1191604],[28.7127174,47.1191709],[28.712664,47.1192482],[28.7127233,47.1192805],[28.7127959,47.1192507],[28.7128106,47.1192392],[28.7128489,47.1192589],[28.7126628,47.1194168],[28.7126598,47.1194304],[28.7126807,47.1194411],[28.7126612,47.1194732],[28.7126851,47.1194852],[28.711957,47.1201528],[28.7118962,47.1202106],[28.7118705,47.1201981],[28.7118477,47.1202097],[28.7118275,47.1201966],[28.7118027,47.1202078],[28.7117814,47.1201972],[28.7116953,47.1202648],[28.7117814,47.1201972],[28.7118027,47.1202078],[28.7118275,47.1201966],[28.7118477,47.1202097],[28.7118705,47.1201981],[28.7118962,47.1202106],[28.7113296,47.1207402],[28.7113597,47.1207597],[28.7113499,47.1207688],[28.7113795,47.1207833],[28.7113532,47.1208222],[28.7113746,47.1208327],[28.7113546,47.1208672],[28.7113766,47.1208779],[28.711356,47.12091],[28.7113796,47.1209215],[28.7113575,47.1209571],[28.7113795,47.120968],[28.7113676,47.1209791],[28.7113975,47.120994],[28.7114347,47.120959],[28.7114437,47.1209506],[28.7113616,47.1210277],[28.711394,47.1210439],[28.7113618,47.1210921],[28.7113846,47.1211033],[28.711384,47.121104],[28.7114088,47.1211162],[28.7115667,47.1209928],[28.7118261,47.1207811],[28.7114088,47.1211162],[28.711384,47.121104],[28.7114208,47.1210691],[28.7118446,47.1206678],[28.7119078,47.1206088],[28.7119574,47.1206337],[28.7119701,47.120622],[28.7119828,47.1206102],[28.711933,47.1205853],[28.7119502,47.1205694],[28.7120292,47.1204956],[28.7119984,47.1204803],[28.7119934,47.120485],[28.7119595,47.1204681],[28.7122348,47.1202104],[28.7122034,47.1201948],[28.7121915,47.120206],[28.712167,47.1201936],[28.7121436,47.1202035],[28.7121208,47.1201922],[28.7120321,47.1202628],[28.7120107,47.1202523],[28.712382,47.1199011],[28.7124268,47.1198599],[28.713674,47.1187072],[28.7138351,47.1185624],[28.7138942,47.1185284],[28.7140984,47.1187702],[28.7142102,47.1189219],[28.714186,47.1190229],[28.7125991,47.1204294],[28.7111699,47.1217696],[28.7110855,47.1218229],[28.7108554,47.1217745],[28.710595,47.1217352],[28.7101865,47.1221255],[28.7101184,47.1221888],[28.7105954,47.1217342],[28.7107016,47.1217506],[28.7106904,47.1217843],[28.7098086,47.1226043],[28.7098468,47.122611],[28.7098839,47.1226176],[28.7099207,47.122624],[28.7099614,47.1226313],[28.7098867,47.1227007],[28.7097811,47.1227991],[28.7096755,47.1228975],[28.7099614,47.1226313],[28.7099207,47.122624],[28.7098839,47.1226176],[28.7098468,47.122611],[28.7090774,47.1233247],[28.7090724,47.1233292],[28.7090633,47.1233577],[28.7081984,47.1232049],[28.7073759,47.1230122],[28.7073776,47.1230335]]}}]}