{"type": "FeatureCollection", "name": "route", "crs": {"type": "name", "properties": {"name": "urn:ogc:def:crs:EPSG::32635"}}, "features": [{"type": "Feature", "properties": {"length_m": 15103.702, "duration_min": 226.556, "speed_kmh": 4.0, "baseline_length_m": 69231.9, "outside_share": 0.01245}, "geometry": {"type": "LineString", "coordinates": [[629504.7, 5220250.75], [629507.38, 5220239.38], [629514.65, 5220228.68], [629517.1, 5220229.38], [629518.12, 5220228.03], [629552.77, 5220182.1], [629564.65, 5220166.4], [629567.17, 5220167.78], [629529.06, 5220218.27], [629567.5, 5220167.35], [629581.27, 5220172.44], [629537.46, 5220230.27], [629581.57, 5220172.03], [629589.68, 5220175.05], [629572.3, 5220197.84], [629558.84, 5220215.71], [629551.61, 5220225.31], [629553.43, 5220222.89], [629589.88, 5220174.79], [629609.11, 5220179.65], [629611.13, 5220176.98], [629612.49, 5220175.17], [629608.18, 5220180.88], [629640.32, 5220189.65], [629650.36, 5220176.54], [629678.62, 5220139.61], [629655.47, 5220169.86], [629657.12, 5220171.12], [629655.58, 5220174.44], [629657.12, 5220175.62], [629652.24, 5220183.19], [629644.76, 5220193.04], [629647.63, 5220193.99], [629649.39, 5220194.58], [629647.88, 5220199.12], [629615.53, 5220240.58], [629613.48, 5220243.27], [629650.42, 5220194.92], [629655.24, 5220193.21], [629692.35, 5220145.09], [629689.35, 5220149.4], [629687.38, 5220147.88], [629685.86, 5220148.89], [629658.12, 5220185.88], [629658.64, 5220186.27], [629660.07, 5220187.37], [629655.38, 5220194.62], [629659.13, 5220194.04], [629672.55, 5220176.4], [629691.01, 5220152.14], [629681.08, 5220165.2], [629663.81, 5220187.89], [629658.62, 5220195.62], [629659.88, 5220196.38], [629659.34, 5220198.1], [629677.19, 5220174.57], [629726.88, 5220109.51], [629727.85, 5220108.25], [629728.91, 5220108.94], [629729.89, 5220109.58], [629731.92, 5220110.9], [629734.25, 5220107.87], [629728.76, 5220115.01], [629724.43, 5220120.64], [629722.51, 5220123.14], [629704.71, 5220146.32], [629694.15, 5220160.02], [629681.5, 5220176.49], [629679.45, 5220179.17], [629672.02, 5220188.84], [629731.92, 5220110.9], [629729.89, 5220109.58], [629728.91, 5220108.94], [629727.85, 5220108.25], [629735.79, 5220097.9], [629734.12, 5220096.62], [629722.28, 5220110.49], [629657.52, 5220195.42], [629605.34, 5220179.93], [629600.35, 5220186.74], [629605.34, 5220179.93], [629585.62, 5220171.32], [629620.8, 5220125.31], [629651.09, 5220085.43], [629652.02, 5220088.82], [629649.58, 5220091.93], [629653.96, 5220086.33], [629658.69, 5220089.05], [629653.48, 5220095.91], [629659.43, 5220088.07], [629661.5, 5220089.74], [629658.17, 5220094.08], [629662.13, 5220088.92], [629688.11, 5220095.93], [629691.65, 5220095.2], [629698.12, 5220086.77], [629691.36, 5220096.56], [629701.12, 5220100.12], [629697.34, 5220105.89], [629696.58, 5220106.89], [629701.12, 5220100.12], [629662.71, 5220088.16], [629693.51, 5220048.03], [629695.42, 5220045.54], [629694.12, 5220043.88], [629651.75, 5220035.55], [629626.75, 5220070.85], [629611.59, 5220092.15], [629613.71, 5220093.21], [629626.14, 5220076.92], [629554.62, 5220171.12], [629535.88, 5220199.12], [629533.88, 5220198.88], [629518.46, 5220218.2], [629515.9, 5220221.62], [629514.88, 5220224.12], [629516.59, 5220225.42], [629510.82, 5220233.07], [629504.62, 5220243.38], [629503.12, 5220237.88], [629503.32, 5220225.81], [629506.17, 5220222.41], [629503.32, 5220225.81], [629503.62, 5220241.12], [629504.62, 5220245.38], [629500.59, 5220242.93], [629494.38, 5220235.38], [629430.05, 5220281.4], [629400.12, 5220298.7], [629335.59, 5220344.51], [629256.12, 5220398.62], [629245.13, 5220448.53], [629240.22, 5220462.16], [629235.98, 5220495.48], [629230.88, 5220494.38], [629223.44, 5220497.63], [629229.04, 5220494.67], [629230.08, 5220496.75], [629228.63, 5220497.53], [629226.83, 5220498.51], [629227.92, 5220500.52], [629226.98, 5220501.03], [629202.54, 5220514.38], [629169.41, 5220532.29], [629162.4, 5220536.07], [629155.98, 5220539.53], [629154.37, 5220540.4], [629155.47, 5220542.45], [629157.74, 5220541.23], [629158.3, 5220542.27], [629158.83, 5220543.27], [629159.77, 5220542.77], [629163.75, 5220540.61], [629167.85, 5220538.4], [629173.45, 5220535.36], [629182.92, 5220530.24], [629191.09, 5220525.82], [629217.35, 5220511.57], [629227.77, 5220505.9], [629233.47, 5220507.13], [629195.42, 5220674.25], [629191.88, 5220705.12], [629256.71, 5220740.38], [629254.38, 5220743.93], [629254.25, 5220744.28], [629254.02, 5220744.87], [629251.53, 5220743.91], [629250.92, 5220745.51], [629250.47, 5220746.7], [629230.84, 5220795.59], [629181.86, 5220913.75], [629184.19, 5220914.72], [629184.59, 5220913.75], [629186.92, 5220914.72], [629191.72, 5220903.4], [629206.8, 5220867.29], [629210.49, 5220858.42], [629250.74, 5220760.25], [629252.88, 5220761.12], [629260.12, 5220747.38], [629261.12, 5220748.62], [629208.55, 5220882.12], [629197.12, 5220910.88], [629198.81, 5220911.59], [629197.62, 5220914.38], [629200.12, 5220914.88], [629201.56, 5220915.96], [629201.62, 5220915.88], [629202.88, 5220914.88], [629203.62, 5220915.88], [629197.62, 5220929.88], [629197.62, 5220930.88], [629199.06, 5220931.49], [629201.32, 5220926.18], [629203.39, 5220927.06], [629205.96, 5220921.11], [629219.56, 5220889.16], [629244.44, 5220829.22], [629246.83, 5220830.19], [629234.62, 5220861.88], [629235.38, 5220862.38], [629236.38, 5220862.38], [629245.91, 5220839.4], [629247.62, 5220840.12], [629245.64, 5220847.57], [629247.62, 5220848.38], [629246.28, 5220852.83], [629247.62, 5220853.38], [629240.22, 5220872.88], [629232.55, 5220891.35], [629227.96, 5220902.42], [629223.08, 5220913.75], [629224.14, 5220914.42], [629224.88, 5220914.88], [629225.88, 5220913.62], [629227.62, 5220914.88], [629229.65, 5220911.12], [629230.31, 5220909.56], [629236.26, 5220895.55], [629246.07, 5220872.44], [629245.88, 5220872.88], [629247.62, 5220873.62], [629245.89, 5220879.45], [629247.62, 5220880.12], [629238.09, 5220904.48], [629244.5, 5220889.26], [629246.8, 5220890.23], [629244.3, 5220896.16], [629246.74, 5220897.19], [629244.42, 5220902.64], [629246.84, 5220903.67], [629244.66, 5220908.82], [629246.91, 5220909.77], [629244.59, 5220915.36], [629246.85, 5220916.3], [629237.09, 5220940.02], [629246.85, 5220916.3], [629244.59, 5220915.36], [629246.91, 5220909.77], [629244.66, 5220908.82], [629246.84, 5220903.67], [629244.42, 5220902.64], [629240.1, 5220912.81], [629229.2, 5220938.45], [629227.81, 5220941.7], [629225.3, 5220940.62], [629225.49, 5220940.18], [629223.62, 5220939.38], [629230.23, 5220922.46], [629227.72, 5220928.32], [629226.03, 5220932.31], [629224.38, 5220931.62], [629224.12, 5220930.38], [629221.12, 5220930.38], [629221.87, 5220928.98], [629222.86, 5220927.12], [629224.31, 5220923.65], [629223.1, 5220923.17], [629222.38, 5220922.88], [629224.38, 5220916.62], [629223.2, 5220915.84], [629222.88, 5220915.62], [629221.98, 5220916.42], [629220.38, 5220915.62], [629218.88, 5220916.88], [629216.88, 5220915.88], [629216.12, 5220916.82], [629214.62, 5220915.62], [629211.7, 5220920.88], [629207.66, 5220928.94], [629205.79, 5220928.09], [629246.83, 5220830.19], [629244.44, 5220829.22], [629203.39, 5220927.06], [629201.32, 5220926.18], [629199.06, 5220931.49], [629197.62, 5220930.88], [629200.07, 5220924.16], [629203.62, 5220915.88], [629202.88, 5220914.88], [629201.62, 5220915.88], [629201.56, 5220915.96], [629200.12, 5220914.88], [629197.62, 5220914.38], [629198.81, 5220911.59], [629197.12, 5220910.88], [629216.62, 5220864.62], [629214.62, 5220862.62], [629223.12, 5220843.83], [629223.59, 5220841.61], [629236.62, 5220813.12], [629238.12, 5220812.38], [629240.12, 5220810.88], [629242.62, 5220812.38], [629247.62, 5220800.12], [629248.56, 5220800.28], [629267.59, 5220753.73], [629270.74, 5220749.59], [629273.38, 5220751.32], [629248.88, 5220812.38], [629251.24, 5220812.5], [629264.67, 5220779.51], [629261.4, 5220787.53], [629251.24, 5220812.5], [629248.88, 5220812.38], [629273.38, 5220751.32], [629238.62, 5220730.38], [629232.69, 5220743.26], [629217.59, 5220780.68], [629221.04, 5220772.18], [629232.88, 5220742.81], [629233.63, 5220740.94], [629237.62, 5220729.38], [629232.93, 5220729.5], [629188.21, 5220839.08], [629191.27, 5220831.78], [629230.48, 5220735.5], [629233.62, 5220727.38], [629229.12, 5220725.46], [629227.38, 5220728.88], [629215.67, 5220758.77], [629214.38, 5220761.12], [629212.47, 5220759.86], [629211.62, 5220761.12], [629209.51, 5220759.97], [629212.98, 5220751.88], [629212.04, 5220754.22], [629202.67, 5220776.57], [629199.94, 5220783.13], [629208.34, 5220762.97], [629206.14, 5220762.05], [629188.92, 5220803.68], [629163.58, 5220865.09], [629161.88, 5220864.38], [629157.73, 5220871.95], [629161.88, 5220864.38], [629163.58, 5220865.09], [629205.8, 5220762.87], [629203.47, 5220761.9], [629182.47, 5220812.5], [629181.25, 5220811.98], [629180.17, 5220811.51], [629179.38, 5220812.38], [629177.53, 5220811.62], [629182.77, 5220798.8], [629192.88, 5220774.05], [629196.5, 5220765.17], [629198.08, 5220761.3], [629215.38, 5220717.62], [629188.62, 5220703.88], [629177.19, 5220731.9], [629139.88, 5220822.38], [629144.51, 5220824.46], [629143.39, 5220827.16], [629145.12, 5220827.88], [629142.03, 5220837.59], [629144.44, 5220838.6], [629143.37, 5220841.13], [629145.12, 5220841.88], [629138.67, 5220859.11], [629140.67, 5220854.3], [629141.89, 5220851.36], [629145.12, 5220841.88], [629143.37, 5220841.13], [629144.44, 5220838.6], [629142.03, 5220837.59], [629130.62, 5220863.62], [629128.62, 5220862.79], [629127.29, 5220866.0], [629138.28, 5220839.49], [629144.12, 5220824.38], [629139.85, 5220822.4], [629135.06, 5220833.99], [629122.09, 5220865.44], [629120.84, 5220864.93], [629119.71, 5220864.46], [629126.16, 5220848.9], [629134.39, 5220829.01], [629186.38, 5220702.62], [629163.12, 5220693.62], [629160.03, 5220701.29], [629155.37, 5220699.1], [629154.51, 5220700.37], [629153.55, 5220701.78], [629154.51, 5220700.37], [629155.37, 5220699.1], [629152.83, 5220697.39], [629150.33, 5220695.74], [629139.62, 5220712.01], [629137.88, 5220710.88], [629103.35, 5220762.17], [629100.85, 5220760.76], [629132.36, 5220712.42], [629130.38, 5220711.12], [629096.12, 5220761.12], [629093.88, 5220762.12], [629081.39, 5220779.07], [629079.02, 5220777.47], [629076.88, 5220779.88], [629070.12, 5220775.38], [629072.11, 5220771.9], [629113.43, 5220708.73], [629108.87, 5220715.71], [629072.11, 5220771.9], [629070.12, 5220775.38], [629076.88, 5220779.88], [629079.02, 5220777.47], [629081.39, 5220779.07], [629093.88, 5220762.12], [629096.12, 5220761.12], [629130.38, 5220711.12], [629132.36, 5220712.42], [629100.85, 5220760.76], [629103.35, 5220762.17], [629099.61, 5220771.16], [629095.88, 5220780.15], [629098.06, 5220781.04], [629102.4, 5220770.36], [629102.44, 5220770.26], [629103.06, 5220768.74], [629104.61, 5220769.37], [629100.48, 5220779.49], [629095.62, 5220791.88], [629096.12, 5220792.38], [629097.92, 5220792.39], [629101.03, 5220784.84], [629106.34, 5220772.0], [629106.6, 5220771.35], [629109.07, 5220765.36], [629111.63, 5220766.42], [629103.91, 5220785.07], [629095.41, 5220805.61], [629097.41, 5220806.45], [629109.73, 5220776.87], [629111.35, 5220772.99], [629111.99, 5220771.44], [629114.05, 5220772.29], [629116.04, 5220773.12], [629116.87, 5220771.14], [629114.33, 5220777.24], [629116.04, 5220773.12], [629114.05, 5220772.29], [629113.4, 5220773.85], [629110.7, 5220780.33], [629108.7, 5220785.12], [629104.12, 5220796.88], [629105.12, 5220797.38], [629105.62, 5220800.12], [629107.12, 5220800.57], [629111.11, 5220791.02], [629107.38, 5220801.62], [629109.63, 5220801.61], [629110.32, 5220799.94], [629113.23, 5220792.91], [629117.77, 5220781.94], [629118.69, 5220779.73], [629121.26, 5220773.51], [629121.88, 5220772.03], [629123.9, 5220772.87], [629117.86, 5220787.53], [629112.48, 5220800.59], [629123.9, 5220772.87], [629124.3, 5220771.89], [629125.08, 5220772.21], [629126.85, 5220772.94], [629124.4, 5220779.96], [629119.86, 5220790.98], [629115.31, 5220802.0], [629114.12, 5220807.38], [629115.62, 5220808.62], [629116.62, 5220809.88], [629116.62, 5220812.62], [629111.16, 5220819.53], [629101.94, 5220841.59], [629106.55, 5220830.56], [629116.62, 5220812.62], [629146.32, 5220732.17], [629144.31, 5220731.97], [629137.24, 5220742.94], [629148.12, 5220726.62], [629163.12, 5220693.62], [629181.62, 5220700.88], [629169.27, 5220730.99], [629159.04, 5220756.03], [629154.95, 5220766.05], [629114.36, 5220864.25], [629111.95, 5220863.3], [629112.81, 5220861.1], [629110.44, 5220860.13], [629111.41, 5220857.8], [629109.09, 5220856.84], [629131.12, 5220803.78], [629139.52, 5220783.45], [629142.61, 5220775.96], [629138.54, 5220785.81], [629109.09, 5220856.84], [629111.41, 5220857.8], [629110.44, 5220860.13], [629112.81, 5220861.1], [629128.13, 5220824.32], [629138.98, 5220798.14], [629145.4, 5220782.58], [629145.48, 5220782.39], [629145.9, 5220781.37], [629148.8, 5220774.3], [629150.8, 5220769.39], [629170.14, 5220721.99], [629174.68, 5220710.88], [629177.08, 5220711.86], [629181.62, 5220700.88], [629188.38, 5220702.62], [629199.88, 5220688.62], [629426.84, 5220524.05], [629440.52, 5220509.53], [629457.12, 5220464.88], [629495.59, 5220434.93], [629500.28, 5220433.78], [629505.12, 5220434.62], [629514.62, 5220455.38], [629709.12, 5220214.12], [629707.88, 5220211.12], [629703.41, 5220209.74], [629712.12, 5220211.88], [629768.78, 5220143.87], [629831.12, 5220073.38], [629946.35, 5219919.28], [630033.62, 5219809.88], [630026.92, 5219792.4], [630011.7, 5219763.12], [629992.62, 5219739.12], [629991.68, 5219738.37], [629978.58, 5219754.11], [629972.62, 5219761.88], [629974.7, 5219763.49], [629967.61, 5219772.59], [629976.08, 5219761.72], [629978.54, 5219758.56], [629982.37, 5219753.63], [629987.2, 5219747.43], [629984.99, 5219745.74], [629987.75, 5219742.15], [629991.13, 5219737.52], [629972.88, 5219715.38], [630022.69, 5219657.47], [630081.0, 5219606.87], [630108.88, 5219584.88], [630143.04, 5219555.65], [630139.28, 5219551.27], [630106.14, 5219510.12], [630105.1, 5219508.82], [630107.51, 5219506.73], [630108.44, 5219507.95], [630128.62, 5219532.38], [630130.57, 5219530.82], [630111.12, 5219506.12], [630113.39, 5219504.39], [630116.41, 5219508.32], [630118.7, 5219506.55], [630119.73, 5219507.86], [630129.08, 5219519.41], [630131.41, 5219517.52], [630139.32, 5219527.22], [630134.19, 5219520.93], [630131.41, 5219517.52], [630129.08, 5219519.41], [630119.73, 5219507.86], [630118.7, 5219506.55], [630116.41, 5219508.32], [630136.01, 5219532.8], [630138.52, 5219535.93], [630145.06, 5219544.18], [630142.72, 5219546.05], [630130.57, 5219530.82], [630128.62, 5219532.38], [630108.44, 5219507.95], [630107.51, 5219506.73], [630105.1, 5219508.82], [630106.14, 5219510.12], [630139.28, 5219551.27], [630143.04, 5219555.65], [630108.88, 5219584.88], [630105.6, 5219581.74], [630094.0, 5219566.57], [630106.82, 5219583.33], [630107.12, 5219585.38], [630028.14, 5219651.86], [630022.69, 5219657.47], [630020.32, 5219655.16], [630019.1, 5219653.78], [630021.03, 5219652.08], [630019.9, 5219650.81], [630013.06, 5219643.08], [630014.98, 5219641.43], [630004.58, 5219629.05], [630009.29, 5219634.66], [630014.98, 5219641.43], [630013.06, 5219643.08], [630019.9, 5219650.81], [630021.03, 5219652.08], [630019.1, 5219653.78], [630020.32, 5219655.16], [630022.69, 5219657.47], [629984.65, 5219700.18], [629981.03, 5219696.88], [629979.8, 5219695.72], [629975.15, 5219691.33], [629949.48, 5219667.12], [629926.99, 5219645.9], [629926.54, 5219645.48], [629922.7, 5219641.07], [630091.18, 5219505.89], [630130.91, 5219468.07], [630168.5, 5219443.52], [630208.17, 5219405.59], [630244.32, 5219378.93], [630251.09, 5219375.37], [630262.4, 5219370.9], [630272.12, 5219360.88], [630285.58, 5219379.67], [630288.58, 5219378.72], [630289.24, 5219379.68], [630290.86, 5219378.6], [630290.88, 5219378.62], [630293.12, 5219379.88], [630295.75, 5219383.02], [630298.58, 5219387.17], [630293.12, 5219379.88], [630290.88, 5219378.62], [630272.6, 5219350.0], [630268.88, 5219350.62], [630267.41, 5219347.51], [630266.21, 5219348.27], [630264.88, 5219349.12], [630256.1, 5219334.83], [630221.6, 5219281.96], [630220.62, 5219282.12], [630219.88, 5219284.38], [630221.12, 5219284.62], [630222.67, 5219288.12], [630221.12, 5219289.12], [630222.78, 5219293.06], [630221.12, 5219294.12], [630230.01, 5219308.81], [630231.38, 5219311.08], [630233.62, 5219314.12], [630238.76, 5219322.6], [630241.32, 5219326.39], [630239.88, 5219327.62], [630238.43, 5219326.59], [630236.88, 5219327.62], [630232.25, 5219321.4], [630225.76, 5219311.52], [630228.85, 5219316.23], [630234.13, 5219324.73], [630235.4, 5219326.56], [630233.88, 5219327.62], [630230.5, 5219323.69], [630249.12, 5219352.62], [630246.74, 5219354.15], [630248.24, 5219356.49], [630246.74, 5219354.15], [630249.12, 5219352.62], [630233.12, 5219328.62], [630235.62, 5219326.88], [630236.88, 5219327.62], [630238.43, 5219326.59], [630239.88, 5219327.62], [630241.32, 5219326.39], [630242.88, 5219327.62], [630244.4, 5219326.41], [630238.07, 5219316.86], [630231.52, 5219306.68], [630224.98, 5219296.49], [630221.12, 5219289.12], [630222.67, 5219288.12], [630221.12, 5219284.62], [630219.88, 5219283.38], [630220.62, 5219282.12], [630222.12, 5219281.88], [630225.99, 5219288.19], [630231.24, 5219296.37], [630238.16, 5219307.17], [630251.88, 5219327.62], [630253.6, 5219326.14], [630250.56, 5219321.43], [630252.62, 5219320.12], [630230.31, 5219284.57], [630235.7, 5219293.25], [630250.34, 5219315.95], [630252.62, 5219320.12], [630250.56, 5219321.43], [630254.43, 5219327.11], [630268.88, 5219350.62], [630272.6, 5219350.0], [630290.86, 5219378.6], [630289.24, 5219379.68], [630288.58, 5219378.72], [630285.58, 5219379.67], [630272.12, 5219360.88], [630270.88, 5219362.62], [630272.38, 5219363.38], [630273.89, 5219366.34], [630272.38, 5219367.38], [630280.12, 5219378.88], [630277.15, 5219379.53], [630276.66, 5219378.75], [630274.88, 5219379.88], [630272.62, 5219380.12], [630274.0, 5219382.75], [630272.38, 5219383.88], [630297.68, 5219421.03], [630298.62, 5219422.38], [630296.63, 5219423.79], [630296.62, 5219424.88], [630295.15, 5219425.94], [630296.59, 5219427.94], [630297.26, 5219428.87], [630295.88, 5219429.88], [630293.24, 5219428.32], [630291.38, 5219429.88], [630286.74, 5219424.37], [630291.38, 5219429.88], [630293.24, 5219428.32], [630295.88, 5219429.88], [630297.26, 5219428.87], [630291.52, 5219420.9], [630288.23, 5219416.3], [630272.38, 5219392.88], [630273.94, 5219391.77], [630272.38, 5219388.62], [630274.09, 5219387.42], [630272.38, 5219383.88], [630274.0, 5219382.75], [630272.62, 5219380.12], [630274.88, 5219379.88], [630276.66, 5219378.75], [630277.15, 5219379.53], [630280.12, 5219378.88], [630272.38, 5219367.38], [630273.89, 5219366.34], [630272.38, 5219363.38], [630270.88, 5219362.62], [630258.34, 5219373.64], [630240.15, 5219381.61], [630196.86, 5219415.36], [630164.68, 5219446.7], [630123.16, 5219474.29], [630079.97, 5219515.79], [629927.5, 5219636.88], [629901.88, 5219660.38], [629913.06, 5219668.74], [629975.5, 5219719.31], [629996.12, 5219742.88], [629996.59, 5219744.51], [629995.19, 5219744.91], [629996.59, 5219744.51], [629999.62, 5219748.62], [629996.62, 5219751.62], [629994.62, 5219748.62], [629993.62, 5219748.62], [629984.71, 5219758.74], [629943.72, 5219809.85], [629942.57, 5219808.92], [629943.72, 5219809.85], [629919.3, 5219842.57], [629914.88, 5219838.88], [629919.12, 5219830.38], [629917.63, 5219829.18], [629899.61, 5219851.72], [629893.14, 5219859.81], [629889.81, 5219863.97], [629888.33, 5219865.83], [629908.05, 5219841.16], [629907.15, 5219840.45], [629906.12, 5219839.62], [629916.62, 5219826.49], [629915.75, 5219825.81], [629914.67, 5219824.97], [629933.94, 5219799.91], [629931.0, 5219803.74], [629933.12, 5219805.38], [629926.44, 5219813.93], [629916.2, 5219827.03], [629906.12, 5219839.62], [629907.15, 5219840.45], [629908.05, 5219841.16], [629917.63, 5219829.18], [629919.12, 5219830.38], [629914.88, 5219838.88], [629919.3, 5219842.57], [629924.88, 5219839.38], [629926.02, 5219838.13], [629928.88, 5219840.38], [629914.38, 5219857.62], [629914.12, 5219859.12], [629915.68, 5219860.35], [629914.12, 5219863.88], [629915.9, 5219865.26], [629859.05, 5219938.23], [629854.3, 5219944.56], [629852.38, 5219943.12], [629850.62, 5219944.38], [629849.12, 5219942.88], [629847.21, 5219944.09], [629845.62, 5219942.88], [629838.93, 5219950.24], [629845.62, 5219942.88], [629847.21, 5219944.09], [629849.12, 5219942.88], [629850.62, 5219944.38], [629852.38, 5219943.12], [629854.3, 5219944.56], [629810.03, 5220002.47], [629812.27, 5220004.68], [629811.5, 5220005.68], [629813.71, 5220007.34], [629811.62, 5220011.62], [629813.22, 5220012.82], [629811.62, 5220016.62], [629813.26, 5220017.85], [629811.62, 5220021.38], [629813.38, 5220022.7], [629811.62, 5220026.62], [629813.26, 5220027.86], [629812.33, 5220029.08], [629814.56, 5220030.78], [629817.47, 5220026.96], [629818.17, 5220026.04], [629811.76, 5220034.47], [629814.18, 5220036.32], [629811.62, 5220041.62], [629813.32, 5220042.91], [629813.27, 5220042.98], [629815.12, 5220044.38], [629827.4, 5220030.93], [629847.59, 5220007.84], [629815.12, 5220044.38], [629813.27, 5220042.98], [629816.15, 5220039.17], [629849.27, 5219995.28], [629854.21, 5219988.83], [629857.91, 5219991.67], [629858.9, 5219990.39], [629859.89, 5219989.11], [629856.18, 5219986.26], [629857.52, 5219984.52], [629863.69, 5219976.45], [629861.39, 5219974.7], [629861.0, 5219975.21], [629858.47, 5219973.27], [629879.98, 5219945.1], [629877.64, 5219943.31], [629876.71, 5219944.53], [629874.88, 5219943.12], [629873.08, 5219944.18], [629871.38, 5219942.88], [629864.48, 5219950.58], [629862.88, 5219949.38], [629891.9, 5219910.97], [629895.4, 5219906.47], [629992.81, 5219780.45], [630005.38, 5219764.62], [630009.95, 5219760.94], [630024.85, 5219788.15], [630032.96, 5219805.2], [630030.88, 5219816.38], [629907.08, 5219970.04], [629795.41, 5220116.59], [629788.88, 5220122.38], [629771.55, 5220116.61], [629751.89, 5220111.82], [629719.96, 5220154.51], [629714.64, 5220161.43], [629751.92, 5220111.7], [629759.94, 5220113.7], [629759.01, 5220117.43], [629690.13, 5220207.09], [629693.01, 5220207.9], [629695.81, 5220208.69], [629698.58, 5220209.47], [629701.65, 5220210.34], [629695.82, 5220217.93], [629687.57, 5220228.69], [629679.32, 5220239.45], [629701.65, 5220210.34], [629698.58, 5220209.47], [629695.81, 5220208.69], [629693.01, 5220207.9], [629632.92, 5220285.93], [629632.53, 5220286.42], [629631.77, 5220289.57], [629566.54, 5220271.16], [629504.62, 5220248.38], [629504.7, 5220250.75]]}}]}
