{"type":"FeatureCollection","features":[{"type":"Feature","id":1,"properties":{"waste_id":"W0001","vineyard_id":"V03","tile":"siret3_r008_c000","confidence":1},"geometry":{"type":"Polygon","coordinates":[[[28.7009768,47.1278149],[28.701,47.1278146],[28.7010001,47.1278181],[28.7009769,47.1278184],[28.7009768,47.1278149]]]}},{"type":"Feature","id":2,"properties":{"waste_id":"W0002","vineyard_id":"V01","tile":"siret3_r009_c005","confidence":1},"geometry":{"type":"Polygon","coordinates":[[[28.7044033,47.1276037],[28.7044091,47.1276036],[28.7044093,47.1276088],[28.7044035,47.1276089],[28.7044033,47.1276037]]]}},{"type":"Feature","id":3,"properties":{"waste_id":"W0005","vineyard_id":null,"tile":"siret3_r013_c004","confidence":1},"geometry":{"type":"Polygon","coordinates":[[[28.7039329,47.1258175],[28.7039707,47.1258169],[28.7039714,47.1258383],[28.7039335,47.1258389],[28.7039329,47.1258175]]]}},{"type":"Feature","id":4,"properties":{"waste_id":"W0006","vineyard_id":null,"tile":"siret3_r013_c004","confidence":1},"geometry":{"type":"Polygon","coordinates":[[[28.7039269,47.1257332],[28.7040339,47.1257316],[28.7040347,47.1257552],[28.7039276,47.1257568],[28.7039269,47.1257332]]]}},{"type":"Feature","id":5,"properties":{"waste_id":"W0007","vineyard_id":"V12","tile":"siret3_r015_c011","confidence":1},"geometry":{"type":"Polygon","coordinates":[[[28.7085155,47.1247236],[28.7085451,47.1247231],[28.7085459,47.1247456],[28.7085162,47.1247461],[28.7085155,47.1247236]]]}},{"type":"Feature","id":6,"properties":{"waste_id":"W0008","vineyard_id":null,"tile":"siret3_r015_c011","confidence":1},"geometry":{"type":"Polygon","coordinates":[[[28.7084808,47.1244424],[28.7085697,47.1244411],[28.7085714,47.1244928],[28.7084824,47.1244941],[28.7084808,47.1244424]]]}},{"type":"Feature","id":7,"properties":{"waste_id":"W0009","vineyard_id":"V16","tile":"siret3_r022_c016","confidence":1},"geometry":{"type":"Polygon","coordinates":[[[28.7114258,47.1211508],[28.7115213,47.1211493],[28.7115229,47.1211999],[28.7114274,47.1212014],[28.7114258,47.1211508]]]}},{"type":"Feature","id":8,"properties":{"waste_id":"W0010","vineyard_id":"V16","tile":"siret3_r023_c016","confidence":1},"geometry":{"type":"Polygon","coordinates":[[[28.7117476,47.1210114],[28.7118217,47.1210103],[28.7118231,47.121053],[28.7117489,47.1210541],[28.7117476,47.1210114]]]}},{"type":"Feature","id":9,"properties":{"waste_id":"W0011","vineyard_id":"V16","tile":"siret3_r023_c016","confidence":1},"geometry":{"type":"Polygon","coordinates":[[[28.711548,47.1209834],[28.7115531,47.1209834],[28.7115532,47.1209863],[28.7115481,47.1209864],[28.711548,47.1209834]]]}},{"type":"Feature","id":10,"properties":{"waste_id":"W0012","vineyard_id":null,"tile":"siret3_r026_c019","confidence":1},"geometry":{"type":"Polygon","coordinates":[[[28.7135956,47.1195543],[28.7136747,47.1195531],[28.7136763,47.1196026],[28.7135972,47.1196038],[28.7135956,47.1195543]]]}},{"type":"Feature","id":11,"properties":{"waste_id":"W0013","vineyard_id":null,"tile":"siret3_r027_c027","confidence":1},"geometry":{"type":"Polygon","coordinates":[[[28.7191328,47.1187006],[28.7192843,47.1186983],[28.7192892,47.1188485],[28.7191376,47.1188508],[28.7191328,47.1187006]]]}}]}