{"type":"FeatureCollection","name":"blocks","crs":{"type":"name","properties":{"name":"urn:ogc:def:crs:EPSG::32635"}},"features":[{"type":"Feature","properties":{"vineyard_id":"V01","area_m2":1200},"geometry":{"type":"Polygon","coordinates":[[[629515,5220275],[629575,5220275],[629575,5220295],[629515,5220295],[629515,5220275]]]}},{"type":"Feature","properties":{"vineyard_id":"V02","area_m2":510},"geometry":{"type":"MultiPolygon","coordinates":[[[[629575,5220255],[629605,5220255],[629605,5220272],[629575,5220272],[629575,5220255]]]]}}]}