{"type":"FeatureCollection","name":"interrows","crs":{"type":"name","properties":{"name":"urn:ogc:def:crs:EPSG::32635"}},"features":[{"type":"Feature","properties":{"interrow_id":"V01-I001","vineyard_id":"V01","interrow_cover":"bare_soil","tile":"siret3_r018_c010","row_ids":["V01-R002","V01-R010"],"area_m2":280.6,"piece_id":"V01-I001@siret3_r018_c010"},"geometry":{"type":"Polygon","coordinates":[[[629520,5220281.003],[629520.051,5220280.997],[629520.102,5220281.002],[629520.153,5220280.998],[629520.203,5220281.001],[629520.253,5220281],[629520.302,5220280.999],[629520.351,5220281.002],[629520.399,5220280.998],[629520.448,5220281.003],[629520.497,5220280.997],[629520.547,5220281.003],[629520.597,5220280.997],[629520.648,5220281.002],[629520.699,5220280.999],[629520.75,5220281],[629520.801,5220281.001],[629520.852,5220280.999],[629520.903,5220281.002],[629520.953,5220280.997],[629521.002,5220281.003],[629521.052,5220280.997],[629521.1,5220281.003],[629521.149,5220280.998],[629521.198,5220281.001],[629521.247,5220280.999],[629521.297,5220281],[629521.347,5220281.001],[629521.398,5220280.998],[629521.449,5220281.003],[629521.5,5220280.997],[629521.552,5220281.003],[629521.602,5220280.997],[629521.653,5220281.002],[629521.703,5220280.998],[629521.752,5220281.001],[629521.801,5220281],[629521.85,5220280.999],[629521.899,5220281.002],[629521.948,5220280.998],[629521.997,5220281.003],[629522.047,5220280.997],[629522.097,5220281.003],[629522.148,5220280.998],[629522.199,5220281.002],[629522.251,5220280.999],[629522.302,5220281],[629522.353,5220281.001],[629522.403,5220280.998],[629522.453,5220281.002],[629522.502,5220280.997],[629522.551,5220281.003],[629522.6,5220280.997],[629522.649,5220281.003],[629522.698,5220280.998],[629522.747,5220281.001],[629522.797,5220281],[629522.847,5220280.999],[629522.898,5220281.001],[629522.95,5220280.998],[629523.001,5220281.003],[629523.052,5220280.997],[629523.103,5220281.003],[629523.153,5220280.997],[629523.203,5220281.002],[629523.252,5220280.999],[629523.301,5220281.001],[629523.35,5220281],[629523.399,5220280.999],[629523.448,5220281.002],[629523.497,5220280.997],[629523.547,5220281.003],[629523.598,5220280.997],[629523.649,5220281.003],[629523.7,5220280.998],[629523.751,5220281.002],[629523.802,5220280.999],[629523.853,5220281],[629523.903,5220281.001],[629523.953,5220280.998],[629524.002,5220281.002],[629524.051,5220280.997],[629524.1,5220281.003],[629524.148,5220280.997],[629524.197,5220281.002],[629524.247,5220280.998],[629524.297,5220281.001],[629524.348,5220281],[629524.399,5220280.999],[629524.45,5220281.002],[629524.501,5220280.998],[629524.552,5220281.003],[629524.603,5220280.997],[629524.653,5220281.003],[629524.703,5220280.997],[629524.752,5220281.002],[629524.801,5220280.999],[629524.849,5220281],[629524.898,5220281.001],[629524.947,5220280.998],[629524.997,5220281.002],[629525.047,5220280.997],[629525.098,5220281.003],[629525.149,5220280.997],[629525.2,5220281.003],[629525.251,5220280.998],[629525.302,5220281.001],[629525.353,5220281],[629525.403,5220281],[629525.452,5220281.001],[629525.502,5220280.998],[629525.55,5220281.003],[629525.599,5220280.997],[629525.648,5220281.003],[629525.697,5220280.997],[629525.747,5220281.002],[629525.797,5220280.998],[629525.848,5220281.001],[629525.899,5220281],[629525.95,5220280.999],[629526.002,5220281.002],[629526.052,5220280.997],[629526.103,5220281.003],[629526.153,5220280.997],[629526.202,5220281.003],[629526.251,5220280.998],[629526.3,5220281.002],[629526.349,5220280.999],[629526.398,5220281],[629526.447,5220281.001],[629526.497,5220280.998],[629526.547,5220281.002],[629526.598,5220280.997],[629526.649,5220281.003],[629526.701,5220280.997],[629526.752,5220281.003],[629526.803,5220280.998],[629526.853,5220281.001],[629526.903,5220281],[629526.952,5220280.999],[629527.001,5220281.002],[629527.05,5220280.998],[629527.099,5220281.003],[629527.148,5220280.997],[629527.197,5220281.003],[629527.247,5220280.997],[629527.297,5220281.002],[629527.348,5220280.999],[629527.4,5220281],[629527.451,5220281],[629527.502,5220280.999],[629527.553,5220281.002],[629527.603,5220280.997],[629527.653,5220281.003],[629527.702,5220280.997],[629527.751,5220281.003],[629527.8,5220280.998],[629527.849,5220281.002],[629527.898,5220280.999],[629527.947,5220281],[629527.997,5220281.001],[629528.048,5220280.998],[629528.099,5220281.003],[629528.15,5220280.997],[629528.201,5220281.003],[629528.252,5220280.997],[629528.303,5220281.002],[629528.353,5220280.998],[629528.403,5220281.001],[629528.452,5220281],[629528.501,5220280.999],[629528.55,5220281.002],[629528.598,5220280.998],[629528.647,5220281.003],[629528.697,5220280.997],[629528.747,5220281.003],[629528.798,5220280.998],[629528.849,5220281.002],[629528.9,5220280.999],[629528.951,5220281],[629529.002,5220281.001],[629529.053,5220280.998],[629529.103,5220281.002],[629529.153,5220280.997],[629529.202,5220281.003],[629529.251,5220280.997],[629529.299,5220281.003],[629529.348,5220280.998],[629529.397,5220281.001],[629529.447,5220281],[629529.497,5220280.999],[629529.548,5220281.001],[629529.599,5220280.998],[629529.65,5220281.003],[629529.701,5220280.997],[629529.752,5220281.003],[629529.803,5220280.997],[629529.853,5220281.002],[629529.902,5220280.999],[629529.952,5220281.001],[629530,5220281],[629530.049,5220280.999],[629530.098,5220281.002],[629530.147,5220280.997],[629530.197,5220281.003],[629530.247,5220280.997],[629530.298,5220281.003],[629530.349,5220280.998],[629530.4,5220281.002],[629530.452,5220280.999],[629530.502,5220281],[629530.553,5220281.001],[629530.603,5220280.998],[629530.652,5220281.002],[629530.701,5220280.997],[629530.75,5220281.003],[629530.799,5220280.997],[629530.848,5220281.002],[629530.897,5220280.998],[629530.947,5220281.001],[629530.997,5220281],[629531.048,5220280.999],[629531.099,5220281.002],[629531.151,5220280.998],[629531.202,5220281.003],[629531.253,5220280.997],[629531.303,5220281.003],[629531.353,5220280.997],[629531.402,5220281.002],[629531.451,5220280.999],[629531.5,5220281],[629531.549,5220281.001],[629531.598,5220280.999],[629531.647,5220281.002],[629531.697,5220280.997],[629531.747,5220281.003],[629531.798,5220280.997],[629531.849,5220281.003],[629531.901,5220280.998],[629531.952,5220281.001],[629532.003,5220280.999],[629532.053,5220281],[629532.103,5220281.001],[629532.152,5220280.998],[629532.201,5220281.003],[629532.25,5220280.997],[629532.299,5220281.003],[629532.348,5220280.997],[629532.397,5220281.002],[629532.447,5220280.998],[629532.498,5220281.001],[629532.548,5220281],[629532.6,5220280.999],[629532.651,5220281.002],[629532.702,5220280.998],[629532.753,5220281.003],[629532.803,5220280.997],[629532.853,5220281.003],[629532.902,5220280.998],[629532.951,5220281.002],[629533,5220280.999],[629533.048,5220281],[629533.098,5220281.001],[629533.147,5220280.998],[629533.197,5220281.002],[629533.248,5220280.997],[629533.299,5220281.003],[629533.35,5220280.997],[629533.401,5220281.003],[629533.452,5220280.998],[629533.503,5220281.001],[629533.553,5220281],[629533.603,5220280.999],[629533.652,5220281.001],[629533.701,5220280.998],[629533.749,5220281.003],[629533.798,5220280.997],[629533.847,5220281.003],[629533.897,5220280.997],[629533.947,5220281.002],[629533.998,5220280.999],[629534.049,5220281.001],[629534.1,5220281],[629534.151,5220280.999],[629534.202,5220281.002],[629534.253,5220280.997],[629534.303,5220281.003],[629534.353,5220280.997],[629534.402,5220281.003],[629534.45,5220280.998],[629534.499,5220281.002],[629534.548,5220280.999],[629534.597,5220281],[629534.647,5220281.001],[629534.697,5220280.998],[629534.748,5220281.002],[629534.799,5220280.997],[629534.85,5220281.003],[629534.901,5220280.997],[629534.952,5220281.002],[629535.003,5220280.998],[629535.053,5220281.001],[629535.102,5220281],[629535.151,5220280.999],[629535.2,5220281.002],[629535.249,5220280.998],[629535.298,5220281.003],[629535.347,5220280.997],[629535.397,5220281.003],[629535.447,5220280.997],[629535.498,5220281.002],[629535.549,5220280.999],[629535.6,5220281],[629535.652,5220281.001],[629535.703,5220280.999],[629535.753,5220281.002],[629535.803,5220280.997],[629535.852,5220281.003],[629535.901,5220280.997],[629535.95,5220281.003],[629535.999,5220280.998],[629536.048,5220281.001],[629536.097,5220281],[629536.147,5220281],[629536.197,5220281.001],[629536.248,5220280.998],[629536.299,5220281.003],[629536.351,5220280.997],[629536.402,5220281.003],[629536.453,5220280.997],[629536.503,5220281.002],[629536.553,5220280.998],[629536.602,5220281.001],[629536.651,5220281],[629536.7,5220280.999],[629536.749,5220281.002],[629536.798,5220280.997],[629536.847,5220281.003],[629536.897,5220280.997],[629536.948,5220281.003],[629536.998,5220280.998],[629537.05,5220281.002],[629537.101,5220280.999],[629537.152,5220281],[629537.203,5220281.001],[629537.253,5220280.998],[629537.303,5220281.002],[629537.352,5220280.997],[629537.401,5220281.003],[629537.45,5220280.997],[629537.498,5220281.003],[629537.548,5220280.998],[629537.597,5220281.001],[629537.647,5220281],[629537.698,5220280.999],[629537.749,5220281.002],[629537.8,5220280.998],[629537.851,5220281.003],[629537.902,5220280.997],[629537.953,5220281.003],[629538.003,5220280.997],[629538.053,5220281.002],[629538.102,5220280.999],[629538.151,5220281],[629538.199,5220281],[629538.248,5220280.999],[629538.297,5220281.002],[629538.347,5220280.997],[629538.397,5220281.003],[629538.448,5220280.997],[629538.499,5220281.003],[629538.55,5220280.998],[629538.601,5220281.002],[629538.652,5220280.999],[629538.703,5220281],[629538.753,5220281.001],[629538.803,5220280.998],[629538.852,5220281.003],[629538.9,5220280.997],[629538.949,5220281.003],[629538.998,5220280.997],[629539.047,5220281.002],[629539.097,5220280.998],[629539.147,5220281.001],[629539.198,5220281],[629539.249,5220280.999],[629539.3,5220281.002],[629539.351,5220280.998],[629539.402,5220281.003],[629539.453,5220280.997],[629539.503,5220281.003],[629539.552,5220280.997],[629539.601,5220281.002],[629539.65,5220280.999],[629539.699,5220281],[629539.748,5220281.001],[629539.797,5220280.998],[629539.847,5220281.002],[629539.897,5220280.997],[629539.948,5220281.003],[629539.999,5220280.997],[629540.05,5220281.003],[629540.102,5220280.998],[629540.153,5220281.001],[629540.203,5220281],[629540.253,5220280.999],[629540.302,5220281.001],[629540.351,5220280.998],[629540.4,5220281.003],[629540.449,5220280.997],[629540.498,5220281.003],[629540.547,5220280.997],[629540.597,5220281.002],[629540.647,5220280.999],[629540.698,5220281.001],[629540.749,5220281],[629540.801,5220280.999],[629540.852,5220281.002],[629540.903,5220280.997],[629540.953,5220281.003],[629541.003,5220280.997],[629541.052,5220281.003],[629541.101,5220280.998],[629541.15,5220281.002],[629541.199,5220280.999],[629541.248,5220281],[629541.297,5220281.001],[629541.347,5220280.998],[629541.398,5220281.002],[629541.448,5220280.997],[629541.5,5220281.003],[629541.551,5220280.997],[629541.602,5220281.002],[629541.653,5220280.998],[629541.703,5220281.001],[629541.753,5220281],[629541.802,5220280.999],[629541.851,5220281.002],[629541.9,5220280.998],[629541.948,5220281.003],[629541.998,5220280.997],[629542.047,5220281.003],[629542.097,5220280.997],[629542.148,5220281.002],[629542.199,5220280.999],[629542.25,5220281],[629542.301,5220281.001],[629542.352,5220280.999],[629542.403,5220281.002],[629542.453,5220280.997],[629542.503,5220281.003],[629542.552,5220280.997],[629542.601,5220281.003],[629542.649,5220280.998],[629542.698,5220281.001],[629542.747,5220280.999],[629542.797,5220281],[629542.847,5220281.001],[629542.898,5220280.998],[629542.949,5220281.003],[629543,5220280.997],[629543.051,5220281.003],[629543.102,5220280.997],[629543.153,5220281.002],[629543.203,5220280.998],[629543.253,5220281.001],[629543.302,5220281],[629543.351,5220280.999],[629543.399,5220281.002],[629543.448,5220280.998],[629543.497,5220281.003],[629543.547,5220280.997],[629543.597,5220281.003],[629543.648,5220280.998],[629543.699,5220281.002],[629543.75,5220280.999],[629543.801,5220281],[629543.852,5220281.001],[629543.903,5220280.998],[629543.953,5220281.002],[629544.002,5220280.997],[629544.052,5220281.003],[629544.1,5220280.997],[629544.149,5220281.003],[629544.198,5220280.998],[629544.247,5220281.001],[629544.297,5220281],[629544.347,5220280.999],[629544.398,5220281.001],[629544.449,5220280.998],[629544.5,5220281.003],[629544.552,5220280.997],[629544.602,5220281.003],[629544.653,5220280.997],[629544.703,5220281.002],[629544.752,5220280.999],[629544.801,5220281.001],[629544.85,5220281],[629544.899,5220280.999],[629544.948,5220281.002],[629544.997,5220280.997],[629545.047,5220281.003],[629545.097,5220280.997],[629545.148,5220281.003],[629545.199,5220280.998],[629545.251,5220281.002],[629545.302,5220280.999],[629545.353,5220281],[629545.403,5220281.001],[629545.453,5220280.998],[629545.502,5220281.002],[629545.551,5220280.997],[629545.6,5220281.003],[629545.649,5220280.997],[629545.698,5220281.002],[629545.747,5220280.998],[629545.797,5220281.001],[629545.847,5220281],[629545.898,5220280.999],[629545.95,5220281.002],[629546.001,5220280.998],[629546.052,5220281.003],[629546.103,5220280.997],[629546.153,5220281.003],[629546.203,5220280.997],[629546.252,5220281.002],[629546.301,5220280.999],[629546.35,5220281],[629546.399,5220281.001],[629546.448,5220280.999],[629546.497,5220281.002],[629546.547,5220280.997],[629546.598,5220281.003],[629546.649,5220280.997],[629546.7,5220281.003],[629546.751,5220280.998],[629546.802,5220281.001],[629546.853,5220280.999],[629546.903,5220281],[629546.953,5220281.001],[629547.002,5220280.998],[629547.051,5220281.003],[629547.1,5220280.997],[629547.148,5220281.003],[629547.197,5220280.997],[629547.247,5220281.002],[629547.297,5220280.998],[629547.348,5220281.001],[629547.399,5220281],[629547.45,5220280.999],[629547.501,5220281.002],[629547.552,5220280.998],[629547.603,5220281.003],[629547.653,5220280.997],[629547.703,5220281.003],[629547.752,5220280.998],[629547.801,5220281.002],[629547.849,5220280.999],[629547.898,5220281],[629547.947,5220281.001],[629547.997,5220280.998],[629548.047,5220281.002],[629548.098,5220280.997],[629548.149,5220281.003],[629548.2,5220280.997],[629548.251,5220281.003],[629548.302,5220280.998],[629548.353,5220281.001],[629548.403,5220281],[629548.452,5220280.999],[629548.502,5220281.002],[629548.55,5220280.998],[629548.599,5220281.003],[629548.648,5220280.997],[629548.697,5220281.003],[629548.747,5220280.997],[629548.797,5220281.002],[629548.848,5220280.999],[629548.899,5220281],[629548.95,5220281],[629549.002,5220280.999],[629549.052,5220281.002],[629549.103,5220280.997],[629549.153,5220281.003],[629549.202,5220280.997],[629549.251,5220281.003],[629549.3,5220280.998],[629549.349,5220281.002],[629549.398,5220280.999],[629549.447,5220281],[629549.497,5220281.001],[629549.547,5220280.998],[629549.598,5220281.003],[629549.649,5220280.997],[629549.701,5220281.003],[629549.752,5220280.997],[629549.803,5220281.002],[629549.853,5220280.998],[629549.903,5220281.001],[629549.952,5220281],[629550.001,5220280.999],[629550.05,5220281.002],[629550.099,5220280.998],[629550.148,5220281.003],[629550.197,5220280.997],[629550.247,5220281.003],[629550.297,5220280.997],[629550.348,5220281.002],[629550.4,5220280.999],[629550.451,5220281],[629550.502,5220281.001],[629550.553,5220280.998],[629550.603,5220281.002],[629550.653,5220280.997],[629550.702,5220281.003],[629550.751,5220280.997],[629550.8,5220281.003],[629550.849,5220280.998],[629550.898,5220281.001],[629550.947,5220281],[629550.997,5220281],[629551.048,5220281.001],[629551.099,5220280.998],[629551.15,5220281.003],[629551.201,5220280.997],[629551.252,5220281.003],[629551.303,5220280.997],[629551.353,5220281.002],[629551.403,5220280.998],[629551.452,5220281.001],[629551.501,5220281],[629551.55,5220280.999],[629551.598,5220281.002],[629551.647,5220280.997],[629551.697,5220281.003],[629551.747,5220280.997],[629551.798,5220281.003],[629551.849,5220280.998],[629551.9,5220281.002],[629551.951,5220280.999],[629552.002,5220281],[629552.053,5220281.001],[629552.103,5220280.998],[629552.153,5220281.002],[629552.202,5220280.997],[629552.251,5220281.003],[629552.299,5220280.997],[629552.348,5220281.002],[629552.397,5220280.998],[629552.447,5220281.001],[629552.497,5220281],[629552.548,5220280.999],[629552.599,5220281.002],[629552.65,5220280.998],[629552.701,5220281.003],[629552.752,5220280.997],[629552.803,5220281.003],[629552.853,5220280.997],[629552.903,5220281.002],[629552.952,5220280.999],[629553,5220281],[629553.049,5220281.001],[629553.098,5220280.999],[629553.147,5220281.002],[629553.197,5220280.997],[629553.247,5220281.003],[629553.298,5220280.997],[629553.349,5220281.003],[629553.4,5220280.998],[629553.452,5220281.001],[629553.502,5220280.999],[629553.553,5220281],[629553.603,5220281.001],[629553.652,5220280.998],[629553.701,5220281.003],[629553.75,5220280.997],[629553.799,5220281.003],[629553.848,5220280.997],[629553.897,5220281.002],[629553.947,5220280.998],[629553.997,5220281.001],[629554.048,5220281],[629554.099,5220280.999],[629554.151,5220281.002],[629554.202,5220280.998],[629554.253,5220281.003],[629554.303,5220280.997],[629554.353,5220281.003],[629554.402,5220280.998],[629554.451,5220281.002],[629554.5,5220280.999],[629554.549,5220281],[629554.598,5220281.001],[629554.647,5220280.998],[629554.697,5220281.002],[629554.747,5220280.997],[629554.798,5220281.003],[629554.849,5220280.997],[629554.901,5220281.003],[629554.952,5220280.998],[629555.003,5220281.001],[629555.053,5220281],[629555.103,5220280.999],[629555.152,5220281.001],[629555.201,5220280.998],[629555.2,5220281.053],[629555.199,5220281.097],[629555.198,5220281.153],[629555.197,5220281.197],[629555.197,5220281.252],[629555.198,5220281.299],[629555.198,5220281.351],[629555.2,5220281.4],[629555.201,5220281.449],[629555.202,5220281.502],[629555.203,5220281.547],[629555.203,5220281.603],[629555.203,5220281.647],[629555.202,5220281.703],[629555.201,5220281.748],[629555.2,5220281.802],[629555.198,5220281.849],[629555.198,5220281.9],[629555.197,5220281.951],[629555.197,5220281.998],[629555.198,5220282.052],[629555.199,5220282.097],[629555.2,5220282.153],[629555.201,5220282.197],[629555.202,5220282.252],[629555.203,5220282.298],[629555.203,5220282.351],[629555.203,5220282.4],[629555.202,5220282.449],[629555.201,5220282.502],[629555.199,5220282.548],[629555.198,5220282.603],[629555.197,5220282.647],[629555.197,5220282.703],[629555.197,5220282.747],[629555.198,5220282.802],[629555.199,5220282.849],[629555.2,5220282.9],[629555.201,5220282.951],[629555.202,5220282.999],[629555.203,5220283.052],[629555.203,5220283.097],[629555.203,5220283.153],[629555.202,5220283.197],[629555.2,5220283.253],[629555.199,5220283.298],[629555.198,5220283.351],[629555.197,5220283.399],[629555.197,5220283.45],[629555.197,5220283.501],[629555.198,5220283.548],[629555.199,5220283.603],[629555.2,5220283.647],[629555.201,5220283.703],[629555.202,5220283.747],[629555.203,5220283.802],[629555.203,5220283.848],[629555.202,5220283.901],[629555.201,5220283.95],[629555.2,5220283.999],[629555.199,5220284.052],[629555.198,5220284.098],[629555.197,5220284.153],[629555.197,5220284.197],[629555.197,5220284.253],[629555.198,5220284.298],[629555.199,5220284.352],[629555.2,5220284.399],[629555.202,5220284.45],[629555.203,5220284.501],[629555.203,5220284.548],[629555.203,5220284.602],[629555.202,5220284.647],[629555.201,5220284.703],[629555.2,5220284.747],[629555.199,5220284.803],[629555.198,5220284.848],[629555.197,5220284.901],[629555.197,5220284.95],[629555.197,5220284.999],[629555.198,5220285.051],[629555.199,5220285.098],[629555.201,5220285.153],[629555.202,5220285.197],[629555.203,5220285.253],[629555.203,5220285.297],[629555.203,5220285.352],[629555.202,5220285.399],[629555.201,5220285.451],[629555.2,5220285.5],[629555.199,5220285.549],[629555.198,5220285.602],[629555.197,5220285.647],[629555.197,5220285.703],[629555.198,5220285.747],[629555.198,5220285.803],[629555.2,5220285.848],[629555.201,5220285.902],[629555.202,5220285.949],[629555.203,5220286],[629555.203,5220286.051],[629555.203,5220286.098],[629555.202,5220286.153],[629555.201,5220286.197],[629555.2,5220286.253],[629555.198,5220286.297],[629555.198,5220286.352],[629555.197,5220286.398],[629555.197,5220286.451],[629555.198,5220286.5],[629555.199,5220286.549],[629555.2,5220286.602],[629555.201,5220286.648],[629555.202,5220286.703],[629555.203,5220286.747],[629555.203,5220286.803],[629555.203,5220286.847],[629555.202,5220286.902],[629555.201,5220286.949],[629555.199,5220287],[629555.198,5220287.051],[629555.197,5220287.098],[629555.197,5220287.152],[629555.197,5220287.197],[629555.198,5220287.253],[629555.199,5220287.297],[629555.2,5220287.353],[629555.201,5220287.398],[629555.202,5220287.451],[629555.203,5220287.5],[629555.203,5220287.55],[629555.203,5220287.601],[629555.202,5220287.648],[629555.2,5220287.703],[629555.199,5220287.747],[629555.198,5220287.803],[629555.197,5220287.847],[629555.197,5220287.902],[629555.197,5220287.948],[629555.198,5220288.001],[629555.199,5220288.05],[629555.2,5220288.099],[629555.201,5220288.152],[629555.202,5220288.197],[629555.203,5220288.253],[629555.203,5220288.297],[629555.202,5220288.353],[629555.201,5220288.398],[629555.2,5220288.452],[629555.199,5220288.499],[629555.198,5220288.55],[629555.197,5220288.601],[629555.197,5220288.648],[629555.197,5220288.702],[629555.198,5220288.747],[629555.199,5220288.803],[629555.2,5220288.847],[629555.202,5220288.903],[629555.203,5220288.948],[629555.203,5220289.001],[629555.153,5220289],[629555.102,5220288.999],[629555.051,5220289.002],[629555,5220288.998],[629554.949,5220289.003],[629554.898,5220288.997],[629554.847,5220289.003],[629554.797,5220288.997],[629554.747,5220289.002],[629554.698,5220288.999],[629554.649,5220289],[629554.601,5220289],[629554.552,5220288.999],[629554.503,5220289.002],[629554.453,5220288.997],[629554.403,5220289.003],[629554.352,5220288.997],[629554.301,5220289.003],[629554.25,5220288.998],[629554.199,5220289.001],[629554.148,5220288.999],[629554.097,5220289],[629554.047,5220289.001],[629553.997,5220288.998],[629553.948,5220289.003],[629553.9,5220288.997],[629553.851,5220289.003],[629553.802,5220288.997],[629553.753,5220289.002],[629553.703,5220288.998],[629553.653,5220289.001],[629553.602,5220289],[629553.551,5220288.999],[629553.5,5220289.002],[629553.448,5220288.998],[629553.398,5220289.003],[629553.347,5220288.997],[629553.297,5220289.003],[629553.248,5220288.998],[629553.199,5220289.002],[629553.15,5220288.999],[629553.101,5220289],[629553.052,5220289.001],[629553.003,5220288.998],[629552.953,5220289.002],[629552.903,5220288.997],[629552.852,5220289.003],[629552.801,5220288.997],[629552.749,5220289.003],[629552.698,5220288.998],[629552.647,5220289.001],[629552.597,5220289],[629552.547,5220288.999],[629552.498,5220289.001],[629552.449,5220288.998],[629552.4,5220289.003],[629552.351,5220288.997],[629552.302,5220289.003],[629552.253,5220288.997],[629552.203,5220289.002],[629552.153,5220288.999],[629552.102,5220289.001],[629552.051,5220289],[629551.999,5220288.999],[629551.948,5220289.002],[629551.897,5220288.997],[629551.847,5220289.003],[629551.797,5220288.997],[629551.748,5220289.003],[629551.699,5220288.998],[629551.65,5220289.002],[629551.601,5220288.999],[629551.552,5220289],[629551.503,5220289.001],[629551.453,5220288.998],[629551.402,5220289.002],[629551.352,5220288.997],[629551.3,5220289.003],[629551.249,5220288.997],[629551.198,5220289.002],[629551.147,5220288.998],[629551.097,5220289.001],[629551.047,5220289],[629550.998,5220288.999],[629550.949,5220289.002],[629550.9,5220288.998],[629550.852,5220289.003],[629550.802,5220288.997],[629550.753,5220289.003],[629550.703,5220288.997],[629550.652,5220289.002],[629550.601,5220288.999],[629550.55,5220289],[629550.499,5220289.001],[629550.448,5220288.999],[629550.397,5220289.002],[629550.347,5220288.997],[629550.297,5220289.003],[629550.248,5220288.997],[629550.199,5220289.003],[629550.151,5220288.998],[629550.102,5220289.001],[629550.053,5220288.999],[629550.003,5220289],[629549.953,5220289.001],[629549.902,5220288.998],[629549.851,5220289.003],[629549.8,5220288.997],[629549.749,5220289.003],[629549.698,5220288.997],[629549.647,5220289.002],[629549.597,5220288.998],[629549.547,5220289.001],[629549.498,5220289],[629549.45,5220288.999],[629549.401,5220289.002],[629549.352,5220288.998],[629549.303,5220289.003],[629549.253,5220288.997],[629549.203,5220289.003],[629549.152,5220288.998],[629549.101,5220289.002],[629549.05,5220288.999],[629548.999,5220289],[629548.948,5220289.001],[629548.897,5220288.998],[629548.847,5220289.002],[629548.798,5220288.997],[629548.749,5220289.003],[629548.7,5220288.997],[629548.651,5220289.003],[629548.602,5220288.998],[629548.553,5220289.001],[629548.503,5220289],[629548.453,5220288.999],[629548.402,5220289.001],[629548.351,5220288.998],[629548.3,5220289.003],[629548.248,5220288.997],[629548.197,5220289.003],[629548.147,5220288.997],[629548.097,5220289.002],[629548.048,5220288.999],[629547.999,5220289.001],[629547.95,5220289],[629547.901,5220288.999],[629547.852,5220289.002],[629547.803,5220288.997],[629547.753,5220289.003],[629547.703,5220288.997],[629547.652,5220289.003],[629547.601,5220288.998],[629547.549,5220289.002],[629547.498,5220288.999],[629547.447,5220289],[629547.397,5220289.001],[629547.347,5220288.998],[629547.298,5220289.002],[629547.249,5220288.997],[629547.2,5220289.003],[629547.151,5220288.997],[629547.102,5220289.002],[629547.053,5220288.998],[629547.003,5220289.001],[629546.952,5220289],[629546.902,5220288.999],[629546.85,5220289.002],[629546.799,5220288.998],[629546.748,5220289.003],[629546.697,5220288.997],[629546.647,5220289.003],[629546.597,5220288.997],[629546.548,5220289.002],[629546.499,5220288.999],[629546.45,5220289],[629546.402,5220289.001],[629546.352,5220288.998],[629546.303,5220289.002],[629546.253,5220288.997],[629546.202,5220289.003],[629546.151,5220288.997],[629546.1,5220289.003],[629546.049,5220288.998],[629545.998,5220289.001],[629545.947,5220289],[629545.897,5220289],[629545.847,5220289.001],[629545.798,5220288.998],[629545.749,5220289.003],[629545.701,5220288.997],[629545.652,5220289.003],[629545.603,5220288.997],[629545.553,5220289.002],[629545.503,5220288.998],[629545.452,5220289.001],[629545.401,5220289],[629545.35,5220288.999],[629545.299,5220289.002],[629545.248,5220288.997],[629545.197,5220289.003],[629545.147,5220288.997],[629545.097,5220289.003],[629545.048,5220288.998],[629545,5220289.002],[629544.951,5220288.999],[629544.902,5220289],[629544.853,5220289.001],[629544.803,5220288.998],[629544.753,5220289.002],[629544.702,5220288.997],[629544.651,5220289.003],[629544.6,5220288.997],[629544.549,5220289.003],[629544.498,5220288.998],[629544.447,5220289.001],[629544.397,5220289],[629544.348,5220288.999],[629544.299,5220289.002],[629544.25,5220288.998],[629544.201,5220289.003],[629544.152,5220288.997],[629544.103,5220289.003],[629544.053,5220288.997],[629544.003,5220289.002],[629543.952,5220288.999],[629543.901,5220289],[629543.85,5220289],[629543.798,5220288.999],[629543.747,5220289.002],[629543.697,5220288.997],[629543.647,5220289.003],[629543.598,5220288.997],[629543.549,5220289.003],[629543.5,5220288.998],[629543.451,5220289.002],[629543.402,5220288.999],[629543.353,5220289],[629543.303,5220289.001],[629543.253,5220288.998],[629543.202,5220289.003],[629543.151,5220288.997],[629543.099,5220289.003],[629543.048,5220288.997],[629542.997,5220289.002],[629542.947,5220288.998],[629542.897,5220289.001],[629542.848,5220289],[629542.799,5220288.999],[629542.75,5220289.002],[629542.701,5220288.998],[629542.652,5220289.003],[629542.603,5220288.997],[629542.553,5220289.003],[629542.503,5220288.998],[629542.452,5220289.002],[629542.4,5220288.999],[629542.349,5220289],[629542.298,5220289.001],[629542.247,5220288.998],[629542.197,5220289.002],[629542.147,5220288.997],[629542.098,5220289.003],[629542.049,5220288.997],[629542,5220289.003],[629541.952,5220288.998],[629541.902,5220289.001],[629541.853,5220289],[629541.803,5220288.999],[629541.752,5220289.001],[629541.701,5220288.998],[629541.65,5220289.003],[629541.599,5220288.997],[629541.548,5220289.003],[629541.497,5220288.997],[629541.447,5220289.002],[629541.397,5220288.999],[629541.348,5220289.001],[629541.299,5220289],[629541.251,5220288.999],[629541.202,5220289.002],[629541.153,5220288.997],[629541.103,5220289.003],[629541.053,5220288.997],[629541.002,5220289.003],[629540.951,5220288.998],[629540.9,5220289.002],[629540.849,5220288.999],[629540.798,5220289],[629540.747,5220289.001],[629540.697,5220288.998],[629540.647,5220289.002],[629540.598,5220288.997],[629540.549,5220289.003],[629540.501,5220288.997],[629540.452,5220289.002],[629540.403,5220288.998],[629540.353,5220289.001],[629540.303,5220289],[629540.252,5220288.999],[629540.201,5220289.002],[629540.15,5220288.998],[629540.099,5220289.003],[629540.048,5220288.997],[629539.997,5220289.003],[629539.947,5220288.997],[629539.898,5220289.002],[629539.848,5220288.999],[629539.8,5220289],[629539.751,5220289.001],[629539.702,5220288.999],[629539.653,5220289.002],[629539.603,5220288.997],[629539.553,5220289.003],[629539.502,5220288.997],[629539.451,5220289.003],[629539.4,5220288.998],[629539.348,5220289.001],[629539.298,5220288.999],[629539.247,5220289],[629539.197,5220289.001],[629539.148,5220288.998],[629539.099,5220289.003],[629539.05,5220288.997],[629539.001,5220289.003],[629538.952,5220288.997],[629538.903,5220289.002],[629538.853,5220288.998],[629538.803,5220289.001],[629538.752,5220289],[629538.701,5220288.999],[629538.649,5220289.002],[629538.598,5220288.998],[629538.547,5220289.003],[629538.497,5220288.997],[629538.447,5220289.003],[629538.398,5220288.998],[629538.349,5220289.002],[629538.3,5220288.999],[629538.251,5220289],[629538.202,5220289.001],[629538.153,5220288.998],[629538.103,5220289.002],[629538.053,5220288.997],[629538.002,5220289.003],[629537.95,5220288.997],[629537.899,5220289.003],[629537.848,5220288.998],[629537.797,5220289.001],[629537.747,5220289],[629537.697,5220288.999],[629537.648,5220289.001],[629537.599,5220288.998],[629537.55,5220289.003],[629537.501,5220288.997],[629537.452,5220289.003],[629537.403,5220288.997],[629537.353,5220289.002],[629537.302,5220288.999],[629537.251,5220289.001],[629537.2,5220289],[629537.149,5220288.999],[629537.098,5220289.002],[629537.047,5220288.997],[629536.997,5220289.003],[629536.947,5220288.997],[629536.898,5220289.003],[629536.849,5220288.998],[629536.8,5220289.002],[629536.752,5220288.999],[629536.703,5220289],[629536.653,5220289.001],[629536.603,5220288.998],[629536.552,5220289.002],[629536.501,5220288.997],[629536.45,5220289.003],[629536.399,5220288.997],[629536.348,5220289.002],[629536.297,5220288.998],[629536.247,5220289.001],[629536.197,5220289],[629536.148,5220288.999],[629536.099,5220289.002],[629536.051,5220288.998],[629536.002,5220289.003],[629535.953,5220288.997],[629535.903,5220289.003],[629535.853,5220288.997],[629535.802,5220289.002],[629535.751,5220288.999],[629535.7,5220289],[629535.649,5220289.001],[629535.598,5220288.999],[629535.547,5220289.002],[629535.497,5220288.997],[629535.448,5220289.003],[629535.398,5220288.997],[629535.35,5220289.003],[629535.301,5220288.998],[629535.252,5220289.001],[629535.203,5220288.999],[629535.153,5220289],[629535.103,5220289.001],[629535.052,5220288.998],[629535.001,5220289.003],[629534.95,5220288.997],[629534.898,5220289.003],[629534.848,5220288.997],[629534.797,5220289.002],[629534.747,5220288.998],[629534.698,5220289.001],[629534.649,5220289],[629534.6,5220288.999],[629534.551,5220289.002],[629534.502,5220288.998],[629534.453,5220289.003],[629534.403,5220288.997],[629534.353,5220289.003],[629534.302,5220288.998],[629534.251,5220289.002],[629534.199,5220288.999],[629534.148,5220289],[629534.097,5220289.001],[629534.047,5220288.998],[629533.997,5220289.002],[629533.948,5220288.997],[629533.899,5220289.003],[629533.85,5220288.997],[629533.801,5220289.003],[629533.752,5220288.998],[629533.703,5220289.001],[629533.653,5220289],[629533.603,5220288.999],[629533.552,5220289.002],[629533.5,5220288.998],[629533.449,5220289.003],[629533.398,5220288.997],[629533.347,5220289.003],[629533.297,5220288.997],[629533.247,5220289.002],[629533.198,5220288.999],[629533.149,5220289],[629533.1,5220289],[629533.051,5220288.999],[629533.002,5220289.002],[629532.953,5220288.997],[629532.903,5220289.003],[629532.852,5220288.997],[629532.801,5220289.003],[629532.75,5220288.998],[629532.699,5220289.002],[629532.648,5220288.999],[629532.597,5220289],[629532.547,5220289.001],[629532.497,5220288.998],[629532.448,5220289.003],[629532.399,5220288.997],[629532.35,5220289.003],[629532.302,5220288.997],[629532.253,5220289.002],[629532.203,5220288.998],[629532.153,5220289.001],[629532.102,5220289],[629532.051,5220288.999],[629532,5220289.002],[629531.949,5220288.998],[629531.898,5220289.003],[629531.847,5220288.997],[629531.797,5220289.003],[629531.747,5220288.997],[629531.698,5220289.002],[629531.649,5220288.999],[629531.601,5220289],[629531.552,5220289.001],[629531.503,5220288.998],[629531.453,5220289.002],[629531.403,5220288.997],[629531.352,5220289.003],[629531.301,5220288.997],[629531.25,5220289.003],[629531.199,5220288.998],[629531.148,5220289.001],[629531.097,5220289],[629531.047,5220289],[629530.997,5220289.001],[629530.948,5220288.998],[629530.9,5220289.003],[629530.851,5220288.997],[629530.802,5220289.003],[629530.753,5220288.997],[629530.703,5220289.002],[629530.653,5220288.998],[629530.602,5220289.001],[629530.551,5220289],[629530.5,5220288.999],[629530.448,5220289.002],[629530.398,5220288.997],[629530.347,5220289.003],[629530.297,5220288.997],[629530.248,5220289.003],[629530.199,5220288.998],[629530.15,5220289.002],[629530.101,5220288.999],[629530.052,5220289],[629530.003,5220289.001],[629529.953,5220288.998],[629529.903,5220289.002],[629529.852,5220288.997],[629529.801,5220289.003],[629529.749,5220288.997],[629529.698,5220289.002],[629529.647,5220288.998],[629529.597,5220289.001],[629529.547,5220289],[629529.498,5220288.999],[629529.449,5220289.002],[629529.4,5220288.998],[629529.351,5220289.003],[629529.302,5220288.997],[629529.253,5220289.003],[629529.203,5220288.997],[629529.153,5220289.002],[629529.102,5220288.999],[629529.051,5220289],[629528.999,5220289.001],[629528.948,5220288.999],[629528.897,5220289.002],[629528.847,5220288.997],[629528.797,5220289.003],[629528.748,5220288.997],[629528.699,5220289.003],[629528.65,5220288.998],[629528.601,5220289.001],[629528.552,5220288.999],[629528.503,5220289],[629528.453,5220289.001],[629528.402,5220288.998],[629528.352,5220289.003],[629528.3,5220288.997],[629528.249,5220289.003],[629528.198,5220288.997],[629528.147,5220289.002],[629528.097,5220288.998],[629528.047,5220289.001],[629527.998,5220289],[629527.949,5220288.999],[629527.9,5220289.002],[629527.852,5220288.998],[629527.802,5220289.003],[629527.753,5220288.997],[629527.703,5220289.003],[629527.652,5220288.998],[629527.601,5220289.002],[629527.55,5220288.999],[629527.499,5220289],[629527.448,5220289.001],[629527.397,5220288.998],[629527.347,5220289.002],[629527.297,5220288.997],[629527.248,5220289.003],[629527.199,5220288.997],[629527.151,5220289.003],[629527.102,5220288.998],[629527.053,5220289.001],[629527.003,5220289],[629526.953,5220288.999],[629526.902,5220289.001],[629526.851,5220288.998],[629526.8,5220289.003],[629526.749,5220288.997],[629526.698,5220289.003],[629526.647,5220288.997],[629526.597,5220289.002],[629526.547,5220288.999],[629526.498,5220289.001],[629526.45,5220289],[629526.401,5220288.999],[629526.352,5220289.002],[629526.303,5220288.997],[629526.253,5220289.003],[629526.203,5220288.997],[629526.152,5220289.003],[629526.101,5220288.998],[629526.05,5220289.002],[629525.999,5220288.999],[629525.948,5220289],[629525.897,5220289.001],[629525.847,5220288.998],[629525.798,5220289.002],[629525.749,5220288.997],[629525.7,5220289.003],[629525.651,5220288.997],[629525.602,5220289.002],[629525.553,5220288.998],[629525.503,5220289.001],[629525.453,5220289],[629525.402,5220288.999],[629525.351,5220289.002],[629525.3,5220288.998],[629525.248,5220289.003],[629525.197,5220288.997],[629525.147,5220289.003],[629525.097,5220288.997],[629525.048,5220289.002],[629524.999,5220288.999],[629524.95,5220289],[629524.901,5220289.001],[629524.852,5220288.999],[629524.803,5220289.002],[629524.753,5220288.997],[629524.703,5220289.003],[629524.652,5220288.997],[629524.601,5220289.003],[629524.549,5220288.998],[629524.498,5220289.001],[629524.447,5220288.999],[629524.397,5220289],[629524.347,5220289.001],[629524.298,5220288.998],[629524.249,5220289.003],[629524.2,5220288.997],[629524.151,5220289.003],[629524.102,5220288.997],[629524.053,5220289.002],[629524.003,5220288.998],[629523.952,5220289.001],[629523.902,5220289],[629523.85,5220288.999],[629523.799,5220289.002],[629523.748,5220288.998],[629523.697,5220289.003],[629523.647,5220288.997],[629523.597,5220289.003],[629523.548,5220288.998],[629523.499,5220289.002],[629523.45,5220288.999],[629523.402,5220289],[629523.352,5220289.001],[629523.303,5220288.998],[629523.253,5220289.002],[629523.202,5220288.997],[629523.151,5220289.003],[629523.1,5220288.997],[629523.049,5220289.003],[629522.998,5220288.998],[629522.947,5220289.001],[629522.897,5220289],[629522.847,5220288.999],[629522.798,5220289.001],[629522.749,5220288.998],[629522.701,5220289.003],[629522.652,5220288.997],[629522.603,5220289.003],[629522.553,5220288.997],[629522.503,5220289.002],[629522.452,5220288.999],[629522.401,5220289],[629522.35,5220289],[629522.299,5220288.999],[629522.248,5220289.002],[629522.197,5220288.997],[629522.147,5220289.003],[629522.097,5220288.997],[629522.048,5220289.003],[629521.999,5220288.998],[629521.951,5220289.002],[629521.902,5220288.999],[629521.853,5220289],[629521.803,5220289.001],[629521.753,5220288.998],[629521.702,5220289.003],[629521.651,5220288.997],[629521.6,5220289.003],[629521.549,5220288.997],[629521.498,5220289.002],[629521.447,5220288.998],[629521.397,5220289.001],[629521.348,5220289],[629521.299,5220288.999],[629521.25,5220289.002],[629521.201,5220288.998],[629521.152,5220289.003],[629521.103,5220288.997],[629521.053,5220289.003],[629521.003,5220288.997],[629520.952,5220289.002],[629520.901,5220288.999],[629520.85,5220289],[629520.798,5220289.001],[629520.747,5220288.998],[629520.697,5220289.002],[629520.647,5220288.997],[629520.598,5220289.003],[629520.549,5220288.997],[629520.5,5220289.003],[629520.451,5220288.998],[629520.402,5220289.001],[629520.353,5220289],[629520.303,5220289],[629520.253,5220289.001],[629520.202,5220288.998],[629520.151,5220289.003],[629520.099,5220288.997],[629520.048,5220289.003],[629519.997,5220288.997],[629519.997,5220288.952],[629519.997,5220288.898],[629519.998,5220288.851],[629519.999,5220288.8],[629520,5220288.749],[629520.001,5220288.702],[629520.002,5220288.647],[629520.003,5220288.603],[629520.003,5220288.547],[629520.003,5220288.503],[629520.002,5220288.448],[629520,5220288.402],[629519.999,5220288.349],[629519.998,5220288.3],[629519.997,5220288.251],[629519.997,5220288.198],[629519.997,5220288.152],[629519.998,5220288.097],[629519.999,5220288.053],[629520,5220287.997],[629520.002,5220287.953],[629520.002,5220287.898],[629520.003,5220287.851],[629520.003,5220287.8],[629520.002,5220287.749],[629520.001,5220287.702],[629520,5220287.648],[629519.999,5220287.603],[629519.998,5220287.547],[629519.997,5220287.503],[629519.997,5220287.447],[629519.997,5220287.402],[629519.998,5220287.349],[629519.999,5220287.3],[629520.001,5220287.25],[629520.002,5220287.199],[629520.003,5220287.152],[629520.003,5220287.097],[629520.003,5220287.053],[629520.002,5220286.997],[629520.001,5220286.953],[629520,5220286.898],[629519.999,5220286.851],[629519.998,5220286.799],[629519.997,5220286.75],[629519.997,5220286.701],[629519.997,5220286.648],[629519.998,5220286.603],[629519.999,5220286.547],[629520.001,5220286.503],[629520.002,5220286.447],[629520.003,5220286.402],[629520.003,5220286.348],[629520.003,5220286.301],[629520.002,5220286.25],[629520.001,5220286.199],[629520,5220286.152],[629519.999,5220286.098],[629519.998,5220286.053],[629519.997,5220285.997],[629519.997,5220285.953],[629519.998,5220285.898],[629519.998,5220285.852],[629520,5220285.799],[629520.001,5220285.75],[629520.002,5220285.701],[629520.003,5220285.648],[629520.003,5220285.602],[629520.003,5220285.547],[629520.002,5220285.503],[629520.001,5220285.447],[629520,5220285.403],[629519.998,5220285.348],[629519.998,5220285.301],[629519.997,5220285.25],[629519.997,5220285.199],[629519.998,5220285.151],[629519.999,5220285.098],[629520,5220285.053],[629520.001,5220284.997],[629520.002,5220284.953],[629520.003,5220284.897],[629520.003,5220284.852],[629520.003,5220284.799],[629520.002,5220284.751],[629520.001,5220284.7],[629519.999,5220284.649],[629519.998,5220284.602],[629519.997,5220284.547],[629519.997,5220284.503],[629519.997,5220284.447],[629519.998,5220284.403],[629519.999,5220284.348],[629520,5220284.302],[629520.001,5220284.249],[629520.002,5220284.2],[629520.003,5220284.151],[629520.003,5220284.098],[629520.003,5220284.052],[629520.002,5220283.997],[629520,5220283.953],[629519.999,5220283.897],[629519.998,5220283.852],[629519.997,5220283.798],[629519.997,5220283.751],[629519.997,5220283.7],[629519.998,5220283.649],[629519.999,5220283.602],[629520,5220283.548],[629520.001,5220283.503],[629520.002,5220283.447],[629520.003,5220283.403],[629520.003,5220283.347],[629520.002,5220283.302],[629520.001,5220283.249],[629520,5220283.2],[629519.999,5220283.151],[629519.998,5220283.099],[629519.997,5220283.052],[629519.997,5220282.997],[629519.997,5220282.953],[629519.998,5220282.897],[629519.999,5220282.853],[629520,5220282.798],[629520.002,5220282.751],[629520.003,5220282.699],[629520.003,5220282.65],[629520.003,5220282.601],[629520.002,5220282.548],[629520.001,5220282.503],[629520,5220282.447],[629519.999,5220282.403],[629519.998,5220282.347],[629519.997,5220282.302],[629519.997,5220282.248],[629519.997,5220282.201],[629519.998,5220282.15],[629519.999,5220282.099],[629520.001,5220282.052],[629520.002,5220281.998],[629520.003,5220281.953],[629520.003,5220281.897],[629520.003,5220281.853],[629520.002,5220281.798],[629520.001,5220281.752],[629520,5220281.699],[629519.999,5220281.65],[629519.998,5220281.601],[629519.997,5220281.548],[629519.997,5220281.502],[629519.998,5220281.447],[629519.998,5220281.403],[629520,5220281.347],[629520.001,5220281.303],[629520.002,5220281.248],[629520.003,5220281.201],[629520.003,5220281.15],[629520.003,5220281.099],[629520.002,5220281.051],[629520,5220281.003]],[[629537,5220284.5],[629537,5220285.5],[629538,5220285.5],[629538,5220284.5],[629537,5220284.5]]]}},{"type":"Feature","properties":{"interrow_id":"V01-I001","vineyard_id":"V01","interrow_cover":"mixed","tile":"siret3_r018_c011","row_ids":["V01-R002"],"area_m2":118.4,"piece_id":"V01-I001@siret3_r018_c011"},"geometry":{"type":"Polygon","coordinates":[[[629555.2,5220281],[629570,5220281],[629570,5220289],[629555.2,5220289],[629555.2,5220281]]]}},{"type":"Feature","properties":{"interrow_id":"V02-I001","vineyard_id":"V02","interrow_cover":"vegetation","tile":"siret3_r018_c011","row_ids":["V02-R001"],"area_m2":160,"piece_id":"V02-I001@siret3_r018_c011"},"geometry":{"type":"Polygon","coordinates":[[[629580,5220261],[629600,5220261],[629600,5220269],[629580,5220269],[629580,5220261]]]}},{"type":"Feature","properties":{"interrow_id":"V02-I001","vineyard_id":"V02","interrow_cover":"vegetation","tile":"siret3_r018_c011","row_ids":["V02-R001"],"area_m2":164,"piece_id":"V02-I001@siret3_r018_c011#2"},"geometry":{"type":"Polygon","coordinates":[[[629580,5220261.5],[629600.5,5220261.5],[629600.5,5220269.5],[629580,5220269.5],[629580,5220261.5]]]}}]}