{"type":"FeatureCollection","name":"rows","crs":{"type":"name","properties":{"name":"urn:ogc:def:crs:EPSG::32635"}},"features":[{"type":"Feature","properties":{"row_id":"V01-R010","vineyard_id":"V01","row_structure":"regular","length_m":16.445,"plant_count":1,"max_gap_m":0,"tile_structures":{"siret3_r018_c010":"regular"}},"geometry":{"type":"LineString","coordinates":[[629520,5220290],[629536.4449,5220290]]}},{"type":"Feature","properties":{"row_id":"V02-R001","vineyard_id":"V02","row_structure":"regular","length_m":20,"plant_count":1,"max_gap_m":12.5,"tile_structures":{"siret3_r018_c011":"regular"}},"geometry":{"type":"LineString","coordinates":[[629580,5220260],[629600,5220260]]}},{"type":"Feature","properties":{"row_id":"V01-R002","vineyard_id":"V01","row_structure":"disrupted","length_m":30,"plant_count":2,"max_gap_m":7.25,"tile_structures":{"siret3_r018_c010":"regular","siret3_r018_c011":"disrupted"}},"geometry":{"type":"MultiLineString","coordinates":[[[629540,5220280],[629555.2,5220280]],[[629555.2,5220280],[629570,5220280]]]}}]}