{"type":"FeatureCollection","name":"targets","crs":{"type":"name","properties":{"name":"urn:ogc:def:crs:EPSG::32635"}},"features":[{"type":"Feature","properties":{"target_id":"T003","type":"gap","vineyard_id":"V01","row_id":"V01-R010","waste_id":null,"route_order":null,"reachable":false,"gap_length_m":5.1,"note":"optional_detour; gap 5.10 m","kind":"row_gap","tile":"siret3_r018_c010","source_target_id":"T-T003"},"geometry":{"type":"Point","coordinates":[629530,5220290]}},{"type":"Feature","properties":{"target_id":"T002","type":"missing","vineyard_id":"V02","row_id":"V02-R001","waste_id":null,"route_order":2.0,"reachable":true,"gap_length_m":null,"note":"missing_plant","kind":"missing_plant","tile":"siret3_r018_c011","source_target_id":"T-T002"},"geometry":{"type":"Point","coordinates":[629590.5,5220260]}},{"type":"Feature","properties":{"target_id":"T001","type":"gap","vineyard_id":"V01","row_id":"V01-R002","waste_id":null,"route_order":1.0,"reachable":true,"gap_length_m":7.25,"note":"row_gap; gap 7.25 m","kind":"row_gap","tile":"siret3_r018_c011","source_target_id":"T-T001"},"geometry":{"type":"Point","coordinates":[629560,5220280]}},{"type":"Feature","properties":{"target_id":"T004","type":"missing","vineyard_id":"V01","row_id":null,"waste_id":null,"route_order":null,"reachable":false,"gap_length_m":null,"note":"disconnected; missing row","kind":"missing_row","tile":"siret3_r018_c010","source_target_id":"T-T004"},"geometry":{"type":"Point","coordinates":[629545,5220285]}},{"type":"Feature","properties":{"target_id":"T005","type":"waste","vineyard_id":null,"row_id":null,"waste_id":"W1","route_order":null,"reachable":false,"gap_length_m":null,"note":"too_far","kind":"waste","tile":"siret3_r018_c011","source_target_id":"T-T005"},"geometry":{"type":"Point","coordinates":[629591,5220286]}}]}